County,License Number,Operation Type,Establishment Type,Entity Name,DBA Name,Street Number,Street Name,Address Line 2,Address Line 3,City,State,Zip Code,Square Footage,Georeference,longitude,latitude
Queens,755999,Store,JAC,HAPPY MARKET US INC,HAPPY MARKET,82-02,45TH AVE,,,ELMHURST,NY,11373,5000,-73.88275 40.74163,-73.88275,40.74163
Kings,755995,Store,JAC,BOGOPA FLATBUSH INC,FOOD BAZAAR SUPERMARKET,1009,FLATBUSH AVE,,,BROOKLYN,NY,11226,60000,-73.95811 40.64669,-73.95811,40.64669
Queens,755809,Store,JAC,KNA MEAT & PRODUCE CORP,FOOD UNIVERSE MARKETPLA,35-09,FRANCIS LEWIS BLVD,,,FLUSHING,NY,11358,10000,-73.78743 40.76394,-73.78743,40.76394
New York,755712,Store,JAC,LEE TAE SEOK,PRANZO,100,BROAD ST,,,NEW YORK,NY,10004,15000,-74.0116 40.70348,-74.0116,40.70348
Queens,755578,Store,JAC,ASTORIA FARM FOOD CORP,FARM COUNTRY,37-15,31ST AVENUE,,,ASTORIA,NY,11103,30000,-73.91847 40.76197,-73.91847,40.76197
Queens,755549,Store,JAC,WALLFOOD INCORPORATED,WALFOOD SUPERMARKET,39-20,BELL BLVD,,,BAYSIDE,NY,11361,19000,-73.77218 40.76488,-73.77218,40.76488
Richmond,755285,Store,JAC,NEW HL SUPERMARKET INC,NEW HL SUPERMARKET,2380,HYLAN BLVD,,,STATEN ISLAND,NY,10306,45000,-74.1072 40.57293,-74.1072,40.57293
Kings,755169,Store,JAC,BEYOND NATURAL MARKET 2 INC,BEYOND NATURAL MARKET 2,1197,FULTON STREET,,,BROOKLYN,NY,11216,5000,-73.95383 40.68074,-73.95383,40.68074
Kings,754751,Store,JAC,476 MARCUS GARVEY MEAT LLC,KEY FOOD FRESH SUPERMAR,476,MARCUS GARVEY BLVD,,,BROOKLYN,NY,11216,7500,-73.93752 40.6804,-73.93752,40.6804
Richmond,754709,Store,JAC,ASIAN FOOD MARKETS OF FOREST AVE,ASIAN FOOD MARKETS,2343,FOREST AVE,,,STATEN ISLAND,NY,10303,8000,-74.16806 40.62766,-74.16806,40.62766
Queens,754584,Store,JAC,BOGOPA CAMBRIA HEIGHTS INC,FARMBRIA BY FOOD BAZAAR,217-20,LINDEN BLVD,,,CAMBRIA HEIGHTS,NY,11411,38000,-73.74206 40.69575,-73.74206,40.69575
Queens,754544,Store,JAC,ELMHURST FARMS FOOD CORP,FARM COUNTRY SUPERMARKE,75-55,31ST AVENUE,,,EAST ELMHURST,NY,11370,20000,-73.89168 40.75864,-73.89168,40.75864
Queens,754538,Store,JAC,TANVI FOOD MARKET INC,DITMARS BLVD SUPERMARKE,46-14,DITMARS BLVD,,,ASTORIA,NY,11105,6000,-73.90203 40.77002,-73.90203,40.77002
New York,754244,Store,JAC,WHOLE FOODS MARKET GROUP INC,WHOLE FOODS MARKET,66,BROADWAY,,,NEW YORK,NY,10005,42000,-74.01228 40.70706,-74.01228,40.70706
New York,754129,Store,A,MANHATTEN 8TH AVE INC,USA SUPERSTORES,322,8TH AVE.,,,NEW YORK,NY,10001,6500,-73.99696 40.74738,-73.99696,40.74738
Kings,754128,Store,JACH,BP FISH MARKET LLC,TUV TAAM FISH MARKET,4801,NEW UTRECHT AVE,,,BROOKLYN,NY,11219,11000,-73.9947 40.63688,-73.9947,40.63688
Queens,754064,Store,JAC,48 BROADWAY SUPERMARKET INC,FOOD IS LOVE,48-18,BROADWAY,,,ASTORIA,NY,11103,5000,-73.91222 40.7558,-73.91222,40.7558
Richmond,753932,Store,JABC,SRM PRODUCE & MEAT LLC,IDEAL FRESH,1006,ROSSVILLE AVENUE,,,STATEN ISLAND,NY,10309,12000,-74.21176 40.55133,-74.21176,40.55133
Bronx,753888,Store,JAC,JRI JEROME FOOD CORP,FOOD DYNASTY SPMKT,2343,JEROME AVE,,,BRONX,NY,10468,14000,-73.9032 40.85956,-73.9032,40.85956
New York,753882,Store,A,TARGET CORPORATION,TARGET STORE T-3411,600,BROADWAY,,,NEW YORK,NY,10012,26000,-73.99694 40.72526,-73.99694,40.72526
Bronx,753651,Store,JAC,KINGSTON FINE FOODS CORP,KEY FOOD,2711,WHITE PLAINS ROAD,,,BRONX,NY,10467,10000,-73.86731 40.86602,-73.86731,40.86602
Bronx,752895,Store,JAC,VEG-FRESH NY INC,VEG-FRESH NY,810,EDGEWATER RD,,,BRONX,NY,10474,10000,-73.88344 40.81762,-73.88344,40.81762
Queens,752510,Store,A,OZONE PARK ENTERPRISES LLC,DII ENTERPRISE,104-11,LIBERTY AVE,,,OZONE PARK,NY,11417,19700,-73.83635 40.68227,-73.83635,40.68227
Queens,752460,Store,JAC,SUNHAI CORP,SUNHAI,144-50,NORTHERN BLVD.,,,FLUSHING,NY,11354,12000,-73.82144 40.7649,-73.82144,40.7649
Bronx,752335,Store,JAC,50 VAN CORTLANDT MEAT CORP,FOOD UNIVERSE MARKET,50,VAN CORTLANDT AVE W,,,BRONX,NY,10463,15000,-73.89291 40.88314,-73.89291,40.88314
Kings,752099,Store,JAC,BORO MED CORP,FIGLAND MARKET,6512,14TH AVE,,,BROOKLYN,NY,11219,12000,-73.99969 40.62432,-73.99969,40.62432
Queens,752090,Store,JAC,BERRIES & BLOOMS MARKET CORP,BERRIES & BLOOMS MARKET,14726,BROOKVILLE BLVD,,,ROSEDALE,NY,11422,6000,-73.74494 40.65672,-73.74494,40.65672
Queens,751927,Store,JAC,CHANG GIANG SUPERMARKET INC,CG FOODMARKET,40-33,MAIN ST,,,FLUSHING,NY,11354,5000,-73.82972 40.75872,-73.82972,40.75872
Kings,751856,Store,JAC,HARTLAND SUPERMARKET LLC,ASSOCIATED MARKET PLACE,605,HART STREET,,,BROOKLYN,NY,11221,9400,-73.92775 40.69784,-73.92775,40.69784
Queens,751855,Store,JAC,SKILZ CORPORATION,7 ELEVEN STORE # 36951B,179-55,HILLSIDE AVENUE,,,JAMAICA,NY,11432,5000,-73.78312 40.71281,-73.78312,40.71281
Richmond,751758,Store,JADK,BIFULCOS PICKLE WORKS LLC,STATEN ISLAND PICKLE,1116,TARGEE ST.  (AKA 1120),,,STATEN ISLAND,NY,10304,8000,-74.09154 40.60075,-74.09154,40.60075
Kings,751695,Store,JAC,BRANDS FOOD SELLERS 2 INC THE,FOOD UNIVERSE,237-243,AVENUE U,,,BROOKLYN,NY,11223,8000,-73.97544 40.59675,-73.97544,40.59675
Queens,751660,Store,A,DISCOUNT EXPRESS INC,DISCOUNT EXPRESS,93-10,ROCKAWAY BLVD,,,OZONE PARK,NY,11417,10000,-73.84613 40.68104,-73.84613,40.68104
Queens,751627,Store,JACDH,LAURELTON WHOLESALER LLC,LAURELTON WHOLESALER,231-02,MERRICK BLVD,,,SPRINGFIELD GARDEN,NY,11413,7000,-73.73921 40.67565,-73.73921,40.67565
Richmond,751431,Store,JAC,GOURMET ISLAND LLC,GOURMET ISLAND,2107,RICHMOND ROAD,,,STATEN ISLAND,NY,10306,10000,-74.11216 40.5817,-74.11216,40.5817
New York,751402,Store,JAC,SEVEN SEAS WESTERLY LLC,WESTERLY NATURAL MARKET,911,8TH AVE,,,NEW YORK,NY,10019,7000,-73.98419 40.76488,-73.98419,40.76488
Kings,751373,Store,JAD,ANCHOVY PROJECT LLC THE,IPSA PROVISIONS,49,FROST STREET,,,BROOKLYN,NY,11211,5000,-73.94975 40.71759,-73.94975,40.71759
Kings,751178,Store,JAC,HATZLACHA SUPERMARKET INC,HATZLACHA SUPERMARKET,744,BEDFORD AVE,,,BROOKLYN,NY,11205,10000,-73.95693 40.69849,-73.95693,40.69849
Queens,751052,Store,A,D & Z 99C STORE & UP INC,D & Z 99C STORE & UP,167-02,HILLSIDE AVE,,,JAMAICA,NY,11432,7000,-73.79529 40.70983,-73.79529,40.70983
New York,750788,Store,A,TARGET CORPORATION,TARGET STORE T3329,602,W 181ST ST,,,NEW YORK,NY,10033,8000,-73.93432 40.84956,-73.93432,40.84956
New York,750787,Store,A,TARGET CORPORATION,TARGET STORE T3387,150,E 86TH ST,,,NEW YORK,NY,10028,15000,-73.95528 40.77937,-73.95528,40.77937
New York,750760,Store,JAC,R&M AMSTERDAM FOOD LLC,KEYFOOD FRESH,733,AMSTERDAM AVE,,,NEW YORK,NY,10025,7500,-73.97059 40.79376,-73.97059,40.79376
New York,750527,Store,JAC,WEST END BROOKLYN FARE LLC,BROOKLYN FARE,75,WEST END AVE.,,,NEW YORK,NY,10023,21000,-73.98871 40.774,-73.98871,40.774
Queens,750509,Store,JAC,SUBZI BAZAAR NY II INC,SUBZI BAZAAR,42-92,MAIN STREET,,,FLUSHING,NY,11355,8200,-73.82707 40.75278,-73.82707,40.75278
New York,750506,Store,A,D&L 40TH STREET LLC,DAVIDS DEALS,16,EAST 40TH STREET,,,NEW YORK,NY,10016,5000,-73.9808 40.75176,-73.9808,40.75176
Kings,750472,Store,JAC,145 WEST MARKETPLACE INC,JUBILEE MARKET PLACE,145,WEST ST,,,BROOKLYN,NY,11222,14000,-73.95964 40.73215,-73.95964,40.73215
Kings,750408,Store,JAC,EMILIOS FOOD CORP,TONYS STOP & SAVE SUPER,1161,SUTTER AVENUE,,,BROOKLYN,NY,11208,5000,-73.87513 40.67232,-73.87513,40.67232
Queens,750387,Store,JAC,WONDERFUL MARKET PLACE INC,WONDERFUL MARKET PLACE,137-35,ELDER AVE,,,FLUSHING,NY,11355,8000,-73.82506 40.75136,-73.82506,40.75136
Kings,750245,Store,JAC,FARM TO PEOPLE LLC,FARM TO PEOPLE,1100,FLUSHING AVE,,,BROOKLYN,NY,11237,17000,-73.92734 40.70527,-73.92734,40.70527
Queens,750238,Store,A,CAMBRIA HEIGHTS 11907 INC,USA SUPERSTORES,119-07,SPRINGFIELD BLVD,,,CAMBRIA HEIGHTS,NY,11411,6800,-73.74521 40.69258,-73.74521,40.69258
Bronx,750099,Store,JAC,AURORA & AARON MEAT & PRODUCE COR,AURORA & AARON MEAT & P,1932,BRYANT AVENUE,,,BRONX,NY,10460,10000,-73.8819 40.84029,-73.8819,40.84029
Kings,750011,Store,JAC,LM III INC,LINCOLN MARKET,1134,FULTON ST,,,BROOKLYN,NY,11216,12000,-73.95509 40.68101,-73.95509,40.68101
Queens,749972,Store,JAC,A&E SUPERMARKET INC,A&E SUPERMARKET,117-31,FARMERS BLVD,,,SAINT ALBANS,NY,11412,5000,-73.76226 40.69071,-73.76226,40.69071
Kings,749444,Store,JAC,SATMAR MEATS DIVISION OF BP INC,SATMAR MEATS DIVISION O,4402,13TH AVE,,,BROOKLYN,NY,11219,6000,-73.98931 40.63772,-73.98931,40.63772
Bronx,748880,Store,A,DCON DISCOUNT INC,DCON DISCOUNT,4412,WHITE PLAINS ROAD,,,BRONX,NY,10470,8000,-73.85384 40.899,-73.85384,40.899
Queens,748733,Store,JAC,ROSENTHAL WINE MERCHANTS(NY) LTD,MAD ROSE,56-43,58TH STREET,,,MASPETH,NY,11378,10000,-73.91249 40.72445,-73.91249,40.72445
Bronx,748678,Store,JAC,1434 FOOD CO LLC,SUPERFRESH KEY FOOD,1434,JEROME AVENUE,,,BRONX,NY,10452,14000,-73.91697 40.84121,-73.91697,40.84121
Kings,748587,Store,JAC,TARGET CORP,TARGET STORE T-3356,8973-95,BAY PKWY,,,BROOKLYN,NY,11214,20000,-74.00138 40.5948,-74.00138,40.5948
Queens,748585,Store,A,TARGET CORP,TARGET STORE T-3372,160-08,JAMAICA AVE,,,JAMAICA,NY,11432,21000,-73.79885 40.70391,-73.79885,40.70391
Bronx,748519,Store,JACD,CONSVEESFA ENTERPRISE INC,CONSVEESFA ENTERPRISE,602,TIFFANY ST,,,BRONX,NY,10474,5000,-73.89059 40.81176,-73.89059,40.81176
Queens,748474,Store,JAC,134 LIBERTY AVE LLC,APNA BAZAR FARMERS MKT,134-02,LIBERTY AVE,,,SOUTH RICHMOND HIL,NY,11419,10000,-73.81255 40.69149,-73.81255,40.69149
Queens,748307,Store,JAC,JAMAICA FINEST MEAT CORP,GREEN VALLEY SUPERMARKE,85-08,JAMAICA AVE,,,WOODHAVEN,NY,11421,5000,-73.85874 40.69255,-73.85874,40.69255
Kings,748052,Store,A,DEBEVOISE DISCOUNT STORE INC,MAX DEALS,28,DEBEBOISE ST,,,BROOKLYN,NY,11206,11000,-73.9416 40.70169,-73.9416,40.70169
Bronx,747990,Store,JAC,ST MEAT & GROCERY INC,FOOD FAIR FRESH MARKET,2467,JEROME AVE,,,BRONX,NY,10468,15000,-73.90093 40.86296,-73.90093,40.86296
Queens,747912,Store,JAC,RAM UNION INC,RAM UNION,176-19,UNION TPKE,,,FRESH MEADOWS,NY,11366,8000,-73.79263 40.72559,-73.79263,40.72559
Queens,747761,Store,JAC,109-03 LIBERTY AVENUE REALTY CORP,K TOWN SUPERMARKET,109-01,LIBERTY AVE,,,SOUTH RICHMOND HIL,NY,11419,17000,-73.83257 40.68415,-73.83257,40.68415
New York,747589,Store,JAC,MARS RETAIL GROUP INC,M & M WORLD NYC,1600,BROADWAY,,,NEW YORK,NY,10019,20000,-73.98469 40.76035,-73.98469,40.76035
Queens,747539,Store,JABC,VALUE FRESH MARKET INC,VALUE FRESH MARKET,182-20,JAMAICA AVE,,,HOLLIS,NY,11423,7000,-73.77812 40.70858,-73.77812,40.70858
Kings,747329,Store,JAC,509 MEAT CORP,URBAN MARKET PARK SLOPE,509,5TH AVENUE,,,BROOKLYN,NY,11215,7000,-73.98807 40.66704,-73.98807,40.66704
Kings,747272,Store,JAC,20TH AVE SUPERMARKET INC,20TH AVE SUPERMARKET,8506,20TH AVE,,,BROOKLYN,NY,11214,10000,-73.99777 40.60505,-73.99777,40.60505
Kings,747248,Store,JAC,URTH MARKET LLC,MARKET ON KENT,921,MANHATTAN AVENUE,,,BROOKLYN,NY,11222,6000,-73.95432 40.7308,-73.95432,40.7308
Bronx,747053,Store,JAC,BROOK MEAT & PRODUCE CORP,SHOP FAIR,228,BROOK AVENUE,,,BRONX,NY,10454,10000,-73.91956 40.80708,-73.91956,40.80708
Queens,746918,Store,JAC,EJ MEAT MARKET CORP,MANGO HILLS,290,BEACH 145TH STREET,,,FAR ROCKAWAY,NY,11691,8000,nan,,
Bronx,746886,Store,JAC,MIANDAV FOOD CORP,FOOD UNIVERSE MARKET PL,1187,JEROME AVENUE,,,BRONX,NY,10452,8000,-73.92276 40.83584,-73.92276,40.83584
Queens,746845,Store,JAC,US 1 SUPERMARKET INC,US 1 SUPERMARKET,39-12,MAIN STREET,,,FLUSHING,NY,11354,22000,-73.83026 40.75983,-73.83026,40.75983
Kings,746824,Store,JACD,MARNOCK RETAIL LLC,GOOD FOOD FOR LESS,402,EAST 83RD STREET,,,BROOKLYN,NY,11236,16000,-73.91783 40.64303,-73.91783,40.64303
Kings,746637,Store,JAC,BEYOND NATURAL MARKET INC,BEYOND NATURAL MARKET,195,MONTROSE AVE,,,BROOKLYN,NY,11206,10000,-73.94127 40.70751,-73.94127,40.70751
Queens,746484,Store,JAC,6401 MEAT & PRODUCE CORP,C TOWN SUPERMARKET,64-01,FRESH POND RD,,,RIDGEWOOD,NY,11385,15000,-73.89921 40.71009,-73.89921,40.71009
Queens,746351,Store,JAC,J & H FARMERS MARKET CORP,JOHN'S FARM MARKET,112-55,FARMERS BLVD,,,SAINT ALBANS,NY,11412,10000,-73.7632 40.69961,-73.7632,40.69961
Kings,746339,Store,JACH,TALEA BEER INC,TALEA BEER CO,87,RICHARDSON ST STE 1,,,BROOKLYN,NY,11211,9000,-73.94812 40.71849,-73.94812,40.71849
Bronx,746173,Store,JAC,183 MEAT CORP,FOOD UNIVERSE MARKETPLA,60,WEST 183RD STREET,,,BRONX,NY,10453,8000,-73.90623 40.85916,-73.90623,40.85916
Richmond,746146,Store,A,SBSG PARTNERS LLC,ISLAND KOSHER,2210,VICTORY BLVD,,,STATEN ISLAND,NY,10314,5000,-74.13701 40.61211,-74.13701,40.61211
Bronx,746009,Store,JAC,MARCELO FOOD CORP,BRAVO SUPERMARKET,309,E BURNSIDE AVENUE,,,BRONX,NY,10457,7000,-73.901 40.85049,-73.901,40.85049
Kings,745983,Store,JAC,WILD EAST BREWING CO LLC,WILD EAST BREWING CO,623,SACKETT ST,,,BROOKLYN,NY,11217,7000,-73.98356 40.6784,-73.98356,40.6784
Kings,745747,Store,JAC,KF ENNIS 86 LLC,FOOD UNIVERSE MARKET PL,1982-84,86TH STREET,,,BROOKLYN,NY,11214,6500,-73.99842 40.60471,-73.99842,40.60471
Queens,745691,Store,JAC,JACKSON Q PLAZA LLC,CITY ACRES MARKET,29-18,QUEENS PLAZA SOUTH,,,LONG ISLAND CITY,NY,11101,19000,-73.93803 40.74939,-73.93803,40.74939
Queens,745667,Store,JAC,103-09 LIBERTY FOOD CORP,MARKET PLACE SUPERMARKE,103-09,LIBERTY AVE,,,OZONE PARK,NY,11417,15000,-73.83747 40.68209,-73.83747,40.68209
Bronx,745532,Store,JAC,RJ CASTLE HILL FOOD CORP,PIONEER SUPERMARKET,1345,CASTLE HILL AVE,,,BRONX,NY,10462,85000,-73.85202 40.83539,-73.85202,40.83539
Queens,745494,Store,JAC,CROWN ROSARIO GROUP INC,C TOWN SUPERMARKET,115-34,SUTPHIN BLVD,,,JAMAICA,NY,11434,6000,-73.79255 40.68387,-73.79255,40.68387
New York,745486,Store,JAC,2395 CDM MEAT & PRODUCE CORP,C-TOWN SUPERMARKET,2395,FREDERICK DOUGLASS BLVD,,,NEW YORK,NY,10027,7300,-73.94962 40.8123,-73.94962,40.8123
Queens,745471,Store,JAC,NARWHAL LLC,FINBACK,78-01,77TH AVE,,,RIDGEWOOD,NY,11385,6000,-73.87213 40.70663,-73.87213,40.70663
Kings,745470,Store,JACH,FINBACK BROOKLYN LLC,FINBACK BROOKLYN,545,PRESIDENT ST,,,BROOKLYN,NY,11215,6500,-73.98488 40.67732,-73.98488,40.67732
Queens,745361,Store,JAC,DSCC VENTURES LLC,FIFTH HAMMER BREWING CO,10-28,46TH AVENUE,,,LONG ISLAND CITY,NY,11101,5000,-73.95144 40.74663,-73.95144,40.74663
New York,745352,Store,JAC,1331 MEAT & PRODUCE CORP,SHOP FAIR,1331,ST NICHOLAS AVE,,,NEW YORK,NY,10033,10000,-73.93577 40.84653,-73.93577,40.84653
Queens,745254,Store,JAC,BJS WHOLESALE CLUB INC,BJS WHOLESALE CLUB,34-60,48TH ST,,,LONG ISLAND CITY,NY,11101,50000,-73.91476 40.75321,-73.91476,40.75321
Queens,745120,Store,JAC,LITTLE NECK SUPERMARKET INC,LITTLE NECK SUPERMARKET,25445,HORACE HARDING EXPY,,,LITTLE NECK,NY,11362,8500,-73.72654 40.76394,-73.72654,40.76394
Bronx,745003,Store,JAC,WESTERN BEEF RETAIL INC,WESTERN BEEF,3629,WHITE PLAINS ROAD,,,BRONX,NY,10467,20000,-73.86515 40.88017,-73.86515,40.88017
Kings,744820,Store,JAC,409 FOOD CORP,FOOD TOWN,409,5TH AVE,,,BROOKLYN,NY,11215,8000,-73.9855 40.67014,-73.9855,40.67014
Kings,744812,Store,JAC,E & H SEAFOOD & MEAT MARKET INC,E & H SEAFOOD & MEAT MA,1805-1811,AVENUE U,,,BROOKLYN,NY,11229,21000,-73.95322 40.59917,-73.95322,40.59917
Kings,744650,Store,JAC,JRI FLATLAND FOOD CORP,FOOD WORLD SUPERMARKET,937,E 107TH ST,,,BROOKLYN,NY,11236,10000,-73.89246 40.64768,-73.89246,40.64768
Queens,744485,Store,JAC,STOP & SHOP SUPERMARKET COMPANY L,STOP & SHOP 2570,253-01,ROCKAWAY BLVD,,,ROSEDALE,NY,11422,60000,-73.74028 40.6361,-73.74028,40.6361
Queens,744447,Store,JAC,HEMPSTEAD AVENUE FOOD LLC,C-TOWN,218-51,HEMPSTEAD AVENUE,,,QUEENS VILLAGE,NY,11429,7500,-73.7364 40.71348,-73.7364,40.71348
Richmond,744399,Store,JABC,MANNIX FAMIILY MARKET @ HYLAN BLV,SHOPRITE OF HYLAN BLVD,2656,HYLAN BLVD  SUITE 100,,,STATEN ISLAND,NY,10306,76000,-74.113 40.56714,-74.113,40.56714
Kings,744361,Store,JAC,781 METROPOLITAN FOOD CORP,BROOKLYN HARVEST MARKET,781,METROPOLITAN AVENUE,,,BROOKLYN,NY,11211,9000,-73.94308 40.71465,-73.94308,40.71465
Queens,744274,Store,JAC,MANN GROCERY LLC,APNA BAZARFARMERS MKT,116-19,101ST AVENUE,,,SOUTH RICHMOND HIL,NY,11419,42000,-73.82785 40.68943,-73.82785,40.68943
Bronx,743955,Store,JAC,4401 FOOD LLC,MET FOOD,4401,WHITE PLAINS RD,,,BRONX,NY,10470,9000,-73.85415 40.89869,-73.85415,40.89869
Queens,743868,Store,JAC,BOGOPA DOUGLASTON LLC,FOOD BAZAAR,242-02,61ST AVE,,,LITTLE NECK,NY,11362,43000,-73.73851 40.75556,-73.73851,40.75556
Queens,743776,Store,JAC,JAY FOOD CORP,BRAVO SUPERMARKET,144-28,LAKEWOOD AVE,,,JAMAICA,NY,11435,7000,-73.80337 40.68984,-73.80337,40.68984
Kings,743767,Store,JAC,GREEN FOREST LLC,GREEN FOREST,1717,KINGS HWY,,,BROOKLYN,NY,11229,10000,-73.95585 40.60983,-73.95585,40.60983
Bronx,743704,Store,JAC,N R SHOP LLC,KEY FOOD SUPERMARKET,5661,RIVERDALE AVE,,,BRONX,NY,10471,20000,-73.90434 40.90597,-73.90434,40.90597
Kings,743662,Store,A,JO TRADING INC,JO TRADING,1245,BROADWAY,,,BROOKLYN,NY,11221,18000,-73.92537 40.69139,-73.92537,40.69139
Kings,743594,Store,JACD,FAL COFFEE ROASTERS LLC,NOBLETREE COFFEE,499,VAN BRUNT ST UNIT 3A,,,BROOKLYN,NY,11231,8000,-74.01665 40.67329,-74.01665,40.67329
Kings,743494,Store,JAC,1291 FOOD CORP,FOOD TOWN,1291,BROADWAY,,,BROOKLYN,NY,11221,15000,-73.92444 40.69085,-73.92444,40.69085
Kings,743448,Store,JAC,SEVEN SEAS GEORGETOWNE LLC,FOOD WAY,2149,RALPH AVE,,,BROOKLYN,NY,11234,40000,-73.91791 40.62558,-73.91791,40.62558
New York,743396,Store,JAC,4138 BROADWAY FOOD LLC,FOOD EMPORIUM,4138,BROADWAY,,,NEW YORK,NY,10033,5000,-73.9385 40.84599,-73.9385,40.84599
Queens,743314,Store,JAC,243 FOOD LLC,ASSOCIATED,143-60,243RD STREET,,,ROSEDALE,NY,11422,9000,-73.7394 40.6607,-73.7394,40.6607
Richmond,743129,Store,JAC,PLUM TOMATO INC,TOP TOMATO,1071,BAY ST,,,STATEN ISLAND,NY,10305,10000,-74.068 40.61734,-74.068,40.61734
Kings,743044,Store,JAC,LINDEN FARMS FOOD CORP,FARM COUNTRY,2205,LINDEN BLVD,,,BROOKLYN,NY,11207,25000,-73.88129 40.66275,-73.88129,40.66275
New York,742990,Store,JAC,WHOLE FOODS MARKET GROUP INC,WHOLE FOODS MARKET,450,W 33RD ST,,,NEW YORK,NY,10001,40000,-73.99873 40.75353,-73.99873,40.75353
New York,742909,Store,JAC,VSM NY HOLDINGS LLC,FAIRWAY MARKET OF CHELS,766,6TH AVE,,,NEW YORK,NY,10010,20000,-73.99161 40.74454,-73.99161,40.74454
New York,742907,Store,JAC,VSM NY HOLDINGS LLC,FAIRWAY MARKET OF 86TH,240,E 86TH ST,,,NEW YORK,NY,10028,40000,-73.95247 40.77818,-73.95247,40.77818
New York,742906,Store,JAC,VSM NY HOLDINGS LLC,FAIRWAY MARKET OF 74TH,2131,BROADWAY,,,NEW YORK,NY,10023,25000,-73.98148 40.78079,-73.98148,40.78079
Richmond,742882,Store,JAC,GREAT KILLS TOMATO INC,TOP TOMATO,4045,AMBOY ROAD,,,STATEN ISLAND,NY,10308,8000,-74.1514 40.5495,-74.1514,40.5495
Kings,742762,Store,JACDK,VITA COFFEE LLC,CAFFE VITA,576,JOHNSON AVE,,,BROOKLYN,NY,11237,6000,-73.92524 40.70889,-73.92524,40.70889
Kings,742703,Store,JABCH,LILY BLOOM 86 INC,LILY BLOOM 86,1476-1480,86TH STREET,,,BROOKLYN,NY,11228,9000,-74.00986 40.61163,-74.00986,40.61163
New York,742688,Store,JAC,IVORY & WHITE MARKETS INC,MORTON WILLIAMS SUPERMA,15,WEST END AVENUE,,,NEW YORK,NY,10023,10000,-73.9901 40.77208,-73.9901,40.77208
Queens,742643,Store,JAC,5265 FOOD MARKET LLC,MARKET FRESH SUPERMARKE,52-65,65TH PLACE,,,MASPETH,NY,11378,5000,-73.90013 40.73162,-73.90013,40.73162
Bronx,742486,Store,JAC,TEJADA MEAT CORP,MET FOOD MARKET,649,JACKSON AVE,,,BRONX,NY,10455,8000,-73.90824 40.81556,-73.90824,40.81556
Bronx,742478,Store,JAC,JML&J FOOD CORP,C TOWN SUPERMARKET,229,E.TREMONT AVE,,,BRONX,NY,10457,15000,-73.90467 40.84907,-73.90467,40.84907
Queens,742415,Store,JAB,SANO ARTISAN BAKERS LTD,SANO ARTISAN BAKERS/ALL,64-06,ADMIRAL AVE,,,MIDDLE VILLAGE,NY,11379,11500,-73.89765 40.71226,-73.89765,40.71226
Queens,742342,Store,JAC,ELMHURST SUPERMARKET INC,SF SUPERMARKET,45-16,83RD ST.,,,ELMHURST,NY,11373,13030,-73.88174 40.74148,-73.88174,40.74148
Queens,742198,Store,JAC,METROPOLITAN FOOD CORP,ANGIES MARKET,100-27,METROPOLITAN AVENUE,,,FOREST HILLS,NY,11375,7000,-73.85248 40.71092,-73.85248,40.71092
Bronx,742159,Store,JAC,1481 P & B CORPORATION,FINE FARE SUPERMARKET,1481,BEACH AVE,,,BRONX,NY,10460,6000,-73.86726 40.8375,-73.86726,40.8375
Richmond,742049,Store,JAC,TARGET CORP,TARGET STORE T-3291,1520,FOREST AVE,,,STATEN ISLAND,NY,10302,46000,-74.13913 40.62434,-74.13913,40.62434
Kings,741859,Store,JAC,LAFAYETTE MARKET INC,THE FOOD EMPORIUM,325,LAFAYETTE AVE,,,BROOKLYN,NY,11238,13500,-73.96253 40.68858,-73.96253,40.68858
Kings,741811,Store,JAC,2869 MEAT & PRODUCE CORP,C-TOWN SUPERMARKET,2869,FULTON STREET,,,BROOKLYN,NY,11207,5000,-73.88842 40.67876,-73.88842,40.67876
Bronx,741657,Store,JAC,BOGOPA BTM LLC,FOOD BAZAAR,610,EXTERIOR STREET,,,BRONX,NY,10451,83000,-73.93041 40.81968,-73.93041,40.81968
Bronx,741448,Store,JAC,2185 ANTILLANA MEAT & FOOD CORP,ANTILLANA SUPERFOOD MAR,2185,WHITE PLAINS RD,,,BRONX,NY,10462,6000,-73.86764 40.85626,-73.86764,40.85626
New York,741439,Store,JAC,MULBERRY MARKET INC,MULBERRY MARKET,251,MULBERRY STREET,,,NEW YORK,NY,10012,10000,-73.99578 40.72326,-73.99578,40.72326
Bronx,741390,Store,JAC,2285 GROCERY & FOOD CORP/ANTILLAN,ANTILLANA SUPERFOOD MAR,2285,GRAND CONCOURSE,,,BRONX,NY,10453,7000,-73.9003 40.85719,-73.9003,40.85719
New York,741374,Store,JAC,PLATINUM & WHITE INC,MORTON WILLIAMS,1251,3RD AVENUE,,,NEW YORK,NY,10021,10000,-73.96034 40.7701,-73.96034,40.7701
Queens,741344,Store,JAC,MANNAN SUPERMARKET INC,ABDULLAH SUPERMARKET,74-16,101ST AVE,,,OZONE PARK,NY,11416,5000,-73.86254 40.67957,-73.86254,40.67957
Kings,741309,Store,JAC,7002 13TH AVENUE MEAT LLC,SUPERFRESH,7002,13TH AVENUE,,,BROOKLYN,NY,11228,10000,-74.00472 40.62291,-74.00472,40.62291
New York,741134,Store,JAC,1316 CORP,FOODTOWN,1316,AMSTERDAM AVENUE,,,NEW YORK,NY,10027,15000,-73.95704 40.81231,-73.95704,40.81231
Kings,741052,Store,JABC,CANNOLI PLUS ENTERPRISES INC,CANNOLI PLUS,6903,NEW UTRECHT AVE,,,BROOKLYN,NY,11228,8000,-73.99867 40.62023,-73.99867,40.62023
New York,741004,Store,JAC,HERSHEY COMPANY INC THE,HERSHEYS TIMES SQUARE,701,7TH AVE.,,,NEW YORK,NY,10036,8000,-73.98447 40.75938,-73.98447,40.75938
Queens,740941,Store,JAC,TONGI BAZAR INC,KAWRAN BAZAR,168-25,HILLSIDE AVD,,,JAMAICA,NY,11432,5000,-73.7941 40.71026,-73.7941,40.71026
Kings,740672,Store,JAC,608 FRANKLIN MEAT CORP,FOOD GARDEN MARKET,608,FRANKLIN AVE,,,BROOKLYN,NY,11238,16000,-73.95552 40.67738,-73.95552,40.67738
Bronx,740596,Store,JAD,AB INTERNATIONAL MARKET INC,AB INTERNATIONAL MARKET,548,CASANOVA STREET,,,BRONX,NY,10474,5400,-73.88945 40.8112,-73.88945,40.8112
Kings,740370,Store,JAC,GOLD ORGANIC FARM INC,GOLD ORGANIC FARM,277,GOLD STREET,,,BROOKLYN,NY,11201,27000,-73.9832 40.69627,-73.9832,40.69627
Bronx,740339,Store,JAC,MPK FOOD CORP,MET FRESH,775-777,MORRIS PARK AVE,,,BRONX,NY,10462,15000,-73.86319 40.84583,-73.86319,40.84583
Kings,740242,Store,JAC,BAKIR INC,LINCOLN MARKET,633,MARCY AVENUE,,,BROOKLYN,NY,11206,5000,-73.94872 40.69288,-73.94872,40.69288
Richmond,740174,Store,JACH,OCTOPUS GARDEN INC,OCTOPUS GARDEN,15,NEWARK AVE,,,STATEN ISLAND,NY,10302,9000,-74.14355 40.63805,-74.14355,40.63805
New York,739972,Store,A,TRADER JOES EAST INC,TRADER JOES #546,436,EAST 14TH STREET,,,NEW YORK,NY,10009,16000,-73.98096 40.73066,-73.98096,40.73066
Queens,739939,Store,A,AMIGO 99 CENTS ROOSEVELT INC,AMIGO99 CENTS ROOSEVELT,78-14,ROOSEVELT AVE,,,JACKSON HEIGHTS,NY,11372,6000,-73.88727 40.74728,-73.88727,40.74728
New York,739655,Store,JAC,175 CLINTON STREET LLC,METRO ACRES MARKET,175,CLINTON STREET,,,NEW YORK,NY,10002,10000,-73.98699 40.71547,-73.98699,40.71547
Kings,739569,Store,JAC,HL SUPERMARKET INC,HL SUPERMARKET,6722,FORT HAMILTON PKWY,,,BROOKLYN,NY,11219,30000,-74.01134 40.62923,-74.01134,40.62923
Kings,739483,Store,JAC,ORGANIC FOOD STOP CORP,ORGANIC FOOD STOP,585,VANDERBILT AVE.,,,BROOKLYN,NY,11238,8000,-73.96802 40.68002,-73.96802,40.68002
New York,739426,Store,JAC,VSM GOURMET LLC,GOURMET GARAGE,155,WEST 66TH,,,NEW YORK,NY,10023,10000,-73.98324 40.7743,-73.98324,40.7743
New York,739425,Store,JAC,VSM GOURMET LLC,GOURMET GARAGE,489,BROOME STREET,,,NEW YORK,NY,10013,8400,-74.00258 40.72311,-74.00258,40.72311
New York,739423,Store,JAC,VSM GOURMET LLC,GOURMET GARAGE,366,BROADWAY,,,NEW YORK,NY,10013,12000,-74.00341 40.71755,-74.00341,40.71755
Queens,739415,Store,JAC,HUA LIAN SUPERMARKET INC,HUA LIAN SUPERMARKET,25-03,PARSONS BLVD,,,FLUSHING,NY,11354,27000,-73.82373 40.77599,-73.82373,40.77599
Kings,739221,Store,JAC,WEGMANS FOOD MARKETS INC,WEGMANS  #111,21,FLUSHING AVE,,,BROOKLYN,NY,11205,7350,-73.97946 40.6982,-73.97946,40.6982
New York,738954,Store,A,TARGET CORP,TARGET STORE T-3312,1201,THIRD AVE,,,NEW YORK,NY,10021,23000,-73.96169 40.76827,-73.96169,40.76827
Queens,738927,Store,JAC,D&Z SUPERMARKET CORP,D&Z SUPERMARKET,77-00,QUEENS BLVD,,,ELMHURST,NY,11373,7000,-73.88619 40.73825,-73.88619,40.73825
Queens,738893,Store,JAC,ABC MEAT CORP,KEY FOOD # 2468,90-28,JAMAICA AVENUE,,,WOODHAVEN,NY,11421,7500,-73.85386 40.69304,-73.85386,40.69304
Queens,738883,Store,JAC,ALEC FOOD CORP,C TOWN,59-15,ROOSEVELT AVE,,,WOODSIDE,NY,11377,10000,-73.90469 40.74545,-73.90469,40.74545
Queens,738805,Store,JABC,SSNS EXPRESS LLC,SEASONS,68-18,MAIN STREET,,,FLUSHING,NY,11367,10000,-73.82497 40.73246,-73.82497,40.73246
New York,738801,Store,JAC,PITAYAS FRUIT MARKET INC,PITAYAS FRUIT MARKET,4329,BROADWAY,,,NEW YORK,NY,10033,6000,-73.93454 40.85252,-73.93454,40.85252
Kings,738742,Store,JAC,GOURMET FRESH 2 LLC,GOURMET FRESH 2,530,86TH STREET,,,BROOKLYN,NY,11209,8000,-74.02522 40.62088,-74.02522,40.62088
Richmond,738721,Store,JAC,BAY STREET EXTRA LLC,WESTERN BEEF SUPERMARKE,425,BAY STREET,,,STATEN ISLAND,NY,10304,30000,-74.07613 40.63168,-74.07613,40.63168
Queens,738566,Store,A,K & F DRUG CORP,STARSIDE DRUGS,41-16,MAIN STREET,,,FLUSHING,NY,11355,15000,-73.8292 40.75764,-73.8292,40.75764
Bronx,738539,Store,JAC,ROYAL REAL INC,BRAVO SUPERMARKET,745,WESTCHESTER AVENUE,,,BRONX,NY,10455,10000,-73.90575 40.81768,-73.90575,40.81768
Queens,738508,Store,JAC,WHITESTONE MARKET INC,MET FRESH SUPERMARKET,24-11,150TH STREET,,,WHITESTONE,NY,11357,18000,-73.81482 40.77679,-73.81482,40.77679
Bronx,738421,Store,JAC,WILL GROCERY & MEAT INC,PIONEER SUPERMARKET,250,WILLIS AVE,,,BRONX,NY,10454,10000,-73.92278 40.80925,-73.92278,40.80925
Kings,738297,Store,JAC,597 LIVONIA MEAT CORP,ASSOCIATED FRESH,597,LIVONIA AVENUE,,,BROOKLYN,NY,11207,8000,-73.89546 40.66454,-73.89546,40.66454
Bronx,738086,Store,JAC,NEW RENAISSANCE INC,CTOWN FRESH MARKET,411,EAST TREMONT AVE UNIT 3C,,,BRONX,NY,10457,5000,-73.9003 40.84756,-73.9003,40.84756
Kings,737951,Store,A,MAS WOLESALE HOLDINGS LLC,NATIONAL WHOLESALE LIQU,2201,59TH STREET,,,BROOKLYN,NY,11204,45000,-73.97757 40.61711,-73.97757,40.61711
Kings,737841,Store,JAC,SAHADIS LLC,SAHADIS,34,35TH STREET,,,BROOKLYN,NY,11232,7000,-74.00751 40.65706,-74.00751,40.65706
Kings,737646,Store,JAC,777 FOOD CORP,777 FOOD,531,BLAKE AVE,,,BROOKLYN,NY,11207,5000,-73.89917 40.66715,-73.89917,40.66715
New York,737606,Store,JAC,A&J MEAT MARKET INC,SHOP FAIR SUPERMARKET,2108,ADAM CLAYTON POWELL JR BLVD,,,NEW YORK,NY,10027,8000,-73.94807 40.80949,-73.94807,40.80949
Bronx,737487,Store,JAC,GRITTO LACONIA 4141 INC,GRITTO LACONIA 4141,4141,LACONIA AVE,,,BRONX,NY,10466,10000,-73.8467 40.88832,-73.8467,40.88832
Kings,737433,Store,A,NUNEZ KENNETH,JULIANS DISCOUNT STORE,260,UTICA AVE SUITE 2,,,BROOKLYN,NY,11213,6000,-73.93104 40.6696,-73.93104,40.6696
Queens,737255,Store,A,NW ROSEDALE INC,NATIONAL WAREHOUSE,253-01,ROCKAWAY BLVD,,,ROSEDALE,NY,11422,37000,-73.74028 40.6361,-73.74028,40.6361
Bronx,737254,Store,A,NW COOP CITY INC,NW COOP CITY,691,COOP CITY BLVD,,,BRONX,NY,10475,50000,-73.82493 40.88049,-73.82493,40.88049
Richmond,737186,Store,JAC,778 MANOR ROAD MEAT LLC,SUPER FRESH,778,MANOR ROAD,,,STATEN ISLAND,NY,10314,8000,-74.12105 40.60807,-74.12105,40.60807
Kings,737158,Store,JAC,M & S SUPERMARKET CORP,MET FOODS,3404,QUENTIN RD,,,BROOKLYN,NY,11234,5000,-73.93803 40.61383,-73.93803,40.61383
New York,736908,Store,A,FAO ROC HOLDINGS LLC,FAO SCHWARZ,10,ROCKEFELLER PLAZA STE 900,,,NEW YORK,NY,10020,10000,-73.97912 40.75825,-73.97912,40.75825
Queens,736718,Store,JAC,NORTH SHORE FARMS WHITESTONE LTD,NORTH SHORE FARMS,153-01,10TH AVENUE,,,WHITESTONE,NY,11357,23000,-73.80736 40.79332,-73.80736,40.79332
Kings,736653,Store,JAC,GUMPTION COFFEE INC,GUMPTION COFFEE,168,39TH STREET,,,BROOKLYN,NY,11232,6000,-74.0108 40.65545,-74.0108,40.65545
Kings,736629,Store,JAC,GOLDEN BOYS GROUP INC,GOLDEN FARMS,416,CRESCENT ST,,,BROOKLYN,NY,11208,10000,-73.87074 40.67839,-73.87074,40.67839
Kings,736511,Store,JAC,W & U SUTTER GROCERY CORP,W & U SUTTER GROCERY,1342,SUTTER AVENUE,,,BROOKLYN,NY,11208,15000,-73.86831 40.6733,-73.86831,40.6733
Queens,736416,Store,JAC,BEACH CHANNEL MEAT & PRODUCE CORP,SHOP FAIR SUPERMARKET,1329,BEACH CHANNEL DRIVE,,,FAR ROCKAWAY,NY,11691,10000,-73.75479 40.60617,-73.75479,40.60617
Queens,736403,Store,A,BAYSIDE 99 CENT MARKET INC,99 CENT STORE,61-08,SPRINGFIELD BLVD,,,OAKLAND GARDENS,NY,11364,6000,-73.75645 40.74862,-73.75645,40.74862
New York,736284,Store,JAC,ALV SUPERMARKET LLC,MET FRESH,119,AVENUE D,,,NEW YORK,NY,10009,13000,-73.97582 40.72398,-73.97582,40.72398
Kings,736127,Store,JAC,BUSHWICK MARKET INC,MET FRESH SUPERMARKET,1381,MYRTLE AVENUE,,,BROOKLYN,NY,11237,5500,-73.92093 40.69854,-73.92093,40.69854
Queens,736077,Store,JAC,ALMONTE GARDENS FOOD CORP,FINE FARE SUPERMARKET,145-44,FARMERS BLVD,,,JAMAICA,NY,11434,6800,-73.76808 40.66482,-73.76808,40.66482
Queens,735994,Store,JAC,KW SUPERMARKET INC,KW SUPERMARKET,37-04,UNION ST,,,FLUSHING,NY,11354,5000,-73.82744 40.76228,-73.82744,40.76228
Kings,735864,Store,JAC,TARGET CORPORATION,TARGET STORE T-3243,1715,E 13TH ST,,,BROOKLYN,NY,11229,35000,-73.95996 40.60757,-73.95996,40.60757
Queens,735813,Store,A,FOOD 99 CENTS DISCOUNT INC,FOOD 99 CENTS DISCOUNT,118-27,QUEENS BLVD,,,FOREST HILLS,NY,11375,8000,-73.83144 40.71479,-73.83144,40.71479
Richmond,735744,Store,JAC,LUS LICENSING LLC,LIDL #1372,283,PLATINUM AVE,,,STATEN ISLAND,NY,10314,20000,-74.16912 40.5793,-74.16912,40.5793
New York,735524,Store,A,TRADER JOES EAST INC,TRADER JOES #538,400,GRAND ST,,,NEW YORK,NY,10002,8000,-73.98707 40.71606,-73.98707,40.71606
Richmond,735464,Store,JAC,TORTILLERIA OAXACA II INC,TORTILLERIA OAXACA II,57,VICTORY BLVD,,,STATEN ISLAND,NY,10301,6000,-74.07771 40.63804,-74.07771,40.63804
Kings,735279,Store,JAC,THREEFOLD HOLDINGS LLC,THREES BREWING,333,DOUGLASS STREET,,,BROOKLYN,NY,11217,8000,-73.98234 40.67954,-73.98234,40.67954
Kings,735257,Store,JAC,FOOD STORY NATURAL MARKET II INC,FOOD STORY NATURAL MARK,1550,MYRTLE AVE,,,BROOKLYN,NY,11237,5700,-73.91169 40.6995,-73.91169,40.6995
Kings,735166,Store,JACH,RUSS OPS LLC,RUSS & DAUGHTERS AT THE,141,FLUSHING AVE BLD 77 SUITE 102,,,BROOKLYN,NY,11205,10000,-73.97121 40.69786,-73.97121,40.69786
Queens,735128,Store,JAC,T & K SUPERMARKET LLC,C TOWN SUPERMARKET,195-09,JAMAICA AVE,,,HOLLIS,NY,11423,7000,-73.76515 40.71329,-73.76515,40.71329
Kings,735127,Store,JAC,BERRY GOODS SUPERMARKET CORP,BERRY GOODS SUPERMARKET,1413,AVENUE J,,,BROOKLYN,NY,11230,7600,-73.96181 40.62514,-73.96181,40.62514
Kings,735101,Store,JAC,MP LORRAINE CORP,ASSOCIATED SUPERMARKET,58-60,LORRAINE STREET,,,BROOKLYN,NY,11231,12000,-74.00734 40.67449,-74.00734,40.67449
Bronx,735052,Store,JAC,ALRA CORP,EXTRA JUMBO MARKET PLAC,1384,NELSON AVENUE,,,BRONX,NY,10452,25000,-73.92271 40.84143,-73.92271,40.84143
Bronx,735008,Store,A,GOOD FORTUNE DISCOUNT INC.,GOOD FORTUNE DISCOUNT,3175,BAINBRIDGE AVE.,,,BRONX,NY,10467,6000,-73.87953 40.87552,-73.87953,40.87552
Bronx,734921,Store,JAC,JAMAICA RYTHMS FISH MARKET INC,JAMAICA RYTHMS FISH MAR,3959,BRONXWOOD AVE,,,BRONX,NY,10466,9000,-73.855 40.8855,-73.855,40.8855
New York,734920,Store,JAC,TARGET CORP,TARGET STORE T-3284,400,GRAND ST,,,NEW YORK,NY,10002,10000,-73.98707 40.71606,-73.98707,40.71606
New York,734919,Store,A,TARGET CORP,TARGET - T 3249,500,E 14TH ST,,,NEW YORK,NY,10009,12000,-73.98008 40.73028,-73.98008,40.73028
Queens,734848,Store,JAC,NATURE FARM SUPERMARKET CORP,NATURE FARM SUPERMARKET,249-26,HORACE HARDING EXPRESSWAY,,,LITTLE NECK,NY,11362,12000,-73.7312 40.76058,-73.7312,40.76058
Kings,734847,Store,JAC,PROPERFOOD LLC,PROPER FOOD,133,HARRISON PL,,,BROOKLYN,NY,11237,11000,-73.92807 40.70698,-73.92807,40.70698
Queens,734717,Store,JAC,JRI FOOD CORP,KEY FOOD FRESH,171-11,LINDEN BOULEVARD,,,JAMAICA,NY,11434,10000,-73.77861 40.69179,-73.77861,40.69179
Queens,734552,Store,JAC,FOOD STORY NATURAL MARKET 111 INC,FOOD STORY NATURAL MARK,23-38,31ST ST,,,ASTORIA,NY,11105,8000,-73.91375 40.77366,-73.91375,40.77366
Queens,734544,Store,JAC,NEW APNA SOHNA BAZAAR INC,NEW APNA SOHNA BAZAAR,117-10,ROCKAWAY BLVD,,,SOUTH OZONE PARK,NY,11420,8000,-73.82056 40.67639,-73.82056,40.67639
Bronx,734506,Store,JAC,195 WEBSTER MEAT & PRODUCE CORP,FINE FARE,2645,WEBSTER AVENUE,,,BRONX,NY,10458,7500,-73.88896 40.86354,-73.88896,40.86354
Kings,734388,Store,JACK,SIREN RETAIL CORPORATION,PRINCI #55725,9,IMLAY ST,,,BROOKLYN,NY,11231,11500,-74.00701 40.68336,-74.00701,40.68336
Kings,734343,Store,A,SARAH 99C DISCOUNT CORP,SARAH 99C DISCOUNT,10319,GLENWOOD ROAD,,,BROOKLYN,NY,11236,5000,-73.89732 40.64839,-73.89732,40.64839
New York,734145,Store,JAC,180 3RD AVE LLC,WESTSIDE MARKET,180,3RD AVE,,,NEW YORK,NY,10003,5200,-73.98594 40.735,-73.98594,40.735
Bronx,734129,Store,JAC,VILLAGE SUPER MARKET OF NY LLC,SHOPRITE OF BRUCKNER BL,1994,BRUCKNER BLVD,,,BRONX,NY,10473,45000,-73.85734 40.82591,-73.85734,40.82591
New York,733937,Store,JAC,REAL CHANCE INC THE,CITY FRESH MARKET,125,EAST 116TH STREET,,,NEW YORK,NY,10029,6000,-73.94198 40.79877,-73.94198,40.79877
Richmond,733769,Store,A,APPLE DEPARTMENT STORE II INC,APPLE DEPT STORE II,112,CANAL ST,,,STATEN ISLAND,NY,10304,5000,-74.07732 40.62651,-74.07732,40.62651
Queens,733517,Store,JAC,AGUILAR MEAT & PRODUCE INC,KEY FOOD MARKET PLACE,155-15,AGUILAR AVE,,,FLUSHING,NY,11367,17000,-73.81337 40.72853,-73.81337,40.72853
Richmond,733497,Store,JAC,TOMPKINS FOOD CORP,MARKET FRESH SUPERMARKE,570,TOMPKINS AVENUE,,,STATEN ISLAND,NY,10305,10000,-74.07129 40.6118,-74.07129,40.6118
Kings,733281,Store,JABC,NC 3100 OCEAN AVE LLC,NET COST MARKET,3100,OCEAN AVE,,,BROOKLYN,NY,11235,25000,-73.94933 40.5855,-73.94933,40.5855
Kings,733069,Store,JAC,A & D SUPERMARKET CORP,CITY FRESH MARKET,57,KINGSLAND AVE,,,BROOKLYN,NY,11211,5000,-73.94034 40.71789,-73.94034,40.71789
Bronx,733038,Store,JAC,628 MORRIS FOOD CORP,628 MORRIS FOOD,628,MORRIS AVENUE,,,BRONX,NY,10451,10000,-73.92201 40.81914,-73.92201,40.81914
Queens,732977,Store,JABC,7915 PRODUCE & MEAT INC,KEY FOOD,79-15,MAIN STREET,,,FLUSHING,NY,11367,15000,-73.81753 40.71854,-73.81753,40.71854
Richmond,732807,Store,JAC,ZAYTONA HALAL SUPERMARKET INC,MECCA MARKET,2256,FOREST AVE,,,STATEN ISLAND,NY,10303,7000,-74.16496 40.62685,-74.16496,40.62685
Bronx,732750,Store,JABC,ABC FIVE WINGS INC,FOOD UNIVERSE MARKET,126,FEATHERBED LANE,,,BRONX,NY,10452,7000,-73.92017 40.84617,-73.92017,40.84617
Kings,732643,Store,JAC,TAPSCOTT FINEST MEAT CORP,GREEN VILLAGE SUPERMARK,229,TAPSCOTT STREET,,,BROOKLYN,NY,11212,10000,-73.91959 40.66203,-73.91959,40.66203
Kings,732353,Store,JAC,JOAN FOOD CORP,C TOWN,2115,PITKIN AVE,,,BROOKLYN,NY,11207,30000,-73.89433 40.67213,-73.89433,40.67213
New York,732091,Store,JABC,A 602 FOOD CORP,DANS SUPERMARKET,602,WEST 185TH STREET,,,NEW YORK,NY,10033,10000,-73.93235 40.85183,-73.93235,40.85183
Kings,732061,Store,JABC,4118 MEAT & PRODUCE CORP,FOOD UNIVERSE MARKETPLA,4118,3RD AVENUE,,,BROOKLYN,NY,11232,5000,-74.00991 40.65239,-74.00991,40.65239
Kings,731961,Store,JAC,WHOLE FOODS MARKET GROUP INC,WHOLE FOODS MARKET 365,292,ASHLAND PLACE,,,BROOKLYN,NY,11217,25000,-73.97818 40.68667,-73.97818,40.68667
Queens,731894,Store,JAC,HONG KONG SUPERMARKET OF FLUSHING,HONG KONG SUPERMARKET,37-11,MAIN STREET,,,FLUSHING,NY,11354,16000,-73.83094 40.76119,-73.83094,40.76119
Bronx,731734,Store,JAC,DHAKA SUPERMARKET & HALAL MEAT IN,DHAKA SUPERMARKET & HAL,369,E 204TH STREET,,,BRONX,NY,10467,5000,-73.87716 40.87148,-73.87716,40.87148
Kings,731715,Store,JAC,739 FOOD INC,ROYAL MARKET,739,NOSTRAND AVE,,,BROOKLYN,NY,11216,8000,-73.9503 40.67204,-73.9503,40.67204
Bronx,731706,Store,JABCHK,BROOKLYN BRANDS LLC,BROOKLYN BRANDS,828,EAST 144TH STREET,,,BRONX,NY,10454,44000,-73.90692 40.80893,-73.90692,40.80893
New York,731549,Store,A,JACKS 40 WEST NYC CORP,JACKS 99,223,WEST 40TH STREET,,,NEW YORK,NY,10018,6000,-73.98877 40.75513,-73.98877,40.75513
Queens,731306,Store,A,7360 GRAND AVE CORP,TNT LIQUIDATORS,73-60,GRAND AVE,,,MASPETH,NY,11378,5000,-73.88806 40.73009,-73.88806,40.73009
Queens,731290,Store,JAC,NUTROPIA INC,NUTROPIA,105-02,MERRICK BLVD,,,JAMAICA,NY,11433,5500,-73.78948 40.70069,-73.78948,40.70069
Queens,731004,Store,JAC,RUSS INDIAN FOOD INC,REAL USHA SWEETS AND SN,259-15,HILLSIDE AVENUE,,,GLEN OAKS,NY,11004,5000,-73.70863 40.73726,-73.70863,40.73726
Kings,730773,Store,JAC,TARGET CORPORATION,TARGET STORE T3276,6401,18TH AVE,,,BROOKLYN,NY,11204,8000,-73.98975 40.61956,-73.98975,40.61956
Queens,730097,Store,JAC,GOOD NEIGHBOR SUNNYSIDE SUPERMARK,GOOD NEIGHBOR SUNNYSIDE,45-60,46TH ST,,,WOODSIDE,NY,11377,5000,-73.91899 40.74174,-73.91899,40.74174
Kings,730051,Store,JAC,BRIGHTON SUPER DEALS INC,BIG BAZZAR,100-120,BRIGHTON BEACH AVE.,,,BROOKLYN,NY,11235,7000,-73.96777 40.57632,-73.96777,40.57632
New York,730049,Store,JAC,COLUMBUS NATURAL FOOD INC,COLUMBUS NATURAL FOOD,725,COLUMBUS AVE,,,NEW YORK,NY,10025,5000,-73.96787 40.79243,-73.96787,40.79243
Queens,730006,Store,JAC,BH KEYFOOD NY LLC,KEY FOOD,220-46,HILLSIDE AVE,,,QUEENS VILLAGE,NY,11427,12000,-73.74318 40.73058,-73.74318,40.73058
Queens,729868,Store,JAC,VILLAGE BARN LTD,VILLAGE BARN,80-05,CALDWELL AVE,,,MIDDLE VILLAGE,NY,11379,8500,-73.8792 40.72586,-73.8792,40.72586
Queens,729824,Store,JAC,JANUS NEW YORK INC,BILLYS MARKETPLACE,870,CYPRESS AVE,,,RIDGEWOOD,NY,11385,10000,-73.90527 40.69957,-73.90527,40.69957
Kings,729795,Store,JAC,REID ORGANICS LLC,HALSEY TRADERS MARKET,245,MALCOM X BLVD,,,BROOKLYN,NY,11221,7000,-73.92934 40.68435,-73.92934,40.68435
Queens,729728,Store,JACDK,RAJA FOODS & VEGETABLES INC,RAJA FOODS & VEGETABLES,57-03,48TH ST,,,MASPETH,NY,11378,10000,-73.92195 40.72132,-73.92195,40.72132
Queens,729700,Store,A,GRACIANO CRUZ,TWIN FILIPINO,23-25,30TH AVE,,,LONG ISLAND CITY,NY,11102,8000,-73.93226 40.75486,-73.93226,40.75486
Kings,729307,Store,JAC,A&C SEAFOOD & MEAT MARKET INC,A&C SEAFOOD & MEAT MARK,1237,AVENUE U,,,BROOKLYN,NY,11229,7000,-73.95868 40.59858,-73.95868,40.59858
Kings,729300,Store,JAC,POM GROUP INC,LINCOLN MARKET,1133,MANHATTAN AVE,,,BROOKLYN,NY,11222,8000,-73.95537 40.737,-73.95537,40.737
New York,729261,Store,JAC,70 CEDAR PEARL LLC,CITY ACRES MARKET,70,PINE ST,,,NEW YORK,NY,10005,14000,-74.00776 40.70622,-74.00776,40.70622
New York,729188,Store,JAC,WHOLE FOODS MARKET GROUP IN,WHOLE FOODS MARKET,100,WEST 125TH STREET,,,NEW YORK,NY,10027,40000,-73.94555 40.8078,-73.94555,40.8078
Kings,728967,Store,JAC,187 PRODUCE CORP,SHOP FAIR,187,TROY AVENUE,,,BROOKLYN,NY,11213,7000,-73.93632 40.6728,-73.93632,40.6728
New York,728890,Store,JAC,JANET FOOD CORP,KEY FOOD FRESH MARKET,2630,FREDERICK DOUGLASS BOULEVARD,,,NEW YORK,NY,10030,8000,-73.9439 40.82012,-73.9439,40.82012
New York,728784,Store,A,TRADER JOES EAST INC,TRADER JOES #539,233,SPRING ST,,,NEW YORK,NY,10013,16000,-74.00489 40.72559,-74.00489,40.72559
Queens,728761,Store,JAM,THOMAS VENTURES INC,THOMAS VENTURES,92-03,CORONA AVE,,,ELMHURST,NY,11373,40000,-73.87224 40.74245,-73.87224,40.74245
Kings,728655,Store,JAC,ISAAC APPLE FARM INC,ISAAC APPLE FARM,329,CHURCH AVE,,,BROOKLYN,NY,11218,7000,-73.97666 40.64398,-73.97666,40.64398
Queens,728646,Store,JAC,MSNY MARKET INC,GW SUPERMARKET,41-79,MAIN STREET,,,FLUSHING,NY,11355,21000,-73.82849 40.75584,-73.82849,40.75584
Kings,728626,Store,JAC,MANGO NOSTRAND FARM MARKET CORP,MANGO NOSTRAND FARM MAR,1887,NOSTRAND AVE,,,BROOKLYN,NY,11226,5000,-73.94834 40.63943,-73.94834,40.63943
Kings,728199,Store,JAC,TANVI FOODS INC,FREDDY'S FOOD MARKET,257,DRIGGS AVE.,,,BROOKLYN,NY,11222,5500,-73.94798 40.72266,-73.94798,40.72266
Queens,727856,Store,JACD,WAY FONG LLC,WAY FONG,70-30,80TH STREET,,,RIDGEWOOD,NY,11385,9000,-73.87034 40.70798,-73.87034,40.70798
Kings,727789,Store,JAC,MONG KOK SUPERMARKET INC,MONG KOK SUPERMARKET,1815,86TH STREET,,,BROOKLYN,NY,11214,5000,-74.00217 40.60697,-74.00217,40.60697
Kings,727732,Store,JAC,TASHKENT SUPERMARKET LLC,TASHKENT SUPERMARKET,713,BRIGHTON BEACH AVE,,,BROOKLYN,NY,11235,6000,-73.96007 40.57797,-73.96007,40.57797
Kings,727299,Store,JAC,ITO EN (NORTH AMERICA) INC,ITO EN,34,34TH STREET  2ND FLOOR UNI,,,BROOKLYN,NY,11232,6000,-74.00713 40.65775,-74.00713,40.65775
New York,727280,Store,JAC,NAMDOR INC,D'AGOSTINO SUPERMARKET,165,EAST 35TH STREET STORE #550,,,NEW YORK,NY,10016,15000,-73.97795 40.74652,-73.97795,40.74652
Bronx,727260,Store,JAC,FRESH DIRECT LLC,FRESH DIRECT,2,ST. ANN'S AVENUE C/O FOOD SAFET,,,BRONX,NY,10454,40000,-73.92025 40.80295,-73.92025,40.80295
Kings,727136,Store,JABH,YI FRENCH PASTRIES LLC,COLSON PATISSERIE,253,36TH STREET,,,BROOKLYN,NY,11232,7000,-74.00733 40.65607,-74.00733,40.65607
Bronx,726841,Store,A,HUA MEI DISCOUNT STORE INC,HUA MEI DISCOUNT STORE,1690,BOSTON RD,,,BRONX,NY,10460,5000,-73.88881 40.83676,-73.88881,40.83676
Kings,726740,Store,JAC,4003 CHURCH FARM MARKET INC,4003 CHURCH FARM MARKET,4003,CHURCH AVE,,,BROOKLYN,NY,11203,10000,-73.93981 40.65127,-73.93981,40.65127
Queens,726241,Store,JABCK,DR SMOOD NEW YORK LLC,DR SMOOD,47-16,"AUSTELL PLACE, GROUND FL",,,LONG ISLAND CITY,NY,11101,5000,-73.94167 40.74308,-73.94167,40.74308
Queens,725855,Store,JAC,LGT FOOD CORP,BRAVO SUPERMARKET,24-18,34TH AVENUE,,,ASTORIA,NY,11106,10000,-73.93128 40.76158,-73.93128,40.76158
Kings,725802,Store,A,FOOD BUDGET INC,99C BUDGET,1778,UTICA AVE,,,BROOKLYN,NY,11234,5000,-73.92795 40.62897,-73.92795,40.62897
New York,725759,Store,A,TRADER JOES EAST INC,TRADER JOES #544,200,E 32ND ST,,,NEW YORK,NY,10016,19000,-73.97903 40.74444,-73.97903,40.74444
New York,725732,Store,JAC,DG 231 FOOD CORP,DANS,572,WEST 207TH ST,,,NEW YORK,NY,10034,8000,-73.92048 40.86656,-73.92048,40.86656
New York,725719,Store,JAC,WHOLE FOODS MARKET GROUP INC,WHOLE FOODS MARKET,1095,6TH AVE,,,NEW YORK,NY,10036,42000,-73.98437 40.75448,-73.98437,40.75448
Queens,725706,Store,JACDK,F.A.C.A. RESTAURANT OWNERS CORP,F.A.C.A. RESTAURANT OWN,132-05,MERRICK BLVD,,,JAMAICA,NY,11434,15000,-73.7598 40.67902,-73.7598,40.67902
Kings,725648,Store,JAC,5 BOROUGHS BREWERY INC,FIVE BOROUGHS BREWING C,215,47TH ST,,,BROOKLYN,NY,11220,15000,-74.01464 40.65044,-74.01464,40.65044
Kings,725579,Store,A,TJX COMPANIES INC THE,TJ MAXX,1630,E 15TH STREET,,,BROOKLYN,NY,11229,25000,-73.95841 40.60947,-73.95841,40.60947
Kings,725408,Store,JAC,A&A COFFEE LLC,MIXTAPE BUSHWICK,175,VAN DYKE STREET 324A,,,BROOKLYN,NY,11231,6000,-74.01746 40.67753,-74.01746,40.67753
Kings,725379,Store,JAC,CEM FOOD CORP,SHOP FAIR,256,LIVONIA AVENUE,,,BROOKLYN,NY,11212,10000,-73.90852 40.66263,-73.90852,40.66263
Kings,725147,Store,JAC,ARENA WINE & LIQUOR DEPOT CORP,ARENA WINE & LIQUOR DEP,633,WASHINGTON AVE,,,BROOKLYN,NY,11238,5000,-73.96393 40.67869,-73.96393,40.67869
New York,725091,Store,A,NUTHOUSE X INC,NUTHOUSE HARDWARE,202,E 29TH STREET,,,NEW YORK,NY,10016,8000,-73.9799 40.74238,-73.9799,40.74238
Kings,725055,Store,JAC,DONGSHENG FOOD INC,DONGSHENG FOOD,6719,BAY PARKWAY,,,BROOKLYN,NY,11204,5000,-73.98305 40.61227,-73.98305,40.61227
Kings,724789,Store,JAC,GREEN CORNER NY LLC,GREEN CORNER FISH & FAR,801,FLUSHING AVE,,,BROOKLYN,NY,11206,10000,-73.94067 40.70103,-73.94067,40.70103
Queens,724654,Store,JAC,ROCHDALE MEAT & PRODUCE LLC,KEY FOOD,166-02,BAISLEY BLVD,,,JAMAICA,NY,11434,20000,-73.77709 40.67971,-73.77709,40.67971
Queens,724610,Store,JAC,KRISHNA HOLDING INC,MAHARAJA FARMERS MARKET,249-12,HILLSIDE AVE,,,BELLEROSE,NY,11426,5500,-73.71785 40.73529,-73.71785,40.73529
Kings,724607,Store,JABC,MARAV USA LLC,BINGO WHOLESALE,1245,61ST STREET,,,BROOKLYN,NY,11219,31000,-74.00033 40.62899,-74.00033,40.62899
New York,724596,Store,A,CENTURY 21,CENTURY 21 DEPT STORES,22,CORTLAND ST,,,NEW YORK,NY,10007,80000,-74.01074 40.71015,-74.01074,40.71015
Queens,724463,Store,JAC,FROOT CIRCLE INC,C-TOWN SUPERMARKET,39-07,65TH PLACE,,,WOODSIDE,NY,11377,5000,-73.89899 40.7458,-73.89899,40.7458
Kings,724432,Store,JAC,BOGOPA BG FLATLANDS LLC,FOOD BAZAAR,111-10,FLATLANDS AVE,,,BROOKLYN,NY,11207,35000,-73.89028 40.65083,-73.89028,40.65083
Queens,724151,Store,JAC,SANTIAGO MEAT & PRODUCE INC,CHERRY VALLEY,94-53,CORONA AVENUE,,,ELMHURST,NY,11373,10000,-73.86818 40.74236,-73.86818,40.74236
New York,724079,Store,JAC,TARGET CORP,TARGET STORE T-3229,255,GREENWICH ST,,,NEW YORK,NY,10007,20000,-74.01146 40.71458,-74.01146,40.71458
Kings,724038,Store,JAC,WHOLE FOODS MARKET GROUP INC,WHOLE FOODS MARKET,238,BEDFORD AVE,,,BROOKLYN,NY,11249,51000,-73.95964 40.71605,-73.95964,40.71605
New York,723973,Store,JAC,BROOKLYN FARE GREENWICH LLC,BROOKLYN FARE GREENWICH,666,GREENWICH ST,,,NEW YORK,NY,10014,10000,-74.00775 40.732,-74.00775,40.732
Kings,723852,Store,JAC,GOLDEN CITY SUPERMARKET 1 INC,GOLDEN CITY SUPERMARKET,2217,86TH STREET,,,BROOKLYN,NY,11214,5000,-73.99329 40.60158,-73.99329,40.60158
Kings,723617,Store,JAC,VILLA TAPIA CITI FRESH SUPERMARKE,VILLA TAPIA CITI FRESH,40,NOSTRAND AVENUE,,,BROOKLYN,NY,11205,5000,-73.95321 40.69871,-73.95321,40.69871
Queens,723529,Store,JAC,PARADISE FRESH FOODS LLC,KEY FOOD SUPERMARKET,123-12,101 AVE,,,SOUTH RICHMOND HIL,NY,11419,10000,-73.82231 40.691,-73.82231,40.691
New York,723496,Store,JAC,EMERALD AND WHITE MARKETS INC,MORTON WILLIAMS SUPERMA,1331,1ST AVE,,,NEW YORK,NY,10021,12000,-73.9563 40.76739,-73.9563,40.76739
New York,723414,Store,JAC,WING FUNG HONG LTD,WING FUNG TRADING,53-55,DIVISION STREET,,,NEW YORK,NY,10002,10000,-73.995 40.71421,-73.995,40.71421
Queens,723409,Store,JAC,FAD OZONE FOOD CORP,GOLDEN FARMS,101-16,77 STREET,,,OZONE PARK,NY,11416,16000,-73.86058 40.67969,-73.86058,40.67969
Bronx,723294,Store,JACDK,GRADYS COLD BREW INC,GRADYS COLD BREW,819,GARRISON AVE,,,BRONX,NY,10474,8000,-73.89343 40.81565,-73.89343,40.81565
New York,723261,Store,JAC,59-5 FRUIT & VEGETABLE CORP,MERCI MARKET,59,5TH AVENUE,,,NEW YORK,NY,10003,50000,-73.99423 40.73515,-73.99423,40.73515
Kings,723215,Store,JAC,ZOON 410 CORP,MR LEMON,410,KNICKERBOCKER AVE,,,BROOKLYN,NY,11237,5000,-73.92 40.69974,-73.92,40.69974
Kings,723212,Store,JAC,FOOD STORY NATURAL MARKET INC,FOOD STORY NATURAL MARK,40,BOGART STREET,,,BROOKLYN,NY,11206,7000,-73.93319 40.70493,-73.93319,40.70493
Kings,722862,Store,JAD,PRIME NOW LLC,PRIME NOW  - UNY1,850,3RD AVENUE STE 303,,,BROOKLYN,NY,11232,40000,-74.00337 40.65868,-74.00337,40.65868
Queens,722578,Store,A,FAST TRADING INC,99 CENTS,77-14,ROOSEVELT AVE,,,JACKSON HEIGHTS,NY,11372,5000,-73.88804 40.7472,-73.88804,40.7472
Queens,722208,Store,JAC,TARGET CORPORATION,TARGET STORE T-3230,70-00,AUSTIN ST,,,FOREST HILLS,NY,11375,7000,-73.84765 40.72121,-73.84765,40.72121
Queens,722168,Store,JAC,DOUGHNUT PLANT INC,DOUGHNUT PLANT,31-00,47TH AVE SUITE 1100 BOX 18,,,LONG ISLAND CITY,NY,11101,5000,-73.93561 40.74306,-73.93561,40.74306
Bronx,721919,Store,JAC,E&D 204 FOOD CORP,C-TOWN SUPERMARKET,264,E 204TH STREET,,,BRONX,NY,10458,7000,-73.88413 40.87412,-73.88413,40.87412
Bronx,721868,Store,JAC,PONGO FOOD CORP,C-TOWN,3690,THIRD AVENUE,,,BRONX,NY,10456,6000,-73.90358 40.83493,-73.90358,40.83493
Bronx,721856,Store,JAC,BOGOPA WASHINGTON INC,FOOD BAZAAR,445,EAST 163RD STREET,,,BRONX,NY,10451,80000,-73.91111 40.82479,-73.91111,40.82479
Kings,721802,Store,JACDK,FOODSERVICE PARTNERS LLC,FOODSERVICE PARTNERS OF,599,KINGSTON AVE,,,BROOKLYN,NY,11203,45000,-73.94169 40.65878,-73.94169,40.65878
Kings,721628,Store,JADK,POSEIDON NY LLC,POSEIDON NY,8680,18TH AVE,,,BROOKLYN,NY,11214,5000,-74.00428 40.60571,-74.00428,40.60571
Bronx,721590,Store,JAC,TKRC PRODUCTIONS LLC,TKRC PRODUCTIONS,620-630,GERARD AVENUE,,,BRONX,NY,10451,10000,-73.92841 40.82113,-73.92841,40.82113
Bronx,721469,Store,JAC,PRUZZOS SUPERMARKET CORP,PRUZZOS SUPERMARKET,2937,WESTCHESTER AVE,,,BRONX,NY,10461,5000,-73.83261 40.84676,-73.83261,40.84676
Bronx,721464,Store,JACDK,KADOSH FOODS ENTERPRISE INC,KADOSH FOODS ENTERPRISE,490,HUNTS POINT AVE.,,,BRONX,NY,10474,5000,-73.88135 40.8102,-73.88135,40.8102
Kings,721389,Store,A,OUTFLATION DISCOUNT CORP,OUTFLATION DISCOUNT,7315,15TH AVE,,,BROOKLYN,NY,11228,5000,-74.00211 40.6185,-74.00211,40.6185
Richmond,721324,Store,JABC,ARDEN MARKETPLACE INC,KEY FOOD,244,ARDEN AVE,,,STATEN ISLAND,NY,10312,30000,-74.19122 40.55259,-74.19122,40.55259
Queens,721303,Store,JABCD,GREGORYS COFFEE MANAGEMENT LLC,GREGORYS COFFEE,11-49,50TH AVE,,,LONG ISLAND CITY,NY,11101,7000,-73.95088 40.74209,-73.95088,40.74209
New York,721216,Store,JAC,SEVEN SEAS 49TH ST LLC,FOOD EMPORIUM THE,810,8TH AVE,,,NEW YORK,NY,10019,22000,-73.98626 40.76201,-73.98626,40.76201
Queens,721135,Store,JABC,SIMPLY FOOD COURT SQUARE LLC,FOOD CELLAR & CO,43-18,CRESCENT STREET,,,LONG ISLAND CITY,NY,11101,40000,-73.94251 40.74849,-73.94251,40.74849
Kings,720862,Store,JAC,PARAMOUNT SUPERMARKET INC,FOOD UNIVERSE,2424,FLATBUSH AVE,,,BROOKLYN,NY,11234,15000,-73.92383 40.61085,-73.92383,40.61085
Kings,720726,Store,JAC,MECHYS ON J CORP,MECHYS GOURMET,1412,AVENUE J,,,BROOKLYN,NY,11230,7000,-73.9619 40.62512,-73.9619,40.62512
New York,720571,Store,JABC,AMBER & WHITE MARKETS INC,MORTON WILLIAMS SUPERMA,1066,3RD AVENUE,,,NEW YORK,NY,10065,13000,-73.96456 40.76429,-73.96456,40.76429
Bronx,720340,Store,JAC,65 BURNSIDE MEAT MARKET CORP,SAGAL FOOD,65,E BURNSIDE AVE,,,BRONX,NY,10453,5000,-73.90597 40.85329,-73.90597,40.85329
Kings,720082,Store,JAC,CEE FOOD CORP,BRAVO,844,DEKALB AVE,,,BROOKLYN,NY,11221,6000,-73.9422 40.69242,-73.9422,40.69242
New York,719929,Store,JAD,LEBRON 2015 EQUIPMENT & SUPPLY CO,LEBRON 2015 EQUIPMENT S,3835,9TH AVENUE,,,NEW YORK,NY,10034,27000,-73.91779 40.86271,-73.91779,40.86271
Queens,719922,Store,JABC,PARAMOUNT SUPERMARKET INC,FOOD EMPORIUM,196-35,HORACE HARDING EXPWAY,,,FRESH MEADOWS,NY,11365,35000,-73.77917 40.7431,-73.77917,40.7431
Queens,719900,Store,JAC,HB 84 FOOD CORP,FOOD EMPORIUM,82-35,153RD AVENUE,,,HOWARD BEACH,NY,11414,29000,-73.85113 40.66621,-73.85113,40.66621
Queens,719888,Store,JAC,QUEENS SHOPRITE ASSOCIATES LLC,SHOPRITE OF 20TH AVENUE,133-11,20TH AVE,,,COLLEGE POINT,NY,11356,20000,-73.8364 40.78165,-73.8364,40.78165
Kings,719861,Store,JAC,MY HARVEST LLC,MY HARVEST,5,HEYWARD ST,,,BROOKLYN,NY,11249,8000,-73.95962 40.69938,-73.95962,40.69938
Bronx,719857,Store,JAC,RO SUPERMARKET CORP,BRAVO SUPERMARKET,640,COURTLANDT AVE,,,BRONX,NY,10451,8000,-73.91849 40.81885,-73.91849,40.81885
Richmond,719848,Store,JACH,GORDON JAMES LLC,FLAGSHIP BREWING CO,38-40,MINTHORNE ST,,,STATEN ISLAND,NY,10301,10000,-74.07541 40.63724,-74.07541,40.63724
New York,719807,Store,A,THE TJX COMPANIES INC,TJ MAX 1185,407,E 59TH ST,,,NEW YORK,NY,10022,11000,-73.96144 40.75939,-73.96144,40.75939
New York,719788,Store,JAC,NAMDOR INC,GRISTEDES #777,1450,THIRD AVE,,,NEW YORK,NY,10028,12000,-73.95563 40.77656,-73.95563,40.77656
Richmond,719723,Store,JABC,MANNIX FAMILY MKTS@VETERANS RD LL,SHOPRITE OF VETERANS RD,3010,VETERANS RD W,,,STATEN ISLAND,NY,10309,10000,-74.23497 40.52875,-74.23497,40.52875
Bronx,719683,Store,A,JEROME SUPER DISCOUNT INC,JEROME SUPER DISCOUNT,2025,JEROME AVE,,,BRONX,NY,10453,6500,-73.90778 40.85337,-73.90778,40.85337
New York,719397,Store,JAC,300 W 145TH FOOD LLC,FOODTOWN #609,300,W 145TH ST,,,NEW YORK,NY,10039,40000,-73.94248 40.82308,-73.94248,40.82308
Queens,719368,Store,JAC,STOP & SHOP SUPERMARKET CO LLC TH,STOP & SHOP #2579,112-15,BEACH CHANNEL DR,,,ROCKAWAY PARK,NY,11694,35000,-73.8348 40.58279,-73.8348,40.58279
Queens,719360,Store,JAC,STOP & SHOP SUPERMARKET CO LLC TH,STOP & SHOP #2580,213-15,26TH AVE,,,BAYSIDE,NY,11360,42000,-73.77657 40.77848,-73.77657,40.77848
Queens,719356,Store,JAC,STOP & SHOP SUPERMARKET CO LLC TH,STOP & SHOP #2587,3106,FARRINGTON ST,,,FLUSHING,NY,11354,25000,-73.8336 40.76894,-73.8336,40.76894
Kings,719352,Store,JAC,STOP & SHOP SUPERMARKET CO LLC TH,STOP & SHOP #2591,2965,CROPSEY AVE,,,BROOKLYN,NY,11214,20000,-73.98604 40.5824,-73.98604,40.5824
Bronx,719351,Store,JABC,STOP & SHOP SUPERMARKET CO LLC TH,STOP & SHOP #2592,2136,BARTOW AVE,,,BRONX,NY,10475,55000,-73.82446 40.86918,-73.82446,40.86918
Richmond,719350,Store,JAC,STOP & SHOP SUPERMARKET CO LLC TH,STOP & SHOP #2595,1351,FOREST AVE,,,STATEN ISLAND,NY,10302,50000,-74.1346 40.62584,-74.1346,40.62584
Bronx,719348,Store,JABC,STOP & SHOP SUPERMARKET CO LLC TH,STOP & SHOP #2594,1720,E CHESTER RD,,,BRONX,NY,10461,60000,-73.8459 40.87946,-73.8459,40.87946
Kings,719284,Store,JAC,UTICA MEAT & PRODUCE INC,C TOWN,330,UTICA AVE,,,BROOKLYN,NY,11213,8000,-73.93132 40.66668,-73.93132,40.66668
Queens,719265,Store,JAC,STOP&SHOP SUPERMARKET CO LLC THE,STOP & SHOP #2581,156-01,CROSSBAY BLVD,,,HOWARD BEACH,NY,11414,10000,-73.84088 40.66364,-73.84088,40.66364
Queens,719263,Store,JAC,STOP& SHOPSUPERMARKET CO LLC THE,STOP & SHOP #2589,92-10,ATLANTIC AVE,,,OZONE PARK,NY,11416,65000,-73.85016 40.68771,-73.85016,40.68771
Bronx,719261,Store,JAC,STOP&SHOP SUPERMARKET CO LLC THE,STOP & SHOP #2593,961,E 174TH ST,,,BRONX,NY,10460,8000,-73.88536 40.83656,-73.88536,40.83656
Kings,719260,Store,JAC,STOP&SHOP SUPERMARKET CO LLC THE,STOP & SHOP #2586,625,ATLANTIC AVE,,,BROOKLYN,NY,11217,9250,-73.9741 40.68311,-73.9741,40.68311
Kings,719203,Store,JAC,492 SUPERMARKET CORP,KEY FOOD,492,MYRTLE AVE,,,BROOKLYN,NY,11205,12700,-73.96531 40.6934,-73.96531,40.6934
Kings,719070,Store,JAC,FRESH N SAVE FOOD CORP,WINDSOR FARMS MARKET,589,PROSPECT AVE,,,BROOKLYN,NY,11215,6000,-73.97798 40.65655,-73.97798,40.65655
Kings,718918,Store,JACDK,FRESH DIRECT LLC,FOOD KICK,630,FLUSHING AVE FL 1 MAILBOX #33,,,BROOKLYN,NY,11206,10000,-73.94822 40.7,-73.94822,40.7
Queens,718868,Store,JAC,RUBEN & RUBEN FOOD CORP,KEY FOOD SUPERMARKET,87-25,LEFFERTS BLVD,,,RICHMOND HILL,NY,11418,20000,-73.83036 40.69888,-73.83036,40.69888
Queens,718793,Store,JAC,MEDITERRANEAN FOODS III INC,MEDITERRANEAN FOODS III,22-78,35TH STREET,,,ASTORIA,NY,11105,6000,-73.91083 40.77328,-73.91083,40.77328
Bronx,718626,Store,A,FIVE BELOW INC,FIVE BELOW #354,2156,BARTON AVE  SPACE #156,,,BRONX,NY,10475,7000,-73.82437 40.86916,-73.82437,40.86916
Kings,718411,Store,JAC,1525 K FOOD LLC,PATHMARK / FOODTOWN,1525,ALBANY AVE,,,BROOKLYN,NY,11210,5900,-73.93737 40.63563,-73.93737,40.63563
Queens,718017,Store,A,99 CENTS DYNASTY INC,99 CENTS DYNASTY,90-14,JAMAICA AVE,,,WOODHAVEN,NY,11421,6000,-73.85411 40.69297,-73.85411,40.69297
Kings,717954,Store,JABC,MADONNA SUPERMARKET LLC,PIONEER,3461,FULTON ST,,,BROOKLYN,NY,11208,10000,-73.86782 40.68488,-73.86782,40.68488
Kings,717835,Store,JAC,ADVANCED DOMINO INC,DOMINO,1824,KINGS HWY,,,BROOKLYN,NY,11229,12000,-73.955 40.61015,-73.955,40.61015
Bronx,717779,Store,JAC,FAD 2300 FOOD CORP,GOLDEN MANGO,2300,RANDALL AVE,,,BRONX,NY,10473,40000,-73.84437 40.81951,-73.84437,40.81951
Bronx,717755,Store,JAC,NEW MODERN INC,MODERN MARKET,2385,ARTHUR AVE,,,BRONX,NY,10458,6000,-73.88791 40.85515,-73.88791,40.85515
Kings,717706,Store,JAC,SEA LAND SEAFOOD & MEAT MARKET IN,SEA LAND SEAFOOD & MEAT,2502,86TH ST,,,BROOKLYN,NY,11214,6000,-73.98687 40.59773,-73.98687,40.59773
Kings,717623,Store,A,MUCH BETTER 99 CENTS STORE INC,MUCH BETTER 99 CENTS,81,EAST 98TH ST,,,BROOKLYN,NY,11212,5000,-73.92264 40.66473,-73.92264,40.66473
Kings,717596,Store,JAC,GREEN IVY 1 INC,GREEN IVY 1,246,4TH AVE,,,BROOKLYN,NY,11215,5000,-73.98363 40.67666,-73.98363,40.67666
New York,717573,Store,JAC,SCARLET & WHITE MARKETS INC,MORTON WILLIAMS SUPERMA,1031,1ST AVE,,,NEW YORK,NY,10022,9000,-73.96313 40.75805,-73.96313,40.75805
Kings,717325,Store,A,HJ 218 DISCOUNT INC,HJ 218 DISCOUNT,218,KNICKERBOCKER AVE,,,BROOKLYN,NY,11237,5000,-73.92588 40.7031,-73.92588,40.7031
Kings,717299,Store,JAC,FORUM SUPERMARKET INC,FORUM SUPERMARKET,6501,7TH AVE,,,BROOKLYN,NY,11220,8000,-74.01486 40.63377,-74.01486,40.63377
Queens,717277,Store,JAC,FOOD EXPRESS INC,FOOD EXPRESS SUPERMARKE,39-39,63RD ST,,,WOODSIDE,NY,11377,8000,-73.90121 40.74558,-73.90121,40.74558
Queens,717251,Store,JAC,THE BRAND FOOD SELLERS INC,FOOD UNIVERSE,96-09,LIBERTY AVE,,,OZONE PARK,NY,11417,5000,-73.84271 40.68065,-73.84271,40.68065
Queens,717233,Store,JAC,NYM PRIME MARKET INC,HANKOOK MT&KONO CHICKEN,171-02,NORTHERN BLVD,,,FLUSHING,NY,11358,5400,-73.79561 40.75802,-73.79561,40.75802
Queens,716970,Store,JAC,96 MEAT & PRODUCE CORP,MI TIERRA SUPERMARKET,96-17,NORTHERN BLVD,,,CORONA,NY,11368,8000,-73.87155 40.75702,-73.87155,40.75702
Bronx,716756,Store,JAC,ESPERANZA SUPERMARKET LLC,PIONEER,107,FEATHERBED LANE,,,BRONX,NY,10452,8000,-73.91861 40.84618,-73.91861,40.84618
Kings,716705,Store,JAC,1165 FRESH PRODUCE CORP,PREMIER FOOD FRESH MARK,1165,BROADWAY,,,BROOKLYN,NY,11221,5500,-73.92815 40.69297,-73.92815,40.69297
New York,716624,Store,JAC,BURGANDY & WHITE MKTS INC,MORTON WILLIAMS,1211,MADISON AVE.,,,NEW YORK,NY,10128,6000,-73.95818 40.78172,-73.95818,40.78172
Kings,716273,Store,JAC,REMSEN MEAT & PRODUCE CORP,FOOD UNIVERSE,405,REMSEN AVE,,,BROOKLYN,NY,11212,5500,-73.92329 40.6558,-73.92329,40.6558
Queens,716264,Store,JAC,FLUSHING SUPERMARKET INC,WASSERMAN SUPERMARKET,72-51,MAIN ST,,,FLUSHING,NY,11367,6500,-73.82091 40.72515,-73.82091,40.72515
Bronx,716190,Store,JAC,2400 C&F FOOD CORP,PIONEER,2400,RYER AVE,,,BRONX,NY,10458,9000,-73.89782 40.85994,-73.89782,40.85994
Queens,716153,Store,A,LINDEN VARIETY STORE INC,LINDEN VARIETY STORE,196-27,LINDEN BLVD,,,SAINT ALBANS,NY,11412,7000,-73.75517 40.69364,-73.75517,40.69364
New York,716001,Store,A,BED BATH & BEYOND INC,BED BATH & BEYOND #565,1932,BROADWAY,,,NEW YORK,NY,10023,60000,-73.98207 40.77265,-73.98207,40.77265
Queens,715855,Store,JAC,ITTADI SUPERMARKET LLC,PREMIUM SUPERMARKET,168-07,HILLSIDE AVE,,,JAMAICA,NY,11432,5500,-73.79444 40.71012,-73.79444,40.71012
New York,715795,Store,JAC,WHOLE FOODS MARKET GROUP INC,WHOLE FOODS MARKET,1551,3RD AVE,,,NEW YORK,NY,10128,8000,-73.95328 40.77979,-73.95328,40.77979
Kings,715720,Store,JAC,SKYLIGHT HOLDINGS 2 INC,MARKETPLACE BY KEYFOOD,617,5TH AVE,,,BROOKLYN,NY,11215,7000,-73.99092 40.66372,-73.99092,40.66372
Queens,715700,Store,JABC,NEW BEGINNING 1883 CORP,VITELIOS MARKET PLACE,1881-1883,MADISON ST,,,RIDGEWOOD,NY,11385,6000,-73.90458 40.70353,-73.90458,40.70353
Queens,715666,Store,JAC,GRANDE MUNDO LLC,GRANDE MUNDO SUPERMARKE,42-16,JUNCTION BLVD,,,CORONA,NY,11368,5000,-73.86812 40.74582,-73.86812,40.74582
Bronx,715619,Store,JAC,2891 FOOD CORP,C-TOWN SUPERMARKET,2891,SEDGWICK AVE,,,BRONX,NY,10468,5200,-73.90132 40.87485,-73.90132,40.87485
New York,714993,Store,JAC,FOODMOOD LLC,GRACEFULLY,400,E 23RD ST,,,NEW YORK,NY,10010,6500,-73.97803 40.73651,-73.97803,40.73651
Kings,714914,Store,JAC,7414 3RD AVE MEAT LLC,KEY FOOD,7414,3RD AVE,,,BROOKLYN,NY,11209,20000,-74.02773 40.6316,-74.02773,40.6316
Richmond,714836,Store,JAC,1490 MEAT CORP,OLIVE TREE MARKETPLACE,1490,CLOVE RD,,,STATEN ISLAND,NY,10301,5000,-74.09976 40.61202,-74.09976,40.61202
Queens,714700,Store,JAC,R&R FOOD STORES INC,R&R FOOD STORES,552,BEACH 25TH ST,,,FAR ROCKAWAY,NY,11691,5000,-73.76137 40.59965,-73.76137,40.59965
Queens,714386,Store,JAC,DC FLUSHING MARKET CORP,DC FLUSHING MARKET,133-54,41ST AVE,,,FLUSHING,NY,11355,5000,-73.83009 40.75793,-73.83009,40.75793
Richmond,714299,Store,JAC,BEST FOOD CORP OF NY,KEY FOOD FRESH,331-332,PORT RICHMOND AVE,,,STATEN ISLAND,NY,10302,9500,-74.13636 40.6336,-74.13636,40.6336
Bronx,714185,Store,JAC,AV FOOD CORP,C TOWN SUPERMARKET,630,E 169TH ST,,,BRONX,NY,10456,5000,-73.90107 40.83138,-73.90107,40.83138
New York,714061,Store,JAC,A&A MEAT & PRODUCE CORP,COMPARE FOOD,3815,NINTH AVE,,,NEW YORK,NY,10034,10000,-73.91824 40.86209,-73.91824,40.86209
Queens,714056,Store,JAC,ALMONTE BAY FOOD CORP,KEY FOOD,163-30,CROSSBAY BLVD,,,HOWARD BEACH,NY,11414,10000,-73.83821 40.65207,-73.83821,40.65207
Kings,714037,Store,A,FIVE BELOW INC,FIVE BELOW,470,GATEWAY DR UNIT 5,,,BROOKLYN,NY,11239,10000,-73.86958 40.65163,-73.86958,40.65163
New York,713931,Store,JAC,HERMANA MIRABEL INC,CHERRY VALLEY,1968,2ND AVE,,,NEW YORK,NY,10029,5000,-73.94465 40.7876,-73.94465,40.7876
Bronx,713909,Store,JAD,HUDSON VALLEY GREENS INC,HUDSON VALLEY GREENS,641,TIMPSON PLACE,,,BRONX,NY,10455,12000,-73.90043 40.81237,-73.90043,40.81237
Kings,713706,Store,JACDK,RAAKA CHOCOLATE INC,RAAKA CHOCOLATE,62-64,SEABRING ST,,,BROOKLYN,NY,11231,10000,-74.00739 40.6812,-74.00739,40.6812
Kings,713627,Store,A,ALDI INC,ALDI #7,528,GATEWAY DR,,,BROOKLYN,NY,11239,15000,-73.8693 40.65175,-73.8693,40.65175
New York,713584,Store,JAC,LOS ALAMOS MEAT & PRODUCE INC,CITY FRESH MARKET,235,E 106TH ST,,,NEW YORK,NY,10029,25000,-73.94323 40.79096,-73.94323,40.79096
Kings,713456,Store,JACH,CTAC HOLDINGS LLC,LI-LAC CHOCOLATES,68,35TH ST,,,BROOKLYN,NY,11232,9000,-74.00677 40.65661,-74.00677,40.65661
Kings,713253,Store,JABC,BJS WHOLESALE CLUB INC,BJS WHOLESALE CLUB #195,1752,SHORE PKWY,,,BROOKLYN,NY,11214,50000,-73.99637 40.59321,-73.99637,40.59321
Kings,713169,Store,JAC,GATEWAY SHOPRITE ASSOCIATES LLC,SHOPRITE OF GATEWAY CEN,590,GATEWAY DR,,,BROOKLYN,NY,11239,90000,-73.86894 40.65191,-73.86894,40.65191
Bronx,712962,Store,JAC,TARGET CORP,TARGET STORE T-2811,815,E HUTCHINSON RIVER PKWY,,,BRONX,NY,10465,37000,-73.83641 40.82343,-73.83641,40.82343
Bronx,712924,Store,A,JEROME 99 CENT INC,99C OR MORE,1465,JEROME AVE,,,BRONX,NY,10452,6500,-73.91693 40.84128,-73.91693,40.84128
New York,712891,Store,JAC,DORIA ENTERPRISES NYC LLC,GRACES MARKETPLACE,1299,SECOND AVE,,,NEW YORK,NY,10065,13000,-73.95999 40.76656,-73.95999,40.76656
Queens,712747,Store,A,FIVE BELOW INC,FIVE BELOW,34-41,48TH ST,,,LONG ISLAND CITY,NY,11101,9000,-73.91474 40.7533,-73.91474,40.7533
Queens,712692,Store,JAC,5001 MEAT CORP,URBAN MARKET,50-01,2ND ST,,,LONG ISLAND CITY,NY,11101,10000,-73.95846 40.74334,-73.95846,40.74334
Kings,712682,Store,JAC,TEGS MANAGEMENT LLC,NETCOST MARKET,1029,BRIGHTON BEACH AVE,,,BROOKLYN,NY,11235,13000,-73.95837 40.57824,-73.95837,40.57824
Bronx,712626,Store,JAC,EL FLACO GROCERY STORE INC,EL FLACO GROCERY STORE,2019,SOUTHERN BLVD,,,BRONX,NY,10460,15000,-73.88533 40.84438,-73.88533,40.84438
Kings,712487,Store,JAC,3 J S FOOD CORP,SHOP FAIR,2222,PITKIN AVE,,,BROOKLYN,NY,11207,5000,-73.89051 40.67271,-73.89051,40.67271
Kings,712409,Store,JAC,HI MANGO NATURAL MARKET V INC,HI MANGO NATURAL MARKET,341,KNICKERBOCKER AVE,,,BROOKLYN,NY,11237,5000,-73.92219 40.70099,-73.92219,40.70099
Queens,712360,Store,JAC,YOGI ORGANIC MARKET INC,DOWNTOWN NATURAL MARKET,84-01,37TH AVE,,,JACKSON HEIGHTS,NY,11372,5000,-73.88216 40.74997,-73.88216,40.74997
Bronx,712289,Store,JAC,MD 210 FOOD CORP,BRAVO SUPERMARKET,210,E 170TH ST,,,BRONX,NY,10456,15000,-73.91305 40.83835,-73.91305,40.83835
Kings,712258,Store,JAC,BRA CORP,IDEAL FRESHMARKET,1301,CHURCH AVE,,,BROOKLYN,NY,11226,7000,-73.96736 40.64775,-73.96736,40.64775
Kings,712233,Store,JACDHK,GREEPOINT COFFEE ROASTING COMPANY,CAFE GRUMPY,199,DIAMOND ST,,,BROOKLYN,NY,11222,6500,-73.94881 40.72901,-73.94881,40.72901
Kings,712080,Store,JABC,BREADBERRY INC,BREADBERRY,1683,60TH ST,,,BROOKLYN,NY,11204,11000,-73.98976 40.62352,-73.98976,40.62352
New York,711853,Store,JAC,HARLEM 421 FOOD CORP,KEY FOOD,421,W 125TH ST,,,NEW YORK,NY,10027,6400,-73.955 40.81191,-73.955,40.81191
Queens,711827,Store,JAC,NGP MARKETS CORP,NEW AGE MARKETS,160-06,NORTHERN BLVD,,,FLUSHING,NY,11358,16000,-73.8051 40.76277,-73.8051,40.76277
New York,711658,Store,JAC,7484 WESTSIDE MARKET LLC,WESTSIDE MARKET,84,THIRD AVE,,,NEW YORK,NY,10003,18000,-73.98831 40.73174,-73.98831,40.73174
Queens,711572,Store,JAC,AMANA FOOD LLC,GLOBAL SUPERMARKET,75-07,37TH AVE,,,JACKSON HEIGHTS,NY,11372,5000,-73.89061 40.74908,-73.89061,40.74908
Queens,711471,Store,JAC,AO XIN ZHOU SUPERMARKET INC,MILK FARM SUPERMARKET,88-11,LIBERTY AVE,,,OZONE PARK,NY,11417,5000,-73.85034 40.67991,-73.85034,40.67991
Kings,711421,Store,JAC,NEW YORK PRETZEL LLC,NEW YORK PRETZEL,200,MOORE ST,,,BROOKLYN,NY,11206,20000,-73.93664 40.70431,-73.93664,40.70431
Bronx,711356,Store,JACDH,FOODFEST DEPOT LLC,FOODFEST DEPOT,500,E 132ND ST,,,BRONX,NY,10454,80000,-73.92084 40.80316,-73.92084,40.80316
Bronx,711355,Store,A,TREMONT SUPERDISCOUNT INC,TREMONT SUPERDISCOUNT,2738,E TREMONT AVE,,,BRONX,NY,10461,5000,-73.84457 40.84221,-73.84457,40.84221
Kings,711312,Store,A,NOSTRAND DISCOUNT INC,NOSTRAND DISCOUNT,566,NOSTRAND AVE,,,BROOKLYN,NY,11216,5000,-73.94962 40.67922,-73.94962,40.67922
Queens,711090,Store,JABC,CP FAMILY MARKET CORP,KEY FOOD 1776,15-19,COLLEGE POINT BLVD,,,COLLEGE POINT,NY,11356,8000,-73.84584 40.78356,-73.84584,40.78356
Richmond,710460,Store,JAC,RIZKA FOOD CORPORATION,C TOWN SUPERMARKET,2071,CLOVE RD SUITE F & U,,,STATEN ISLAND,NY,10304,7000,-74.0834 40.60358,-74.0834,40.60358
Queens,710391,Store,JAC,BOGOPA LIC INC,FOOD BAZAAR,42-02,NORTHERN BLVD,,,LONG ISLAND CITY,NY,11101,70000,-73.92139 40.75252,-73.92139,40.75252
Kings,710298,Store,JAC,BB 3008 FOOD CORP,BRAVO SUPERMARKET,3008,FULTON ST,,,BROOKLYN,NY,11208,8400,-73.88358 40.6803,-73.88358,40.6803
Kings,710078,Store,JAC,11 UM FOOD CORP,CITY ACRES MARKET,11,BROADWAY,,,BROOKLYN,NY,11249,15000,-73.96828 40.71079,-73.96828,40.71079
New York,709754,Store,JAC,MASSOLA MANAGEMENT 368 CORP,7 ELEVEN STORE #35621A,368,8TH AVE,,,NEW YORK,NY,10001,18000,-73.99599 40.74871,-73.99599,40.74871
Queens,709656,Store,JAC,GREEN VALLEY CORP,FINE FARE SUPERMARKET,89-45,163RD ST,,,JAMAICA,NY,11432,9000,-73.797441 40.705961,-73.797441,40.705961
New York,709622,Store,JACK,TEN WESTSIDE CORP,ESSEN,10,HUDSON SQ /160 VARICK STREET,,,NEW YORK,NY,10013,5500,-74.00566 40.72653,-74.00566,40.72653
Kings,709587,Store,JAC,WHOLE FOODS MARKET GROUP INC,WHOLE FOODS MARKET,214,3RD ST,,,BROOKLYN,NY,11215,20000,-73.98843 40.67527,-73.98843,40.67527
New York,709555,Store,JAC,HARLEM POLO GROUNDS MEAT CORP,SHOP FAIR,159-04,HARLEM RIVER DR,,,NEW YORK,NY,10039,10000,-73.93543 40.83324,-73.93543,40.83324
Queens,709499,Store,JAC,SEA TOWN CORONA NY LLC,SEA TOWN CORONA,39-24,104TH ST,,,CORONA,NY,11368,7500,-73.86188 40.75025,-73.86188,40.75025
New York,709413,Store,JAC,1769 CENTRAL FOODS LLC,KEY FOOD,1769,2ND AVE,,,NEW YORK,NY,10128,8000,-73.94884 40.78185,-73.94884,40.78185
Bronx,709250,Store,JAC,FRANCO PARTNERS INC,FOOD CHOICE MARKET,2244,WHITE PLAINS RD,,,BRONX,NY,10467,18000,-73.86755 40.85867,-73.86755,40.85867
Kings,709123,Store,JAC,DOLEH 919 FOOD CORP,KEY FOOD,3485,NEPTUNE AVE,,,BROOKLYN,NY,11224,10000,-74.00087 40.57785,-74.00087,40.57785
Queens,708982,Store,JAC,OH NUTS WAREHOUSING INC,OH NUTS,120-65,168TH ST,,,JAMAICA,NY,11434,20000,-73.77612 40.68131,-73.77612,40.68131
Richmond,708953,Store,JAC,TARGET STORES,TARGET STORE T-2753,2873,RICHMOND AVE,,,STATEN ISLAND,NY,10314,40000,-74.16965 40.57609,-74.16965,40.57609
Bronx,708895,Store,JAC,ANTILLANA & METRO SUPERMARKET COR,ANTILLANA & METRO SUPER,1339,JEROME AVE,,,BRONX,NY,10452,8500,-73.91869 40.83897,-73.91869,40.83897
Kings,708821,Store,JAC,C W SEAFOOD & MEAT MARKET INC,C W SEAFOOD & MEAT MARK,5707,8TH AVE,,,BROOKLYN,NY,11220,6500,-74.008 40.63696,-74.008,40.63696
Kings,708818,Store,JAC,LA JOYA FOOD MARKET CORP,ASSOCIATED,103,HEGEMAN AVE,,,BROOKLYN,NY,11212,5000,-73.90796 40.65617,-73.90796,40.65617
New York,708796,Store,JAC,KING MEAT CORP,SHOP FAIR,3871,BROADWAY,,,NEW YORK,NY,10032,15000,-73.94291 40.83689,-73.94291,40.83689
Kings,708666,Store,JAC,CG&C 2 PRIME MEAT MARKET LLC,FRANK & SAL ITALIAN MAR,8008,18TH AVE,,,BROOKLYN,NY,11214,6000,-73.99913 40.6103,-73.99913,40.6103
Queens,708569,Store,JABCK,PAIN DAVIGNON III LTD,PAIN DAVIGNON III,35-20,9TH ST,,,LONG ISLAND CITY,NY,11101,5000,-73.94355 40.75872,-73.94355,40.75872
Queens,708548,Store,JAC,KAWRAN BAZAR INC,KAWRAN SUPERMARKET,148-19,HILLSIDE AVE,,,JAMAICA,NY,11435,5000,-73.80815 40.70619,-73.80815,40.70619
Kings,708484,Store,JAC,MLD 91 FOOD CORP,BRAVO SUPERMARKET,91,HUMBOLDT ST,,,BROOKLYN,NY,11206,10000,-73.94099 40.70443,-73.94099,40.70443
Bronx,708472,Store,A,KING 530 DISCOUNT INC,KING 530 DISCOUNT,532,E FORDHAM RD,,,BRONX,NY,10458,5000,-73.88717 40.85951,-73.88717,40.85951
Kings,708316,Store,JAC,MURAD FOOD CORP,PIONEER SUPERMARKET,5612,5TH AVE,,,BROOKLYN,NY,11220,6000,-74.01408 40.64148,-74.01408,40.64148
Queens,708195,Store,A,ORANGE U HAPPY INC,99 CENT STORE,114-28,SUTPHIN BLVD,,,JAMAICA,NY,11434,5000,-73.79332 40.68558,-73.79332,40.68558
Kings,708167,Store,A,ALDI INC (NEW YORK),ALDI 9,3785,NOSTRAND AVE,,,BROOKLYN,NY,11235,18000,-73.94007 40.59103,-73.94007,40.59103
New York,708131,Store,JABC,431 FOOD MARKET CORP,BROOKLYN FARE,431,WEST 37TH ST UNIT A,,,NEW YORK,NY,10018,9500,-73.99644 40.75593,-73.99644,40.75593
Bronx,708028,Store,JAC,PARADISE MEAT CORP,PARADISE MEAT,2476,WILLIAMS BRIDGE RD,,,BRONX,NY,10469,6500,-73.85774 40.86242,-73.85774,40.86242
New York,707917,Store,JAC,JUN 0709 INC,SUNAC NATURAL,600,W 42ND STREET,,,NEW YORK,NY,10036,16000,-73.99867 40.76097,-73.99867,40.76097
Kings,707796,Store,JADK,FRANK BRUNCKHORST CO LLC,FRANK BRUNCKHORST CO,24,ROCK ST,,,BROOKLYN,NY,11206,100000,-73.93194 40.70416,-73.93194,40.70416
Richmond,707763,Store,JAC,155 MEAT CORP,KEY FOOD 1734,155,BAY ST,,,STATEN ISLAND,NY,10301,12000,-74.07591 40.63821,-74.07591,40.63821
Kings,707593,Store,JABCDK,STEVES AUTHENTIC INC,STEVES AUTHENTIC KEY LI,185,VAN DYKE ST,,,BROOKLYN,NY,11231,6000,-74.01799 40.67786,-74.01799,40.67786
Richmond,707484,Store,JAC,KINGDOM CASTLE FOOD CORP,KEY FOOD,300,SAND LANE,,,STATEN ISLAND,NY,10305,9000,-74.06781 40.59185,-74.06781,40.59185
Kings,707436,Store,A,SUPREME HEALTH FOOD CENTER NY LLC,SUPREME HEALTH FOOD,264,LEE AVE,,,BROOKLYN,NY,11206,5000,-73.95366 40.69988,-73.95366,40.69988
Queens,707153,Store,JAC,K&J ROCHDALE FOOD CORP,IDEAL FOOD BASKET,169-85,137TH AVE,,,JAMAICA,NY,11434,15000,-73.77055 40.67263,-73.77055,40.67263
Kings,706966,Store,JAC,NASEB FOODS INC,MET FRESH SUPERMARKET,9606,3RD AVE,,,BROOKLYN,NY,11209,8000,-74.03396 40.6164,-74.03396,40.6164
Bronx,706901,Store,A,BOB'S DISCOUNT FURNITURE LLC,BOB'S DISCOUNT FURNITUR,2146,BARTOW AVE,,,BRONX,NY,10475,29000,-73.82447 40.86918,-73.82447,40.86918
Kings,706897,Store,A,BOB'S DISCOUNT FURNITURE LLC,BOB'S DISCOUNT FURNITUR,2520,FLATBUSH AVE,,,BROOKLYN,NY,11234,5000,-73.92151 40.60876,-73.92151,40.60876
Bronx,706808,Store,JAC,FERNANDEZ 224 FOOD CORP,FOOD UNIVERSE MARKET PL,3942,WHITE PLAINS RD,,,BRONX,NY,10466,20000,-73.86098 40.88689,-73.86098,40.88689
New York,706802,Store,JAC,A MATTER OF HEALTH NYC INC,A MATTER OF HEALTH NYC,1347,1ST AVE,,,NEW YORK,NY,10021,8900,-73.95579 40.76809,-73.95579,40.76809
Kings,706515,Store,JAD,BROOKLYN BEER & SODA CORP,BROOKLYN BEER & SODA,507,FLATBUSH AVE,,,BROOKLYN,NY,11225,7500,-73.96152 40.66184,-73.96152,40.66184
Queens,706272,Store,JAC,BFF FOOD CORP,FOOD TOWN 515,47-33,BELL BLVD.,,,BAYSIDE,NY,11361,8000,-73.76728 40.75596,-73.76728,40.75596
Queens,706228,Store,JAC,YONG FA SUPERMARKET INC,YONG FA SUPERMARKET,59-11,MAIN ST,,,FLUSHING,NY,11355,15000,-73.82559 40.74331,-73.82559,40.74331
Kings,706209,Store,JAC,AVNER KOSHER FISH MARKET INC,AVNER KOSHER FISH MARKE,521,KINGS HIGHWAY,,,BROOKLYN,NY,11223,15000,-73.97022 40.60441,-73.97022,40.60441
Kings,706198,Store,JAC,J&E MEAT & PRODUCE CORP,SHOP FAIR,385,BROADWAY,,,BROOKLYN,NY,11211,7000,-73.95447 40.70723,-73.95447,40.70723
New York,706102,Store,JAC,CHINATOWN SUPERMARKET OF MANHATTA,CHINATOWN SUPERMARKET O,109,EAST BROADWAY,,,NEW YORK,NY,10002,95000,-73.99295 40.71382,-73.99295,40.71382
Queens,705952,Store,JAC,LIBERTY PRODUCE INC,FOOD UNIVERSE,127-16,111TH AVE,,,SOUTH OZONE PARK,NY,11420,10000,-73.81404 40.68257,-73.81404,40.68257
Queens,705862,Store,JAC,HILLSIDE 175 MEAT CORP,IDEAL FOOD BASKET,175-35,HILLSIDE AVE,,,JAMAICA,NY,11432,15000,-73.786771 40.712091,-73.786771,40.712091
Bronx,705758,Store,JAC,KDA FOOD CORP,SHOP FAIR,306,E 170TH ST,,,BRONX,NY,10456,8000,-73.91018 40.83734,-73.91018,40.83734
Queens,705737,Store,JAC,US SUPERMARKET INC,US SUPERMARKET,82-66,BROADWAY,,,ELMHURST,NY,11373,7000,-73.8811 40.74141,-73.8811,40.74141
Kings,705682,Store,JAC,DKA FOOD CORP,SHOP FAIR,1125,FULTON ST,,,BROOKLYN,NY,11238,11000,-73.9567 40.68134,-73.9567,40.68134
Kings,705473,Store,JAC,MOISHAS KOSHER DISCNT SPRMKT INC,MOISHAS KOSHER DSCT SMT,315,AVENUE M,,,BROOKLYN,NY,11230,20000,-73.9718 40.6167,-73.9718,40.6167
Kings,705364,Store,JABC,FRAMAR RESTAURANT CORP,GOURMET CROISSANT,141,32ND ST,,,BROOKLYN,NY,11232,5500,-74.0027 40.65692,-74.0027,40.65692
Kings,705170,Store,JAC,ZAFER FOOD CORP,C TOWN,29,BELMONT AVE,,,BROOKLYN,NY,11212,10000,-73.90929 40.66861,-73.90929,40.66861
Kings,705109,Store,JAC,57JR FOODS CORP,C TOWN SUPERMARKET,57,MILL ST,,,BROOKLYN,NY,11231,6000,-74.00448 40.67589,-74.00448,40.67589
Kings,704954,Store,JAC,NORTH 3RD CORP,BROOKLYN HARVEST MARKET,25,N 5TH ST,,,BROOKLYN,NY,11249,15000,-73.96312 40.71933,-73.96312,40.71933
Kings,704943,Store,JAC,WEST 6 FRUITS&VEGETABLE STORE INC,WEST 6 FRUITS & VEGETAB,294,KINGS HWY,,,BROOKLYN,NY,11223,20000,-73.97961 40.60511,-73.97961,40.60511
Bronx,704892,Store,JAC,950 FAIR FOOD CORP,FINE FARE SUPERMARKET,950,WESTCHESTER AVE,,,BRONX,NY,10459,10000,-73.89614 40.82248,-73.89614,40.82248
Bronx,704871,Store,JAC,3100 THIRD AVENUE FOOD LLC,FOOD TOWN,3100,3RD AVE,,,BRONX,NY,10451,8000,-73.91204 40.82169,-73.91204,40.82169
New York,704435,Store,A,S&N DISCOUNT INC,S&N DISCOUNT,2031,3RD AVE #33,,,NEW YORK,NY,10029,5000,-73.94213 40.79506,-73.94213,40.79506
Bronx,704399,Store,JABCK,OVEN ARTISANS INC,ORWASHERS,1187,E 156TH ST,,,BRONX,NY,10474,8000,-73.89263 40.81244,-73.89263,40.81244
New York,704345,Store,JAC,CRIMSON & WHITE MARKETS INC,MORTON WILLIAMS,140,W 57TH ST.,,,NEW YORK,NY,10019,11500,-73.97877 40.76499,-73.97877,40.76499
New York,704327,Store,JAC,REYCO SUPERMARKETS LLC,SUPER FI EMPORIUM,1635,LEXINGTON AVE,,,NEW YORK,NY,10029,72000,-73.9476 40.79044,-73.9476,40.79044
Kings,704197,Store,JACDK,TU BALU GROUP INC,TU BALU GROUP,205,GARDNER AVE,,,BROOKLYN,NY,11237,9000,-73.92616 40.71365,-73.92616,40.71365
Queens,704019,Store,JAC,ALI & OMER LLC,C TOWN,21-30,NEWTOWN AVE,,,ASTORIA,NY,11102,5000,-73.92518 40.77167,-73.92518,40.77167
Kings,703382,Store,JAC,1305 MYRTLE LLC,FINE FARE,1305,MYRTLE AVE,,,BROOKLYN,NY,11221,7000,-73.92607 40.698,-73.92607,40.698
New York,703266,Store,JABC,55 FULTON MARKET CORP,55 FULTON MARKET,55,FULTON ST,,,NEW YORK,NY,10038,35000,-74.00507 40.70875,-74.00507,40.70875
Bronx,703145,Store,JAC,24 WEST FOOD CORP,FOOD DINASTY SUPERMKT,24-30,WEST FORDHAM ROAD,,,BRONX,NY,10468,5000,-73.90269 40.86271,-73.90269,40.86271
New York,702868,Store,JABC,"WHOLE FOODS MARKET GROUP, INC.",WHOLE FOODS MARKET,226,EAST 57TH ST,,,NEW YORK,NY,10022,32000,-73.96634 40.7598,-73.96634,40.7598
Bronx,702833,Store,JAC,AD 2096 GRAND CORP,CONCOURSE FOOD PLAZA,2096,GRAND CONCOURSE,,,BRONX,NY,10457,9000,-73.90212 40.85402,-73.90212,40.85402
Queens,702800,Store,JAD,BRAHM FOODS INC,BRAHM FOODS,56-06,56TH STREET,,,MASPETH,NY,11378,5000,-73.91477 40.72551,-73.91477,40.72551
New York,702730,Store,A,LOT LESS ON 40TH STREET INC,LOT LESS,206,W 40TH ST,,,NEW YORK,NY,10018,12000,-73.98858 40.75505,-73.98858,40.75505
Queens,702566,Store,JAC,YS FOOD CORP,VITELIOS MARKET PLACE,71-76,YELLOWSTONE BOULEVARD,,,FOREST HILLS,NY,11375,15000,-73.85531 40.72082,-73.85531,40.72082
Kings,702325,Store,JAC,OASIS MEGA MARKET INC,TASHKENT SUPERMARKET,2828,CONEY ISLAND AVE.,,,BROOKLYN,NY,11235,5000,-73.96036 40.5875,-73.96036,40.5875
Queens,702001,Store,JAC,109 MEAT & PRODUCE CORP,MI TIERRA SUPERMARKET,109-01,37TH AVE,,,CORONA,NY,11368,8000,-73.85834 40.75401,-73.85834,40.75401
Kings,672145,Store,JACDK,OCEAN PROVIDENCE NEW YORK LLC,NISHIMARU USA,76,APOLLO ST,,,BROOKLYN,NY,11222,8000,-73.93804 40.72682,-73.93804,40.72682
Kings,672027,Store,JACDEW,WIDOW JANE DISTILLERIES LLC,WIDOW JANE,216-218,CONOVER ST,,,BROOKLYN,NY,11231,7000,-74.01522 40.67724,-74.01522,40.67724
Kings,672021,Store,JAC,OCEAN BAY MARKET INC,OCEAN BAY MARKET,2424,CONEY ISLAND AVENUE,,,BROOKLYN,NY,11223,5000,-73.96114 40.59768,-73.96114,40.59768
Kings,671952,Store,JAC,EAST NEW YORK KOSHER CORP,THE MARKET PLACE,589,E NEW YORK AVE,,,BROOKLYN,NY,11225,12000,-73.94331 40.66202,-73.94331,40.66202
Queens,671764,Store,JAC,KING POLO INC,SHOP FAIR,153-30,89TH AVE,,,JAMAICA,NY,11432,10000,-73.80221 40.7056,-73.80221,40.7056
Kings,671715,Store,JAC,FOOD COLONY LLC,C TOWN OF BAYRIDGE,7510,5TH AVE,,,BROOKLYN,NY,11209,8000,-74.02277 40.62917,-74.02277,40.62917
Kings,671642,Store,JAC,GV MEAT & PRODUCE CORP,CARIBBEAN SUPERMARKET,741,UTICA AVE,,,BROOKLYN,NY,11203,9000,-73.93072 40.65489,-73.93072,40.65489
Kings,671641,Store,JAC,13TH AVENUE SUPERMARKET LLC,GOURMET GLATT MARKET,1274,39TH ST,,,BROOKLYN,NY,11218,35000,-73.98656 40.6408,-73.98656,40.6408
Kings,671638,Store,JAC,GORIS GROCERS FLATBUSH AVE CORP,NYC FRESH MARKET,150,MYRTLE AVE,,,BROOKLYN,NY,11201,10000,-73.98272 40.69362,-73.98272,40.69362
Kings,671571,Store,JAC,DESI BAZZAR INC,DESI BAZZAR,557,MCDONALD AVE,,,BROOKLYN,NY,11218,5000,-73.97897 40.64062,-73.97897,40.64062
Kings,671216,Store,JAC,1720 FOOD CORP,FOOD UNIVERSE,1720,ATLANTIC AVE,,,BROOKLYN,NY,11213,7000,-73.93361 40.67725,-73.93361,40.67725
Kings,671116,Store,JAC,J VASQUEZ MEAT CORP,METROPOLITAN CITYMARKET,1142,BEDFORD AVENUE,,,BROOKLYN,NY,11216,7000,-73.95428 40.68527,-73.95428,40.68527
Queens,671085,Store,JAC,SKY FOODS MARKET INC,SKY FOODS MARKET,40-24,COLLEGE POINT BLVD,,,FLUSHING,NY,11354,45000,-73.83403 40.75741,-73.83403,40.75741
Kings,670964,Store,JACDK,RED HOOK WINERY LLC,RED HOOK WINERY,175-204,VAN DYKE ST. SUITE 325A,,,BROOKLYN,NY,11231,7000,-74.01746 40.67753,-74.01746,40.67753
Queens,670845,Store,A,HOME & HOME MERCHANDISE CORP,HOME & HOME MERCHANDISE,31-85,WHITESTONE EXPWAY,,,FLUSHING,NY,11354,22000,-73.83764 40.76694,-73.83764,40.76694
Queens,670795,Store,JAC,AF FOOD CORP,KEY FOOD,30-13,36TH AVE,,,LONG ISLAND CITY,NY,11106,10000,-73.92479 40.75426,-73.92479,40.75426
Queens,670773,Store,JAC,CALHOUN FOODS LLC,KEYFOOD 1598,135-46,LEFFERTS BLVD,,,SOUTH OZONE PARK,NY,11420,10000,-73.82127 40.66924,-73.82127,40.66924
Kings,670758,Store,JAC,COVERT SUPERMARKET LLC,SUPER PIONEER SUPERMARK,1657,BROADWAY,,,BROOKLYN,NY,11207,10000,-73.91324 40.68447,-73.91324,40.68447
Kings,670673,Store,JADHK,CARICOM INTERNATIONAL TRADING INC,CARICOM INT TRADING,201,POWELL ST,,,BROOKLYN,NY,11212,5000,-73.90396 40.66971,-73.90396,40.66971
Kings,670577,Store,JAC,FAT MEAT & PRODUCE CORP,BRAVO SUPERMARKET,4808,4TH AVE,,,BROOKLYN,NY,11220,12000,-74.01168 40.64741,-74.01168,40.64741
Queens,670554,Store,A,SUPER DEAL STORES INC,SUPERDEAL,253-01,ROCKAWAY BLVD,,,ROSEDALE,NY,11422,7000,-73.74028 40.6361,-73.74028,40.6361
Kings,670548,Store,JAC,AS WAREHOUSE CO INC,POLAM INTL MT MKT II,276,MCGUINNESS BLVD,,,BROOKLYN,NY,11222,9000,-73.9518 40.73165,-73.9518,40.73165
Kings,670475,Store,JAC,PRAMUKH HEALTH MARKET INC,DOWNTOWN NATURAL MARKET,1701,CHURCH AVE,,,BROOKLYN,NY,11226,8000,-73.96375 40.64917,-73.96375,40.64917
Queens,670357,Store,JABCK,DALISSA BAKING CO INC,SENSIBLE EDIBLES,47-57,31ST  PLACE,,,LONG ISLAND CITY,NY,11101,5000,-73.93515 40.74165,-73.93515,40.74165
Kings,670217,Store,JAC,492 MARKET PLACE INC,GALA FRESH FARMS,492,ST MARKS AVE,,,BROOKLYN,NY,11238,17000,-73.9584 40.6764,-73.9584,40.6764
Kings,670108,Store,JAC,MAYAS FOOD CORP,FINE FAIR,783,SARATOGA AVE,,,BROOKLYN,NY,11212,10000,-73.91543 40.66136,-73.91543,40.66136
Kings,670035,Store,A,AMIGO 99 CENTS OF BROOKLYN INC,AMIGO 99 CENTS OF BKLN,781,E 31ST ST,,,BROOKLYN,NY,11210,6000,-73.94661 40.63206,-73.94661,40.63206
Richmond,645442,Store,JAC,BUD INC,PASTOSA RAVIOLI,3817,RICHMOND AVE,,,STATEN ISLAND,NY,10312,5000,-74.16545 40.54526,-74.16545,40.54526
Richmond,645037,Store,JABC,DANS SUPREME SUPERMARKETS INC,KEY FOOD 1512,450,FOREST AVE,,,STATEN ISLAND,NY,10301,10000,-74.10466 40.6307,-74.10466,40.6307
Richmond,641589,Store,JAC,STRIP SNACKS INC,STRIP SNACKS,15,MARBLE LOOP,,,STATEN ISLAND,NY,10309,6700,-74.23876 40.53726,-74.23876,40.53726
Richmond,641574,Store,JAC,STOP&SHOP SUPERMARKET CO LLC THE,SUPER STOP&SHOP #2512,1441,RICHMOND AVE,,,STATEN ISLAND,NY,10314,60000,-74.15881 40.61292,-74.15881,40.61292
Richmond,641573,Store,JAC,STOP&SHOP SUPERMARKET CO LLC THE,SUPER STOP&SHOP #2513,4343,AMBOY RD,,,STATEN ISLAND,NY,10312,37000,-74.16013 40.54558,-74.16013,40.54558
Richmond,641567,Store,JAC,ANTONICO FOODS CORP,LA BELLA MARKETPLACE,99,ELLIS ST,,,STATEN ISLAND,NY,10307,25000,-74.24354 40.51607,-74.24354,40.51607
Richmond,641558,Store,A,TRADER JOES EAST INC,TRADER JOES #559,2385,RICHMOND AVE,,,STATEN ISLAND,NY,10314,16500,-74.16537 40.58943,-74.16537,40.58943
Richmond,641534,Store,A,NEW YORK APPLE 99 CENT & PLUS INC,99 CENT & PLUS,227,PORT RICHMOND AVE,,,STATEN ISLAND,NY,10302,5000,-74.13493 40.63577,-74.13493,40.63577
Richmond,641506,Store,A,STATEN ISLAND DISCOUNT STORE INC.,DISCOUNT ISLAND,327,VICTORY BLVD,,,STATEN ISLAND,NY,10301,5000,-74.08569 40.63404,-74.08569,40.63404
Richmond,641321,Store,JAC,FOOD CONNECTION LTD,MET FOOD,1795,VICTORY BLVD,,,STATEN ISLAND,NY,10314,10000,-74.12364 40.61301,-74.12364,40.61301
Richmond,641202,Store,JABC,3155 AMBOY CORP,NET COST MARKETS,3155,AMBOY RD,,,STATEN ISLAND,NY,10306,15000,-74.13244 40.56374,-74.13244,40.56374
Richmond,641163,Store,JABC,MANNIX FAMILY MARKET @ FOREST & R,SHOPRITE OF FOREST&RICH,985,RICHMOND AVE,,,STATEN ISLAND,NY,10314,65000,-74.1494 40.62298,-74.1494,40.62298
Richmond,641157,Store,JABC,WESTERN BEEF RETAIL INC,WESTERN BEEF,2040,FOREST AVE,,,STATEN ISLAND,NY,10303,10000,-74.15585 40.62593,-74.15585,40.62593
Richmond,641032,Store,JAC,TARGET CORP,TARGET 2006,2900,VETERANS RD W,,,STATEN ISLAND,NY,10309,140000,-74.23386 40.5279,-74.23386,40.5279
Richmond,640942,Store,JABC,STOP&SHOP SUPERMARKET CO LLC THE,STOP&SHOP 512,2795,RICHMOND AVE,,,STATEN ISLAND,NY,10314,80000,-74.16939 40.57917,-74.16939,40.57917
Richmond,640941,Store,JAC,STOP&SHOP SUPERMARKET CO LLC THE,STOP&SHOP 581,2754,HYLAN BLVD,,,STATEN ISLAND,NY,10306,48000,-74.1147 40.56548,-74.1147,40.56548
Richmond,640873,Store,JAC,STATEN ISLAND MET FOOD LTD,MET FOODS,1177,HYLAN BLVD,,,STATEN ISLAND,NY,10305,10500,-74.08214 40.59845,-74.08214,40.59845
Richmond,640733,Store,JAC,SUPREME CHOCOLATIER LLC,SUPREME CHOCOLATIER,1150,SOUTH AVE,,,STATEN ISLAND,NY,10314,120000,-74.17592 40.61196,-74.17592,40.61196
Richmond,640160,Store,JABC,COSTCO WHOLESALE CORP,COSTCO WHOLESALE 316,2975,RICHMOND AVE,,,STATEN ISLAND,NY,10314,116000,-74.16915 40.57239,-74.16915,40.57239
Richmond,640154,Store,JAC,WESTERN BEEF RETAIL INC,WESTERN BEEF 42,425,BAY ST,,,STATEN ISLAND,NY,10304,35000,-74.07613 40.63168,-74.07613,40.63168
Queens,639866,Store,JABC,STOP&SHOP SUPERMARKET CO LLC THE,SUPER STOP&SHOP 566,70-20,ROCKAWAY BEACH BLVD,,,ARVERNE,NY,11692,55000,-73.79879 40.58987,-73.79879,40.58987
Queens,639784,Store,JAC,TARGET CORP,TARGET #2451,40-24,COLLEGE PT BLVD STE F600,,,FLUSHING,NY,11354,160000,-73.83403 40.75741,-73.83403,40.75741
Queens,639760,Store,JACK,NATUZZI ENTERPRISES INC,NATUZZI ICE,121-60,FARMERS BLVD,,,JAMAICA,NY,11413,5500,-73.76084 40.68213,-73.76084,40.68213
Queens,639733,Store,JAC,LARA FOOD CORP,TRADE FAIR 2,79-14,21ST AVE,,,EAST ELMHURST,NY,11370,8000,-73.89071 40.77074,-73.89071,40.77074
Queens,639680,Store,JAC,COSTCO WHOLESALE CORP,COSTCO #1070,61-35,JUNCTION BLVD,,,REGO PARK,NY,11374,158000,-73.86422 40.73352,-73.86422,40.73352
Queens,639654,Store,JAC,QUEENS HEALTH EMPORIUM INC,QUEENS HEALTH EMPORIUM,159-01,HORACE HARDING EXPWAY,,,FRESH MEADOWS,NY,11365,10000,-73.80908 40.73883,-73.80908,40.73883
Queens,639589,Store,JAC,CHLOE 89 FOOD CORP,IDEAL FOOD BASKET,89-30,SUTPHIN BLVD,,,JAMAICA,NY,11435,9500,-73.80858 40.70338,-73.80858,40.70338
Queens,639534,Store,JAC,MI TIERRA MEAT&PRODUCE CORP,MI TIERRA SUPERMARKET,85-15,ROOSEVELT AVE,,,JACKSON HEIGHTS,NY,11372,8000,-73.88044 40.74799,-73.88044,40.74799
Queens,639520,Store,JABC,KAMAL CORP,TRADE FAIR 1,30-08,30TH AVE,,,ASTORIA,NY,11102,10000,-73.92182 40.76709,-73.92182,40.76709
Queens,639419,Store,JAC,NORTHERN MEAT & PRODUCE CORP,MI TIERRA SUPERMARKET,81-02,NORTHERN BLVD,,,JACKSON HEIGHTS,NY,11372,8000,-73.88597 40.75548,-73.88597,40.75548
Queens,639359,Store,JAC,BJS WHOLESALE CLUB INC,BJS WHOLESALE CLUB 206,131-07,"40TH RD, SUITE A100",,,FLUSHING,NY,11354,180000,-73.83448 40.75686,-73.83448,40.75686
Queens,639342,Store,JAC,KISSENA GLATT FARMS INC,ARONS KISSENA FARMS,72-15,KISSENA BLVD,,,FLUSHING,NY,11367,25000,-73.81461 40.72817,-73.81461,40.72817
Queens,639226,Store,JAC,JOLEMA FOOD CORP,SHOP FAIR,920,SENECA AVE,,,RIDGEWOOD,NY,11385,10000,-73.90336 40.70024,-73.90336,40.70024
Queens,639145,Store,JAC,NEW GOLDEN SPARKLING SUPERMKT INC,NEW GOLDEN SPRKLNG MRKT,86-18,BROADWAY,,,ELMHURST,NY,11373,5000,-73.87721 40.73809,-73.87721,40.73809
Queens,639044,Store,A,BABIES R US,BABIES R US,139-19,20TH AVE,,,COLLEGE POINT,NY,11356,37000,-73.83019 40.78166,-73.83019,40.78166
Queens,639009,Store,JAC,SIMPLY FOOD LIC LLC,FOOD CELLAR & CO,4-85,47TH RD.,,,LONG ISLAND CITY,NY,11101,20000,-73.95607 40.74532,-73.95607,40.74532
Queens,638881,Store,JAC,206-16 HOLLIS AVE FOOD CORP,COMPARE FOODS,206-16,HOLLIS AVE,,,QUEENS VILLAGE,NY,11429,7500,-73.75093 40.70738,-73.75093,40.70738
Queens,638871,Store,JAC,DASAE CORP,SS NATURAL,72-56,AUSTIN ST,,,FOREST HILLS,NY,11375,10000,-73.84082 40.71851,-73.84082,40.71851
Queens,638752,Store,JAC,NOKIB INC,MANNAN SUPERMARKET,166-11,HILLSIDE AVE,,,JAMAICA,NY,11432,15000,-73.79617 40.70958,-73.79617,40.70958
Queens,638748,Store,JAC,86-02 MEAT&PRODUCE INC,KEY FOOD,86-02,NORTHERN BLVD,,,JACKSON HEIGHTS,NY,11372,18000,-73.8812 40.75598,-73.8812,40.75598
Queens,638745,Store,JAC,ISLAND OF GOLD SUPERMARKET INC,ISLAND OF GOLD SUPERMKT,195-25,69TH AVE,,,FRESH MEADOWS,NY,11365,25000,-73.77759 40.73704,-73.77759,40.73704
Queens,638741,Store,A,HOME PLUS MERCHANDISE CORP,HOME PLUS MERCHANDISE,31-85,WHITESTONE EXP,,,FLUSHING,NY,11354,20000,-73.83764 40.76694,-73.83764,40.76694
Queens,638675,Store,JAC,BOGOPA 58-01 LLC,FOOD BAZAAR,58-01,JUNCTION BLVD,,,ELMHURST,NY,11373,20000,-73.86534 40.73569,-73.86534,40.73569
Queens,638635,Store,A,ROCHDALE VILLAGE OUTLET CENTER,ROCHDALE VILLAGE OUTLET,165-20,BAISLEY BLVD,,,JAMAICA,NY,11434,13000,-73.77811 40.67924,-73.77811,40.67924
Queens,638599,Store,JAC,GEMSTONE SUPERMARKETS INC,KEY FOOD 1046,183-14,HILLSIDE AVE,,,JAMAICA,NY,11432,20000,-73.7784 40.71397,-73.7784,40.71397
Queens,638592,Store,JAC,BERRY FRESH FARM INC,BERRY FRESH FARM,43-26,DITMARS BLVD,,,ASTORIA,NY,11105,12000,-73.90357 40.7711,-73.90357,40.7711
Queens,638571,Store,A,TRADER JOES EAST INC,TRADER JOES 557,90-30,METROPOLITAN AVE,,,REGO PARK,NY,11374,9000,-73.85866 40.71098,-73.85866,40.71098
Queens,638522,Store,JABC,GEMSTONE SUPERMARKETS INC,HOLIDAY FARM,61-50,SPRINGFIELD BLVD,,,OAKLAND GARDENS,NY,11364,14000,-73.75636 40.74846,-73.75636,40.74846
Queens,638479,Store,JAC,S&K GREEN GROCERIES INC,APNA BAZAR FARMERS MARK,113-18,LIBERTY AVE,,,RICHMOND HILL,NY,11419,6000,-73.82895 40.68555,-73.82895,40.68555
Queens,638428,Store,JAC,CONEJO MEAT CORP,IDEAL FOOD BASKET,67-16,MYRTLE AVE,,,GLENDALE,NY,11385,10000,-73.88534 40.70157,-73.88534,40.70157
Queens,638372,Store,JAC,ESPERANZA MEAT CORP,CHERRY VALLEY,84-12,97TH AVE,,,OZONE PARK,NY,11416,10000,-73.85572 40.68341,-73.85572,40.68341
Queens,638174,Store,JAC,GRANJA MEAT CORP,IDEAL FOOD BASKET,99-30,CORONA AVE,,,CORONA,NY,11368,10000,-73.86221 40.74432,-73.86221,40.74432
Queens,638111,Store,JAC,3412 V&F FOOD CORP,C TOWN,34-12,34TH AVE,,,ASTORIA,NY,11106,10000,-73.92463 40.75844,-73.92463,40.75844
Queens,638087,Store,A,CLOSE OUT PARADISE INC,CLOSE OUT PARADISE,31-41,48TH ST,,,LONG ISLAND CITY,NY,11101,5000,-73.91565 40.75234,-73.91565,40.75234
Queens,638069,Store,JAC,CRYSTAL & CHRIS FOOD CORP,BRAVO,108-54,GUY R BREWER BLVD,,,JAMAICA,NY,11433,12000,-73.79028 40.69524,-73.79028,40.69524
Queens,638014,Store,JAC,RCR FOOD CORP,KEY FOOD #1462,108-27,QUEENS BLVD,,,FOREST HILLS,NY,11375,15000,-73.84287 40.72118,-73.84287,40.72118
Queens,637931,Store,JAC,JAMAN FOOD CORP,FINE FARE,199-11,HOLLIS AVE,,,HOLLIS,NY,11412,5000,-73.76489 40.70756,-73.76489,40.70756
Queens,637903,Store,JAC,CALVI SUPERMARKET INC,C TOWN 024,107-66,CROSSBAY BLVD,,,OZONE PARK,NY,11417,15000,-73.84403 40.67745,-73.84403,40.67745
Queens,637900,Store,JAC,GRAND MEAT CORP,MASPETH MARKETPLACE BY,66-17,GRAND AVE,,,MASPETH,NY,11378,10000,-73.89811 40.72446,-73.89811,40.72446
Queens,637779,Store,JAC,TRIPLE FOOD CORP,CITY FRESH MARKET,39-09,103RD ST,,,CORONA,NY,11368,8000,-73.86294 40.75035,-73.86294,40.75035
Queens,637652,Store,JAC,DAR FOOD CORP,GREEN VALLEY OF SUNNYSI,44-07,GREENPOINT AVE,,,SUNNYSIDE,NY,11104,9800,-73.92056 40.74154,-73.92056,40.74154
Queens,637530,Store,A,C&V 99 CENTS CORP,WORLDWIDE 99 CENTS DSCN,155-01,JAMAICA AVE,,,JAMAICA,NY,11432,5000,-73.80108 40.70307,-73.80108,40.70307
Queens,637529,Store,JAC,FT 4620 FOOD CORP,KEY FOOD 1454,46-20,108TH ST,,,CORONA,NY,11368,7000,-73.8567 40.74671,-73.8567,40.74671
Queens,637433,Store,JAC,333 J&M FOOD CORP,ASSOCIATED,333,SENECA AVE,,,RIDGEWOOD,NY,11385,12000,-73.91548 40.70741,-73.91548,40.70741
Queens,637197,Store,JAC,SARMAN FOOD CORP,C TOWN SUPERMARKET,108-79,ROOSEVELT AVE,,,CORONA,NY,11368,5000,-73.85611 40.75151,-73.85611,40.75151
Queens,637134,Store,JAC,AMAL MEAT CORP,C TOWN,169-13,HILLSIDE AVE,,,JAMAICA,NY,11432,7000,-73.79235 40.71097,-73.79235,40.71097
Queens,637089,Store,JABC,37-54 MEAT&PRODUCE INC,KEY FOOD,37-54,90TH ST,,,JACKSON HEIGHTS,NY,11372,10000,-73.87653 40.74878,-73.87653,40.74878
Queens,637069,Store,JAC,STOP&SHOP SUPERMARKET CO LLC THE,STOP&SHOP 539,89-89,UNION TNPK,,,GLENDALE,NY,11385,40000,nan,,
Queens,637050,Store,JAC,RL FOOD CORP,KEY FOOD #1428,116-34,QUEENS BLVD,,,FOREST HILLS,NY,11375,9000,-73.83333 40.7157,-73.83333,40.7157
Queens,636948,Store,JAC,MARKELLA CORP,EURO MARKET,30-42,31ST STREET,,,ASTORIA,NY,11102,5000,-73.9223 40.76579,-73.9223,40.76579
Queens,636891,Store,JAC,M&D 21 FOOD CORP,KEY FOOD,44-65,21ST ST,,,LONG ISLAND CITY,NY,11101,8000,-73.94747 40.74777,-73.94747,40.74777
Queens,636884,Store,JAC,DEIRDRE MAEVES SUPERMARKET INC,DEIRDRE MAEVES SPRMKT,202-36,ROCKAWAY PT BLVD,,,ROCKAWAY POINT,NY,11697,5000,-73.91155 40.56077,-73.91155,40.56077
Queens,636862,Store,JAC,GEMSTONE SUPERMARKETS INC,KEY FOOD 1044,164-05,69TH AVE,,,FRESH MEADOWS,NY,11365,20000,-73.8047 40.73309,-73.8047,40.73309
Queens,636825,Store,JABC,WESTERN BEEF RETAIL INC,WESTERN BEEF 1,47-05,METROPOLITAN AVE,,,RIDGEWOOD,NY,11385,80000,-73.91971 40.71375,-73.91971,40.71375
Queens,636771,Store,JAC,YOUJIN CORP,C TOWN,81-29,LEFFERTS BLVD,,,KEW GARDENS,NY,11415,5000,-73.83053 40.70879,-73.83053,40.70879
Queens,636738,Store,JAC,42-15 FOOD CORP,KEY FOOD SUPERMARKET,42-15,30TH AVE,,,ASTORIA,NY,11103,9000,-73.91279 40.76285,-73.91279,40.76285
Queens,636452,Store,JAC,89-02 FOOD CORP,TRADE FAIR 9,89-02,37TH AVE,,,JACKSON HEIGHTS,NY,11372,15000,-73.8773 40.75048,-73.8773,40.75048
Queens,636385,Store,JABC,DANS SUPREME SUPERMARKETS INC,KEY FOOD 1504,153-55,CROSS ISLAND PKWY,,,WHITESTONE,NY,11357,25000,-73.80877 40.78696,-73.80877,40.78696
Queens,636362,Store,JAC,ME-ME SUPERMARKET INC,CITY FRESH MARKET,21-15,BROADWAY,,,ASTORIA,NY,11106,11000,-73.93106 40.76488,-73.93106,40.76488
Queens,636328,Store,JABC,DYNASTY MEAT CORP,FRESH N SAVE,46-10,QUEENS BLVD,,,SUNNYSIDE,NY,11104,12000,-73.91833 40.74296,-73.91833,40.74296
Queens,636259,Store,JAC,DEVIN FOOD CORP,IDEAL FOOD BASKET,148-40,HILLSIDE AVE,,,JAMAICA,NY,11435,5000,-73.80753 40.70636,-73.80753,40.70636
Queens,636076,Store,JACK,M&N GROCERS INC,PATEL BROS,37-27-33,74TH ST,,,JACKSON HEIGHTS,NY,11372,6000,-73.89166 40.74805,-73.89166,40.74805
Queens,636073,Store,JAC,82-10 BAXTER AVE FOOD CORP,SUPER FRESH,82-10,BAXTER AVE,,,ELMHURST,NY,11373,8000,-73.88313 40.74683,-73.88313,40.74683
Queens,636007,Store,JABC,ZIAD FOOD CORP,TRADE FAIR 8,22-20,36TH AVE,,,LONG ISLAND CITY,NY,11106,10000,-73.92479 40.75426,-73.92479,40.75426
Queens,635922,Store,JAC,GOLD CITY SUPERMARKET INC,GOLD CITY SUPERMARKET,46-31,KISSENA BLVD,,,FLUSHING,NY,11355,15000,-73.81838 40.74993,-73.81838,40.74993
Queens,635910,Store,JABC,MOTHER FOOD CORP,FOODTOWN SUPERMARKET,173-09,JAMAICA AVE,,,JAMAICA,NY,11432,7000,-73.78658 40.70793,-73.78658,40.70793
Queens,635881,Store,JAC,CRESCENT FOOD CORP,TRADE FAIR SUPERMARKETS,23-55,BROADWAY,,,ASTORIA,NY,11106,20000,-73.92864 40.76353,-73.92864,40.76353
Queens,635807,Store,JAC,FOOD CONNECTION II INC,MET FOODS,79-15,ELIOT AVE,,,MIDDLE VILLAGE,NY,11379,14000,-73.87944 40.7249,-73.87944,40.7249
Queens,635802,Store,JAC,REVO FOOD CORP,IDEAL FOOD BASKET,108-02,OTIS AVE,,,CORONA,NY,11368,5000,-73.85375 40.74122,-73.85375,40.74122
Queens,635693,Store,JABC,WESTERN BEEF RETAIL INC,WESTERN BEEF 20,130-35,MERRICK BLVD,,,SPRINGFIELD GARDEN,NY,11434,36000,-73.75718 40.67952,-73.75718,40.67952
Queens,635570,Store,JABC,WESTERN BEEF RETAIL INC,WESTERN BEEF 2,44-44,COLLEGE POINT BLVD,,,FLUSHING,NY,11355,24000,-73.83253 40.75278,-73.83253,40.75278
Queens,635549,Store,JAC,PENZO FOOD CORP,BRAVO SUPERMARKET 043,90-30,ROOSEVELT AVE,,,JACKSON HEIGHTS,NY,11372,12000,-73.87586 40.74848,-73.87586,40.74848
Queens,635507,Store,JAC,TANIA&LEENA LLC,C TOWN 041069,110-14,FARMERS BLVD,,,ST ALBANS,NY,11412,8000,-73.76656 40.70274,-73.76656,40.70274
Queens,635387,Store,JAC,TARGET CORPORATION,TARGET 1344,88-01,QUEENS BLVD,,,ELMHURST,NY,11373,230000,-73.87499 40.73518,-73.87499,40.73518
Queens,635334,Store,JABC,HILLSIDE K FOOD LLC,FOODTOWN 590,202-15,HILLSIDE AVE,,,HOLLIS,NY,11423,20000,-73.76111 40.72035,-73.76111,40.72035
Queens,635155,Store,JABC,BJS WHOLESALE CLUB INC,BJS WHOLESALE CLUB 143,66-26,METROPOLITAN AVE,,,MIDDLE VILLAGE,NY,11379,135000,-73.89161 40.71055,-73.89161,40.71055
Queens,635153,Store,JAC,FOOD JUNGLE INC,FOOD WORLD/KEY FOOD,119-14,SUTPHIN BLVD.,,,JAMAICA,NY,11434,15000,-73.79144 40.67865,-73.79144,40.67865
Queens,634915,Store,JAC,SEAFOOD KING INC,SEAFOOD KING,117-07,LIBERTY AVE,,,RICHMOND HILL,NY,11419,5000,-73.82555 40.68591,-73.82555,40.68591
Queens,634763,Store,JAC,32-11 CHANNEL FOOD CORP,FOOD UNIVERSE,32-11,BEACH CHANNEL DR,,,FAR ROCKAWAY,NY,11691,10000,-73.76677 40.59831,-73.76677,40.59831
Queens,634735,Store,JAC,C&A SUPERMARKET INC,C&A SUPERMARKET,41-41,KISSENA BLVD,,,FLUSHING,NY,11355,15000,-73.82828 40.75779,-73.82828,40.75779
Queens,634717,Store,JAC,MERRICK MEAT FARMS INC,MERRICK MEAT FARMS,234-21,MERRICK BLVD,,,LAURELTON,NY,11422,10000,-73.73517 40.67411,-73.73517,40.67411
Queens,634687,Store,JAC,ROCKAWAY PRODUCE INC,FARMBOY COUNTRY MARKET,127-20,ROCKAWAY BLVD,,,SOUTH OZONE PARK,NY,11420,12000,-73.81027 40.67514,-73.81027,40.67514
Queens,634663,Store,JAC,116-15 GMV CORP,VITELIO'S MARKETPLACE/K,116-15,METROPOLITAN AVE,,,KEW GARDENS,NY,11415,10000,-73.83485 40.70706,-73.83485,40.70706
Queens,634606,Store,JAC,RYAN FOOD CORP,KEYFOOD,105-35,64TH RD,,,FOREST HILLS,NY,11375,15000,-73.85114 40.73172,-73.85114,40.73172
Queens,634576,Store,JAC,JUN&JEONG FARM INC,DOUBLE J,168-02,UNION TPKE,,,FLUSHING,NY,11366,13000,-73.80935 40.71988,-73.80935,40.71988
Queens,634512,Store,JAC,BOGOPA GATES INC,FOOD BAZAAR,1590,GATES AVE,,,RIDGEWOOD,NY,11385,25000,-73.91164 40.70012,-73.91164,40.70012
Queens,634313,Store,JAC,4125 MEAT CORP,FINE FARE,41-25,102ND ST,,,CORONA,NY,11368,5000,-73.8632 40.7478,-73.8632,40.7478
Queens,634168,Store,JABC,NADINE FOOD CORP,TRADE FAIR 6,99-10,ASTORIA BLVD,,,EAST ELMHURST,NY,11369,20000,-73.86965 40.76196,-73.86965,40.76196
Queens,634130,Store,JABC,BONILLA FOOD CORP,C TOWN,222-51,JAMAICA AVE,,,QUEENS VILLAGE,NY,11428,15000,-73.73122 40.72142,-73.73122,40.72142
Queens,634101,Store,JABC,Z&T FOOD CORP,KEY FOOD,62-09,ROOSEVELT AVE,,,WOODSIDE,NY,11377,10000,-73.90166 40.74577,-73.90166,40.74577
Queens,633982,Store,JAC,DOLCO FOOD CORP,KEYFOOD 1732,102-02,101ST AVE,,,OZONE PARK,NY,11416,5000,-73.84056 40.6858,-73.84056,40.6858
Queens,633958,Store,JAC,CHUNG FAT SUPERMARKET INC,CHUNG FAT SUPERMARKET,41-82,MAIN ST,,,FLUSHING,NY,11355,25000,-73.82841 40.75565,-73.82841,40.75565
Queens,633906,Store,JAC,RASPBERRY FARM MARKET INC,RASPBERRY FARM,150-15,14TH AVE,,,WHITESTONE,NY,11357,7000,-73.81309 40.78901,-73.81309,40.78901
Queens,633905,Store,JAC,SUN HUI FOOD CORP,C TOWN,94-06,63RD DR,,,REGO PARK,NY,11374,10000,-73.86317 40.72881,-73.86317,40.72881
Queens,633885,Store,JABC,BAYSIDE MILK FARM INC,BAYSIDE MILK FARM,35-15,BELL BLVD,,,BAYSIDE,NY,11361,6000,-73.77349 40.76836,-73.77349,40.76836
Queens,633834,Store,A,BARGAINS INTERNATIONAL INC,BARGAINS INTERNATIONAL,92-11,165TH ST,,,JAMAICA,NY,11433,7000,-73.79469 40.70522,-73.79469,40.70522
Queens,633813,Store,JABC,ROCKAWAY SUPERMARKET CORP,KEY FOOD,87-15,ROCKAWAY BEACH BLVD,,,ROCKAWAY BEACH,NY,11693,20000,-73.81264 40.58739,-73.81264,40.58739
Queens,633765,Store,JAC,TARGET CORPORATION,TARGET 1150,135-05,20TH AVE,,,COLLEGE POINT,NY,11356,25000,-73.83274 40.78165,-73.83274,40.78165
Queens,633759,Store,JAC,102-14 FOOD CORP,KEY FOOD,102-14,37TH AVE,,,CORONA,NY,11368,10000,-73.86475 40.75318,-73.86475,40.75318
Queens,633730,Store,JAC,SEOUL SHOPPING INC,HANYANG SUPERMARKET,150-51,NORTHERN BLVD,,,FLUSHING,NY,11354,15000,-73.81337 40.76512,-73.81337,40.76512
Queens,633727,Store,A,LIBERTY 99 CENTS PARADISE INC,LIBERTY 99 CENTS,98-03,LIBERTY AVE,,,OZONE PARK,NY,11417,5000,-73.84116 40.68095,-73.84116,40.68095
Queens,633572,Store,JABC,700 FOOTHILL FOOD CO LLC,KEY FOOD 1360,114-11,LEFFERTS BLVD,,,SOUTH OZONE PARK,NY,11420,20000,-73.8203 40.67837,-73.8203,40.67837
Queens,633522,Store,JABCH,SLIMS BAGELS&BIALYS INC,SLIMS BAGELS&BIALYS,254-31,HORACE HARDING EXPWY,,,LITTLE NECK,NY,11362,7500,-73.72658 40.76393,-73.72658,40.76393
Queens,633493,Store,A,CHRISTIAN VARIETY OF QUEENS INC,NEW LIFE CHRISTIAN STR,139-11,QUEENS BLVD,,,JAMAICA,NY,11435,6500,-73.81641 40.70609,-73.81641,40.70609
Queens,633340,Store,JAC,HAN HEE INC,HAN AH REAM MARKET,59-18,WOODSIDE AVE,,,WOODSIDE,NY,11377,10000,-73.90481 40.7452,-73.90481,40.7452
Queens,633335,Store,JAC,RNJ FOOD STORE INC,TOWER FRUIT MARKET,272-72,GRAND CENTRAL PKWY,,,FLORAL PARK,NY,11005,7500,-73.71285 40.75928,-73.71285,40.75928
Queens,633195,Store,JAC,GURABO PRODUCE CORP,CITY FRESH MARKET,45-02,JUNCTION BLVD,,,CORONA,NY,11368,10000,-73.86779 40.74455,-73.86779,40.74455
Queens,633159,Store,JAC,JGF NY CORP,GREEN FARM,89-01,165TH ST,,,JAMAICA,NY,11432,8000,-73.79543 40.70767,-73.79543,40.70767
Queens,633139,Store,JAC,HCTK CORP,FOOD UNIVERSE,117-01,LIBERTY AVE,,,RICHMOND HILL,NY,11419,6000,-73.82574 40.68589,-73.82574,40.68589
Queens,633006,Store,JABC,NAHRED SUPERMARKETS INC,KEY FOOD 778,225-01,MERRICK BLVD,,,LAURELTON,NY,11413,20000,-73.7445 40.67755,-73.7445,40.67755
Queens,632985,Store,JAC,S&K VEGETABLES CORP,APNA BAZAR CASH&CARRY,72-20,37TH AVE,,,JACKSON HEIGHTS,NY,11372,8500,-73.89301 40.74883,-73.89301,40.74883
Queens,632972,Store,A,CLOSE OUT PARADISE INC,CLOSE OUT PARADISE,59-67,55TH DR,,,MASPETH,NY,11378,5000,-73.90696 40.72595,-73.90696,40.72595
Queens,632960,Store,JAC,37TH AVE MARKET INC,FOOD BAZAAR,35-60,JUNCTION BLVD,,,CORONA,NY,11368,20000,-73.87121 40.75229,-73.87121,40.75229
Queens,632927,Store,JABC,DANS SUPREME SUPERMARKETS INC,KEY FOOD 1508,214-14,73RD AVE,,,BAYSIDE,NY,11364,20000,-73.75966 40.74039,-73.75966,40.74039
Queens,632836,Store,JABC,LYF MEAT&PRODUCE CORP,C TOWN SUPERMARKET,40-12,28TH AVE,,,ASTORIA,NY,11103,20000,-73.91349 40.76538,-73.91349,40.76538
Queens,632762,Store,JABC,FIVE AND ONE FOOD STORES INC,KEY FOOD 1300,213-22,JAMAICA AVE,,,QUEENS VILLAGE,NY,11428,15000,-73.74405 40.71635,-73.74405,40.71635
Queens,632667,Store,JABC,STOP&SHOP SUPERMARKET CO LLC THE,STOP&SHOP 509,74-17,GRAND AVE,,,MASPETH,NY,11378,45000,-73.88806 40.73009,-73.88806,40.73009
Queens,632649,Store,JAC,REGO PARK AJ MET INC,FOODTOWN,97-36,63RD RD,,,REGO PARK,NY,11374,12000,-73.85988 40.73146,-73.85988,40.73146
Queens,632624,Store,JABC,SEVEN & ONE FOOD LLC,KEY FOOD 1288,20-20,NEW HAVEN AVE,,,FAR ROCKAWAY,NY,11691,28000,-73.75432 40.6008,-73.75432,40.6008
Queens,632390,Store,JAC,FLUSHING 4424 SUPERMARKET CORP,FOOD PLUS,44-24,KISSENA BLVD,,,FLUSHING,NY,11355,20000,-73.82229 40.75347,-73.82229,40.75347
Queens,632372,Store,JAC,LOREEN FOOD CORP,TRADE FAIR 5,37-11,DITMARS BLVD,,,ASTORIA,NY,11105,6700,-73.90718 40.77365,-73.90718,40.77365
Queens,632223,Store,JAC,R&M GLATT SUPERMARKET 108 ST CORP,R&M GLATT SUPERMARKET,63-64,108TH ST,,,FOREST HILLS,NY,11375,6000,-73.84984 40.73342,-73.84984,40.73342
Queens,632217,Store,JAC,LIC MARKET CORP,FINE FAIR,10-07,41ST AVE,,,LONG ISLAND CITY,NY,11101,5000,-73.9455 40.75557,-73.9455,40.75557
Queens,632169,Store,JAC,BOGOPA-JUNCTION INC,FOOD BAZAAR,34-20,JUNCTION BLVD,,,JACKSON HEIGHTS,NY,11372,11000,-73.87239 40.75451,-73.87239,40.75451
Queens,632118,Store,JABC,57TH AVENUE MARKET INC,FOOD BAZAAR SUPERMARKET,97-27,57TH AVE,,,CORONA,NY,11368,15000,-73.86272 40.73755,-73.86272,40.73755
Queens,632081,Store,JABC,SWF FOOD CORP,FOODTOWN,76-10,37TH AVE,,,JACKSON HEIGHTS,NY,11372,15000,-73.88969 40.74917,-73.88969,40.74917
Queens,632047,Store,JABC,STOP&SHOP SUPERMARKET CO LLC THE,STOP&SHOP 508,64-65,MYRTLE AVE,,,GLENDALE,NY,11385,30000,-73.89056 40.70112,-73.89056,40.70112
Queens,632032,Store,JABC,COSTCO WHOLESALE CORP,COSTCO WHOLESALE 243,32-50,VERNON BLVD,,,LONG ISLAND CITY,NY,11106,88000,-73.94346 40.76041,-73.94346,40.76041
Queens,631926,Store,JAC,JAY JAHAL INC,PATEL BROTHERS,251-08,HILLSIDE AVE,,,BELLEROSE,NY,11426,8000,-73.71618 40.73565,-73.71618,40.73565
Queens,631906,Store,JAC,AMAMA FOOD CORP,COMPARE FOOD MARKET,77-20,JAMAICA AVE,,,WOODHAVEN,NY,11421,5000,-73.86411 40.69182,-73.86411,40.69182
Queens,631774,Store,JABC,JCA FOOD CORP,FOODTOWN,84-05,PARSONS BLVD,,,JAMAICA,NY,11432,12000,-73.80722 40.71407,-73.80722,40.71407
Queens,631683,Store,JAC,SALAT MEAT & GROCERY CORP,C TOWN,75-43,METROPOLITAN AVE,,,MIDDLE VILLAGE,NY,11379,12000,-73.876 40.71307,-73.876,40.71307
Queens,631521,Store,JABC,MANDELL FOOD STORES INC,KEY FOOD 564,32-21,NEWTOWN AVE,,,ASTORIA,NY,11102,27000,-73.92009 40.76658,-73.92009,40.76658
Queens,631491,Store,JAC,TOP LINE MEAT MARKET INC,TOP LINE MEAT MARKET,81-37,BROADWAY,,,ELMHURST,NY,11373,6000,-73.88282 40.74291,-73.88282,40.74291
Queens,631480,Store,JABC,BJS WHOLESALE CLUB INC,BJS WHOLESALE CLUB 97,137-05,20TH AVE,,,COLLEGE POINT,NY,11356,30000,-73.83138 40.78293,-73.83138,40.78293
Queens,631435,Store,JAC,CORO FOOD CORP,TRADE FAIR 4,49-11,30TH AVE,,,WOODSIDE,NY,11377,16000,-73.9072 40.76024,-73.9072,40.76024
Queens,631096,Store,JABC,DYNASTY VI FOOD CORP,FRESH N SAVE,60-16,MYRTLE AVE,,,RIDGEWOOD,NY,11385,20000,-73.89787 40.70052,-73.89787,40.70052
Queens,630933,Store,JABC,50-18 MEAT CORP,FRESH N SAVE,50-18,SKILLMAN AVE,,,WOODSIDE,NY,11377,10000,-73.91364 40.74606,-73.91364,40.74606
Queens,630835,Store,JAC,TRADE BETTER SUPERMARKET CORP,BRAVO SUPERMARKET,109-06,JAMAICA AVE,,,RICHMOND HILL,NY,11418,12000,-73.83853 40.69599,-73.83853,40.69599
Queens,630800,Store,JAC,JJR 66-82 FOOD CORP,CHECOS FOOD UNIVERSE,66-82,FRESH POND RD,,,RIDGEWOOD,NY,11385,6000,-73.8968 40.70626,-73.8968,40.70626
Queens,630709,Store,JABC,74-39 MEAT CORP,C TOWN SUPERMARKET,74-39,JAMAICA AVE,,,WOODHAVEN,NY,11421,10000,-73.86769 40.69125,-73.86769,40.69125
Queens,630696,Store,JAC,PJ 37 FOOD CORP,C TOWN,85-08,37TH AVE,,,JACKSON HEIGHTS,NY,11372,15000,-73.8813 40.75006,-73.8813,40.75006
Queens,630536,Store,JAC,BAYCHESTER SUPERMARKET CORP,C TOWN 041023,98-02,JAMAICA AVE,,,WOODHAVEN,NY,11421,25000,-73.84746 40.69483,-73.84746,40.69483
Queens,630496,Store,JAC,CHARLES SCATTURO&SONS INC,SCATURRO SUPERMARKET,84-39,JAMAICA AVE,,,WOODHAVEN,NY,11421,20000,-73.85946 40.6925,-73.85946,40.6925
Queens,630493,Store,JABC,130-10 FOOD CORP,TRADE FAIR II,130-10,METROPOLITAN AVE,,,RICHMOND HILL,NY,11418,20000,-73.82164 40.70346,-73.82164,40.70346
Queens,630415,Store,JAC,HMSM SUPERMARKETS INC,FOOD UNIVERSE,102-21,QUEENS BLVD,,,FOREST HILLS,NY,11375,12000,-73.851 40.72586,-73.851,40.72586
Queens,630089,Store,JAC,MS FAMILY FOOD CORP,IDEAL FOOD BASKET,142-36,FOCH BLVD,,,JAMAICA,NY,11436,10000,-73.79849 40.67901,-73.79849,40.67901
Queens,630036,Store,JAC,FARM BOY MARKET INC,KEY FOOD 1310,108-16,LIBERTY AVE,,,S RICHMOND HILL,NY,11419,10000,-73.83331 40.68385,-73.83331,40.68385
Queens,630033,Store,A,WESTERN BEEF RETAIL INC,JUNIORS FOOD OUTLETS,145-35,ROCKAWAY BLVD,,,SOUTH OZONE PARK,NY,11436,10000,-73.80211 40.67441,-73.80211,40.67441
New York,629503,Store,A,PARTY CITY INC,PARTY CITY STORE,38,W 14TH ST,,,NEW YORK,NY,10011,20000,-73.99547 40.73678,-73.99547,40.73678
New York,629457,Store,JAC,UNIV 45 FRUIT & VEGETABLE CORP,EPICUREAN MARKET,45,UNIVERSITY PL,,,NEW YORK,NY,10003,30000,-73.99411 40.73239,-73.99411,40.73239
New York,629421,Store,JAC,111 HUDSON MARKET INC,HUDSON MARKET,111,HUDSON ST,,,NEW YORK,NY,10013,5000,-74.00869 40.71967,-74.00869,40.71967
New York,629362,Store,JAC,RIVINGTONS ORCHARD LLC,CORNER GROCERS,140,ORCHARD ST,,,NEW YORK,NY,10002,5000,-73.9892 40.72013,-73.9892,40.72013
New York,629358,Store,JAC,GORIS GROCERS MADISON AVE CORP,NYC FRESH MARKET,1660,MADISON AVE,,,NEW YORK,NY,10029,8000,-73.94739 40.79651,-73.94739,40.79651
New York,629279,Store,JAC,2589 WESTSIDE MARKETS LLC,WESTSIDE MARKET,2589,BROADWAY,,,NEW YORK,NY,10025,10000,-73.97108 40.79577,-73.97108,40.79577
New York,629158,Store,JAC,70-72 MEAT&PRODUCE CORP,FOOD UNIVERSE MARKET PL,70-72,NAGLE AVE,,,NEW YORK,NY,10040,5000,-73.92844 40.86023,-73.92844,40.86023
New York,629113,Store,JAC,ELM HEALTH CHELSEA CORP,ELM WELLNESS,56,7TH AVE,,,NEW YORK,NY,10011,10000,-73.99985 40.73833,-73.99985,40.73833
New York,629102,Store,JAC,D&S PRODUCE INC,MET SUPERMARKET,160,E 110TH,,,NEW YORK,NY,10029,16000,-73.94372 40.79452,-73.94372,40.79452
New York,629013,Store,JAC,PRIME ESSENTIALS LLC,PRIME ESSENTIALS,345,BROADWAY,,,NEW YORK,NY,10013,6000,-74.00419 40.71669,-74.00419,40.71669
New York,628978,Store,JAC,POLO GROUNDS MEAT CORP,FINE FARE,2927,FREDERICK DOUGLAS BLVD,,,NEW YORK,NY,10039,12000,-73.93813 40.83042,-73.93813,40.83042
New York,628946,Store,JAC,380 LENOX MEAT CORP,PIONEER SUPERMARKET,380,MALCOLM X BLVD,,,NEW YORK,NY,10027,12000,-73.9434 40.81053,-73.9434,40.81053
New York,628945,Store,JAC,57 BAYARD MEAT MARKET INC,57 BAYARD MEAT MARKET,57,BAYARD ST,,,NEW YORK,NY,10013,6000,-73.99776 40.71537,-73.99776,40.71537
New York,628927,Store,JAC,FOODEX LLC,GRACEFULLY,101,WEST END AVE,,,NEW YORK,NY,10023,6000,-73.9881 40.77484,-73.9881,40.77484
New York,628917,Store,JAC,CENTRAL PARK NORTH MEAT LLC,FINE FARE,37,LENOX AVE,,,NEW YORK,NY,10026,8000,-73.95172 40.79937,-73.95172,40.79937
New York,628845,Store,JADK,DAI SING CORP,DAI SING,100,DIVISION ST,,,NEW YORK,NY,10002,50000,-73.99332 40.71433,-73.99332,40.71433
New York,628822,Store,JAC,12 EAST FF CORP,BREAD & HONEY,941,8TH AVE,,,NEW YORK,NY,10019,8000,-73.98344 40.76586,-73.98344,40.76586
New York,628784,Store,A,TRADER JOES EAST INC,TRADER JOES #542,2073,BROADWAY,,,NEW YORK,NY,10023,14000,-73.98208 40.77852,-73.98208,40.77852
New York,628776,Store,JAC,EATALY NY LLC,EATALY,200,5TH AVE,,,NEW YORK,NY,10010,45000,-73.9893 40.74188,-73.9893,40.74188
New York,628762,Store,JAC,TARGET CORP,TARGET 2380,517,E 117TH ST SUITE 201,,,NEW YORK,NY,10035,5000,-73.93182 40.79538,-73.93182,40.79538
New York,628751,Store,JAC,DAGOSTINOS MARKETS LLC,DAGOSTINOS SUPERMARKETS,1233,LEXINGTON AVE,,,NEW YORK,NY,10028,14000,-73.95687 40.77774,-73.95687,40.77774
New York,628738,Store,A,TRADER JOES EAST INC,TRADER JOES #543,675,6TH AVE,,,NEW YORK,NY,10010,21000,-73.99365 40.74174,-73.99365,40.74174
New York,628661,Store,JAC,MR 2497 FOOD CORP,FINE FARE,2497,7TH AVE,,,NEW YORK,NY,10030,5000,-73.93916 40.82141,-73.93916,40.82141
New York,628603,Store,JAC,NAMDOR INC,GRISTEDES 34,907,8TH AVE,,,NEW YORK,NY,10019,9000,-73.98435 40.76466,-73.98435,40.76466
New York,628461,Store,JAC,135 FUTURE L&M CORP,FINE FARE,24,W 135TH ST,,,NEW YORK,NY,10037,19000,-73.93901 40.81334,-73.93901,40.81334
New York,628437,Store,JABC,COSTCO WHOLESALE CORP,COSTCO WHOLESALE 1062,517,E 117TH ST,,,NEW YORK,NY,10035,106000,-73.93182 40.79538,-73.93182,40.79538
New York,628248,Store,JAC,PRAYOSHA 202 INC,PRAYOSHA 202,202,MOTT ST,,,NEW YORK,NY,10012,6000,-73.99554 40.72142,-73.99554,40.72142
New York,628242,Store,JAC,1411-6 FRUIT & VEGETABLE CORP,MERCI MARKET,1411,6TH AVE,,,NEW YORK,NY,10019,7000,-73.9768 40.76483,-73.9768,40.76483
New York,628232,Store,JACK,WHOLE FOODS MARKET GROUP INC,WHOLE FOODS MARKET,808,COLUMBUS AVE,,,NEW YORK,NY,10025,58000,-73.96585 40.79519,-73.96585,40.79519
New York,628182,Store,JAC,A&C 2541 MEAT CORP,PIONEER SUPERMARKET,2541,ADAM CLAYTON POWELL JR BLVD,,,NEW YORK,NY,10039,10000,-73.93763 40.8235,-73.93763,40.8235
New York,628166,Store,JAC,A&C SUPERMAS INC,ASSOCIATED SUPERMARKET,2444,7TH AVE,,,NEW YORK,NY,10030,5000,-73.9404 40.81998,-73.9404,40.81998
New York,628153,Store,JAC,96 DAN MEAT MARKET INC,DAN SUPERMARKET 2,96,SHERMAN AVE,,,NEW YORK,NY,10034,20000,-73.92539 40.86381,-73.92539,40.86381
New York,628139,Store,A,LOT LESS ON CHAMBERS STREET INC,LOT LESS,97,CHAMBERS ST,,,NEW YORK,NY,10007,20000,-74.00767 40.71477,-74.00767,40.71477
New York,628137,Store,JAC,WESTERLY HEALTH FOODS INC,WESTERLY HEALTH FOODS,911-913,8TH AVE,,,NEW YORK,NY,10019,5000,-73.98419 40.76488,-73.98419,40.76488
New York,628133,Store,JAC,KAY MARKET INC,KAY MARKET,645,BROADWAY,,,NEW YORK,NY,10012,10000,-73.99571 40.72669,-73.99571,40.72669
New York,628103,Store,JADK,HT & E COMPANY LTD,MEAT CENTRE,208,CENTRE ST,,,NEW YORK,NY,10013,5000,-73.9991 40.71909,-73.9991,40.71909
New York,628033,Store,JAC,ROSANNA FOOD CORP,KEY FOOD SUPERMARKET,592,LENOX AVE,,,NEW YORK,NY,10037,27000,-73.93852 40.81718,-73.93852,40.81718
New York,627958,Store,JAC,POST FOOD CORP,IDEAL MARKETPLACE,317,9TH AVE,,,NEW YORK,NY,10001,15000,-73.99881 40.74992,-73.99881,40.74992
New York,627954,Store,JAC,HONG KONG SPRMKT - HESTER ST CORP,HONG KONG SUPERMARKET,157,HESTER ST,,,NEW YORK,NY,10013,19000,-73.99609 40.71752,-73.99609,40.71752
New York,627947,Store,A,SUN VIN GROCERY STORE INC,SUN VIN GROCERY,75,MULBERRY ST,,,NEW YORK,NY,10013,7000,-73.99911 40.71626,-73.99911,40.71626
New York,627880,Store,JAC,EL GALLO MEAT MARKET INC,COMPARE FOODS,538,W 138TH ST,,,NEW YORK,NY,10031,15000,-73.95264 40.82158,-73.95264,40.82158
New York,627845,Store,JAC,WHOLE FOODS MARKET GROUP INC,WHOLE FOODS MKT 10245,270,GREENWICH ST,,,NEW YORK,NY,10007,20000,-74.01114 40.71549,-74.01114,40.71549
New York,627530,Store,JABC,WS MARKETS LLC,WEST SIDE SUPERMARKETS,2840,BROADWAY,,,NEW YORK,NY,10025,20000,-73.96637 40.80445,-73.96637,40.80445
New York,627516,Store,JAC,DAGOSTINOS MARKETS LLC,DAGOSTINOS SUPERMARKETS,1507,YORK AVE,,,NEW YORK,NY,10075,13000,-73.94995 40.77205,-73.94995,40.77205
New York,627439,Store,JAC,180 MARKETPLACE INC,JUBILEE MARKET,180,RIVERSIDE BLVD,,,NEW YORK,NY,10069,17000,-73.98854 40.77851,-73.98854,40.77851
New York,627411,Store,JABC,WHOLE FOODS MARKET GROUP INC,WHOLEFOODSMARKET #10236,95,E HOUSTON ST,,,NEW YORK,NY,10002,73000,-73.99173 40.72378,-73.99173,40.72378
New York,627389,Store,JAC,ERNST KLEIN 6TH AVE FOOD CORP,ERNST KLEIN&COMPANY,1366,6TH AVE,,,NEW YORK,NY,10019,10000,-73.97778 40.7635,-73.97778,40.7635
New York,627354,Store,JAC,NEW KAM MAN LLC,NEW KAM MAN,200,CANAL ST,,,NEW YORK,NY,10013,10000,-73.99828 40.71699,-73.99828,40.71699
New York,627331,Store,JAC,SABANA MEAT CORP,CHERRY VALLEY MARKETPLA,309,E 115TH ST,,,NEW YORK,NY,10029,20000,-73.93769 40.79605,-73.93769,40.79605
New York,627203,Store,JABC,WESTERN BEEF RETAIL INC,WESTERN BEEF 16,431,W 16TH ST,,,NEW YORK,NY,10011,14000,-74.00575 40.74284,-74.00575,40.74284
New York,627102,Store,JAC,560 WEST MEAT&PRODUCE CORP,C TOWN,560,W 125TH ST,,,NEW YORK,NY,10027,9000,-73.95745 40.81473,-73.95745,40.81473
New York,627059,Store,JAC,LEX34 FRUIT&VEGETABLE CORP,LEX34 FRUIT&VEGETABLE,136,E 34TH ST,,,NEW YORK,NY,10016,5000,-73.9795 40.74631,-73.9795,40.74631
New York,626943,Store,JAC,RANCHOS FOOD CORP,COLUMBUS FOODMARKET,71-81,W 104TH ST,,,NEW YORK,NY,10025,10000,-73.96316 40.79763,-73.96316,40.79763
New York,626894,Store,A,TRADER JOES EAST INC,TRADER JOES #540,142,E 14TH ST,,,NEW YORK,NY,10003,10000,-73.98792 40.73359,-73.98792,40.73359
New York,626736,Store,JAC,BOGOPA MADISON LLC,FINE FARE SUPERMARKET,1718,MADISON AVE,,,NEW YORK,NY,10029,10000,-73.94612 40.79823,-73.94612,40.79823
New York,626640,Store,JAC,NAMDOR INC,GRISTEDES 511,500,COLUMBUS AVE 84TH ST,,,NEW YORK,NY,10024,18000,-73.97296 40.78547,-73.97296,40.78547
New York,626639,Store,JABC,NAMDOR INC,FOOD TOWN,686,N MAIN ST,,,ROOSEVELT ISLAND,NY,10044,25000,-73.9471 40.76481,-73.9471,40.76481
New York,626638,Store,JABC,NAMDOR INC,DAGOSTINOS MARKETS 518,355,1ST AVE/20TH ST,,,NEW YORK,NY,10010,15000,-73.97961 40.73543,-73.97961,40.73543
New York,626637,Store,JAC,NAMDOR INC,GRISTEDES 543,3,SHERIDAN SQ W 4TH ST,,,NEW YORK,NY,10014,13000,-74.00224 40.73297,-74.00224,40.73297
New York,626635,Store,JABC,NAMDOR INC,GRISTEDES 545,225,9TH AVE,,,NEW YORK,NY,10011,20000,-74.00097 40.74699,-74.00097,40.74699
New York,626544,Store,JAC,NAMDOR INC,GRISTEDES 533,748,2ND AVE,,,NEW YORK,NY,10017,7500,-73.97305 40.74869,-73.97305,40.74869
New York,626480,Store,JAC,MANDELL FOOD STORES INC,KEY FOOD 566,52,AVENUE A,,,NEW YORK,NY,10009,18000,-73.98496 40.72411,-73.98496,40.72411
New York,626220,Store,JAC,GOLDEN PINEAPPLE AVE D CORP,COMPARE STR #687,71-75,AVENUE D,,,NEW YORK,NY,10009,6000,-73.97697 40.72241,-73.97697,40.72241
New York,626140,Store,JAC,TAN TIN HUNG CORP,TAN TIN HUNG SUPERMARKT,121,BOWERY,,,NEW YORK,NY,10002,6000,-73.99497 40.71813,-73.99497,40.71813
New York,626050,Store,JAC,ROSAN FOOD CORP,FINE FARE SUPERMARKET,1891,3RD AVE,,,NEW YORK,NY,10029,15000,-73.94534 40.79065,-73.94534,40.79065
New York,625936,Store,JABC,NAMDOR INC,GRISTEDES 601,2704,BROADWAY,,,NEW YORK,NY,10025,17000,-73.96835 40.79926,-73.96835,40.79926
New York,625900,Store,JABC,WHOLE FOODS MARKET GROUP INC,WHOLE FOOD MARKET 10162,4,UNION SQ SOUTH,,,NEW YORK,NY,10003,26000,-73.9907 40.7348,-73.9907,40.7348
New York,625828,Store,A,WILLIAMS SONOMA INC,WILLIAMS SONOMA,10,COLUMBUS CIRCLE,,,NEW YORK,NY,10019,8000,-73.98244 40.76803,-73.98244,40.76803
New York,625796,Store,JAC,JUNCALITO MEAT&PRODUCE INC,CITY FRESH MARKET,2212,3RD AVE,,,NEW YORK,NY,10035,5000,-73.93785 40.80091,-73.93785,40.80091
New York,625766,Store,JABC,NAMDOR INC,GRISTEDES 413,1365,3RD AVE,,,NEW YORK,NY,10075,12000,-73.95797 40.77335,-73.95797,40.77335
New York,625709,Store,JAC,2451 BROADWAY MARKET INC,BARZINIS,2451,BROADWAY,,,NEW YORK,NY,10024,16000,-73.97432 40.79132,-73.97432,40.79132
New York,625639,Store,JAC,1239 FOOD CORP,KEY FOOD,1239,SAINT NICHOLAS AVE,,,NEW YORK,NY,10032,12000,-73.93806 40.84339,-73.93806,40.84339
New York,625575,Store,JAC,MANI MARKET PLACE INC,MANI MARKET PLACE,697,COLUMBUS AVE,,,NEW YORK,NY,10025,10000,-73.96859 40.79143,-73.96859,40.79143
New York,625364,Store,JAC,NAMDOR INC,GRISTEDES 437,1343,LEXINGTON AVE,,,NEW YORK,NY,10128,14000,-73.954 40.78168,-73.954,40.78168
New York,625300,Store,JAC,BETTER FRUIT INC,CENTRAL MARKETS,220,MANHATTAN AVE,,,NEW YORK,NY,10025,10000,-73.95986 40.80086,-73.95986,40.80086
New York,625284,Store,JAC,756 JOMO FOOD CORP,FOODTOWN,756,ST NICHOLAS AVE,,,NEW YORK,NY,10031,25000,-73.94359 40.82563,-73.94359,40.82563
New York,625236,Store,JABC,WESTSIDE SUPERMARKET LLC,WESTSIDE SUPERMARKET,77,7TH AVENUE,,,NEW YORK,NY,10011,25000,-73.99941 40.73892,-73.99941,40.73892
New York,625200,Store,A,DYCKMAN DEALS INC,99 CENT USA,116A,DYCKMAN ST,,,NEW YORK,NY,10040,6000,-73.92507 40.8621,-73.92507,40.8621
New York,625150,Store,JAC,DAGOSTINOS MARKETS LLC,DAGOSTINOS SUPERMARKETS,966,1ST AVE AT 53RD ST,,,NEW YORK,NY,10022,13000,-73.96467 40.75594,-73.96467,40.75594
New York,625078,Store,JACK,WHOLE FOODS MARKET GROUP INC,WHOLE FOODS MARKET,10,COLUMBUS CIRCLE SUITE SC101,,,NEW YORK,NY,10019,59000,-73.98244 40.76803,-73.98244,40.76803
New York,624937,Store,JAC,PS MEAT CORP,C TOWN,238,WEST 116TH ST,,,NEW YORK,NY,10026,8000,-73.95419 40.80392,-73.95419,40.80392
New York,624928,Store,JAC,LUNA BROTHERS INC,C TOWN,3632,BROADWAY,,,NEW YORK,NY,10031,18000,-73.9482 40.82937,-73.9482,40.82937
New York,624809,Store,JABC,JAV FOOD CORP,AGATA&VALENTINA,1505,1ST AVE,,,NEW YORK,NY,10075,7000,-73.95286 40.7721,-73.95286,40.7721
New York,624652,Store,JAC,VILLAGE ENTERPRISES LLC,CITARELLA,424,6TH AVE,,,NEW YORK,NY,10011,15000,-73.99893 40.73447,-73.99893,40.73447
New York,624469,Store,JAC,OWNERS KID FOOD CORP,ASSOCIATED SUPERMARKET,123,AVENUE C,,,NEW YORK,NY,10009,5000,-73.97844 40.72465,-73.97844,40.72465
New York,624461,Store,JAC,FARE FARM FOOD CORP,FINE FARE SUPERMARKET,4776,BROADWAY,,,NEW YORK,NY,10034,15000,-73.92654 40.8658,-73.92654,40.8658
New York,624408,Store,JAC,NAMDOR INC,GRISTEDES 562,307,W 26TH ST,,,NEW YORK,NY,10001,11000,-73.99758 40.74742,-73.99758,40.74742
New York,624280,Store,JAC,117 CORONA MEAT CORP,FINE FARE,136,LENOX AVE,,,NEW YORK,NY,10026,20000,-73.94929 40.80245,-73.94929,40.80245
New York,624015,Store,JACD,RUSS&DAUGHTERS LLC,RUSS&DAUGHTERS,179,E HOUSTON ST,,,NEW YORK,NY,10002,5000,-73.98824 40.72274,-73.98824,40.72274
New York,624011,Store,JAC,DAGOSTINOS MARKETS LLC,DAGOSTINOS SUPERMARKETS,815,10TH AVE,,,NEW YORK,NY,10019,15000,-73.98978 40.76744,-73.98978,40.76744
New York,623983,Store,JAC,LENOX & 132ND FOOD CORP,ASSOCIATED,448,LENOX AVE,,,NEW YORK,NY,10037,20000,-73.94203 40.8124,-73.94203,40.8124
New York,623913,Store,JAC,BROS FOOD SUPERMARKET CORP,C-TOWN,188,AVENUE C,,,NEW YORK,NY,10009,16000,-73.97653 40.72725,-73.97653,40.72725
New York,623787,Store,JACH,MANHATTAN LOBSTER PLACE LLC,MANHATTAN LOBSTER PLACE,75,9TH AVE,,,NEW YORK,NY,10011,14000,-74.00453 40.74216,-74.00453,40.74216
New York,623749,Store,A,WEBERS 32ND ST CORP,WEBERS 99 CENTS&UP,116,WEST 32ND ST,,,NEW YORK,NY,10001,6000,-73.98966 40.74892,-73.98966,40.74892
New York,623739,Store,JAC,KATAGIRI&CO INC,KATAGIRI,224,E 59TH ST,,,NEW YORK,NY,10022,5000,-73.96541 40.76107,-73.96541,40.76107
New York,623684,Store,JAC,CHELSEA MARKET BASKETS LTD,CHELSEA MARKET BASKETS,75,9TH AVE,,,NEW YORK,NY,10011,5000,-74.00453 40.74216,-74.00453,40.74216
New York,623658,Store,JAC,TAN & WHITE SUPERMARKET INC,MORTON WILLIAMS SUPERMA,130,BLEECKER ST,,,NEW YORK,NY,10012,26000,-73.99855 40.72786,-73.99855,40.72786
New York,623623,Store,JAC,BATTERY PARK CTY GOURMET MKT INC,BTTRY PK CTY GRMT MKT,450,NORTH END AVE,,,NEW YORK,NY,10281,7000,-74.01421 40.71711,-74.01421,40.71711
New York,623533,Store,JAC,FRANKS GOURMET MARKET INC,FRANKS MARKET,807-809,W 187TH ST,,,NEW YORK,NY,10033,6000,-73.93732 40.85526,-73.93732,40.85526
New York,623442,Store,JAC,SILVER&WHITE MARKETS INC,MORTON WILLIAMS SUPERMA,278,PARK AVE S,,,NEW YORK,NY,10010,9000,-73.98702 40.73935,-73.98702,40.73935
New York,623380,Store,JAC,DAGOSTINOS MARKETS LLC,DAGOSTINOS SUPERMARKETS,633,COLUMBUS AVE,,,NEW YORK,NY,10024,30000,-73.96998 40.78954,-73.96998,40.78954
New York,623304,Store,JABC,NAMDOR INC,GRISTEDES 597,221-229,8TH AVE,,,NEW YORK,NY,10011,20000,-73.99927 40.74422,-73.99927,40.74422
New York,623295,Store,JABC,SOLAR MERIDAN CORP,WESTSIDE MARKET PLACE,790,11TH AVE STORE #4,,,NEW YORK,NY,10019,6000,-73.99247 40.76883,-73.99247,40.76883
New York,623286,Store,JAC,TALA FOOD MARKET INC,BUTTERFIELD MARKET,1114,LEXINGTON AVE,,,NEW YORK,NY,10075,5000,-73.95952 40.7741,-73.95952,40.7741
New York,623272,Store,JABC,99 JOHNS MARKET PLACE INC,JUBELEE MARKET PLACE,99,JOHN ST,,,NEW YORK,NY,10038,16000,-74.00628 40.70807,-74.00628,40.70807
New York,623259,Store,JAC,JANICO FOOD CORP,FOOD TOWN,2463,FREDERICK DOUGLAS BLVD,,,NEW YORK,NY,10027,15000,-73.94795 40.81458,-73.94795,40.81458
New York,623254,Store,JAC,JKJ CORP,ASSOCIATED SUPERMARKET,13-15,W 100TH ST,,,NEW YORK,NY,10025,18000,-73.96352 40.79446,-73.96352,40.79446
New York,623250,Store,JAC,GARDEN OF EDEN GOURMET INC,GARDEN OF EDEN,7,E 14TH ST,,,NEW YORK,NY,10003,8000,-73.99269 40.73562,-73.99269,40.73562
New York,623223,Store,JABCD,MISONO FOOD LTD,BUONITALIA,75,9TH AVE,,,NEW YORK,NY,10011,11000,-74.00453 40.74216,-74.00453,40.74216
New York,623096,Store,JAC,FRESH BAGELS FARMERS MARKET INC,AMISH MARKET,240,E 45TH ST,,,NEW YORK,NY,10017,13000,-73.97135 40.75198,-73.97135,40.75198
New York,623062,Store,JAC,DOWNTOWN FOOD CORP,C TOWN,5,ST JAMES PL,,,NEW YORK,NY,10038,5000,-74.00044 40.71105,-74.00044,40.71105
New York,622978,Store,JABC,DAGOSTINOS MARKETS LLC,DAGOSTINOS SUPERMARKETS,578-580,3RD AVE @ 38TH ST #,,,NEW YORK,NY,10016,6000,-73.97613 40.74845,-73.97613,40.74845
New York,622587,Store,JAC,LINA FOOD CORP,C TOWN,4918-26,BROADWAY,,,NEW YORK,NY,10034,25000,-73.92175 40.8675,-73.92175,40.8675
New York,622566,Store,JABC,G10 1016 CORP,C TOWN,1016,ST NICHOLAS AVE,,,NEW YORK,NY,10032,12000,-73.93976 40.83515,-73.93976,40.83515
New York,622503,Store,JAC,3550 FOOD CORP,KEY FOOD SUPERMARKET,3550,BROADWAY,,,NEW YORK,NY,10031,15000,-73.95002 40.82687,-73.95002,40.82687
New York,622457,Store,JAC,ELIS MANHATTAN WAREHOUSE INC,ELIS,1411,3RD AVE,,,NEW YORK,NY,10028,28000,-73.95667 40.77514,-73.95667,40.77514
New York,622451,Store,JAC,111 SECOND FOOD CORP,MET FOODS,107-113,2ND AVE,,,NEW YORK,NY,10003,12000,-73.98835 40.7277,-73.98835,40.7277
New York,622342,Store,JAC,BRONZE&WHITE MARKETS INC,MORTON WILLIAMS,917,9TH AVE.,,,NEW YORK,NY,10019,5432,-73.98505 40.76885,-73.98505,40.76885
New York,622272,Store,JAC,SCHALLER MANUFACTURING CORP,SCHALLER & WEBER,1654,2ND AVE,,,NEW YORK,NY,10028,7000,-73.95189 40.77767,-73.95189,40.77767
New York,622262,Store,JAC,CITARELLA EAST,CITARELLA,1313,3RD AVE,,,NEW YORK,NY,10021,25000,-73.95905 40.77187,-73.95905,40.77187
New York,622188,Store,JAC,F&V FOOD CORP,XCELLENTE SUPERMARKET,1568,ST NICHOLAS AVE,,,NEW YORK,NY,10040,7000,-73.93032 40.85398,-73.93032,40.85398
New York,622053,Store,JAC,MADISON PRODUCE CORP,PATRICK MURPHYS MARKET,1307,MADISON AVE,,,NEW YORK,NY,10128,8000,-73.95574 40.78506,-73.95574,40.78506
New York,621950,Store,JAC,DAGOSTINOS MARKETS LLC,DAGOSTINOS SUPERMARKETS,1074,LEXINGTON AVE,,,NEW YORK,NY,10021,10000,-73.96044 40.77285,-73.96044,40.77285
New York,621936,Store,JAC,COLUMBUS FOODS INC,PIONEER,289,COLUMBUS AVE,,,NEW YORK,NY,10023,20000,-73.97803 40.77857,-73.97803,40.77857
New York,621808,Store,JABC,NAMDOR INC,GRISTEDES 53,1644,YORK AVE,,,NEW YORK,NY,10128,10000,-73.94686 40.77629,-73.94686,40.77629
New York,621804,Store,JAC,NAMDOR INC,GRISTEDES 59,1446,2ND AVE,,,NEW YORK,NY,10075,14000,-73.95671 40.77107,-73.95671,40.77107
New York,621785,Store,JAC,NAMDOR INC,GRISTEDES 82,25,UNIVERSITY PL,,,NEW YORK,NY,10003,15000,-73.99437 40.73209,-73.99437,40.73209
New York,621658,Store,JACHK,PO WING HONG FOOD MARKET INC,PO WING HONG FOOD MRKT,49,ELIZABETH ST,,,NEW YORK,NY,10013,8000,-73.99663 40.7171,-73.99663,40.7171
New York,621472,Store,JAC,530 FOOD CORP,KEY FOODS,530,AMSTERDAM AVE,,,NEW YORK,NY,10024,11000,-73.97518 40.78745,-73.97518,40.78745
New York,621264,Store,JABC,BROWN&WHITE MARKETS INC,MORTON WILLIAMS,311,E 23RD ST.,,,NEW YORK,NY,10010,14500,-73.97998 40.73752,-73.97998,40.73752
New York,621229,Store,JABC,PST HEALTH LLC,LIFETHYME NATURAL MARKE,410,AVENUE OF THE AMERICAS,,,NEW YORK,NY,10011,6000,-73.99934 40.73389,-73.99934,40.73389
New York,621143,Store,JAC,GREAT WAY FOODS INC,KEY FOOD 790,4365,BROADWAY,,,NEW YORK,NY,10033,15000,-73.9338 40.85396,-73.9338,40.85396
New York,621104,Store,JAC,GLENDA FOOD CORP,OZZIE'S FRESH MARKET,592,FORT WASHINGTON AVE,,,NEW YORK,NY,10033,22000,-73.93693 40.85497,-73.93693,40.85497
New York,621084,Store,JAC,DAGOSTINOS MARKETS LLC,DAGOSTINOS SUPERMARKET,790,GREENWICH ST,,,NEW YORK,NY,10014,10000,-74.00649 40.73725,-74.00649,40.73725
New York,621080,Store,JAC,DAGOSTINOS MARKETS LLC,DAGOSTINOS SUPERMARKETS,341,3RD AVE,,,NEW YORK,NY,10010,6000,-73.98204 40.74034,-73.98204,40.74034
New York,621043,Store,JABC,NAMDOR INC,GRISTEDES 512,1208,1ST AVE,,,NEW YORK,NY,10065,20000,-73.95913 40.76354,-73.95913,40.76354
New York,621042,Store,JAC,NAMDOR INC,GRISTEDES 524,2610,FDR DR&WATERSIDE,,,NEW YORK,NY,10010,8000,-73.97458 40.73677,-73.97458,40.73677
New York,621015,Store,JAC,3011 GROCERY INC,C TOWN,3320,BROADWAY,,,NEW YORK,NY,10031,20000,-73.95524 40.81968,-73.95524,40.81968
New York,620982,Store,JAC,KBC FOOD CORP,C TOWN,1721-27,1ST AVE,,,NEW YORK,NY,10128,24000,-73.94781 40.779,-73.94781,40.779
New York,620902,Store,JAC,KSP SUPERMARKET INC,FOOD UNIVERSE MARKETPLA,1486,LEXINGTON AVE,,,NEW YORK,NY,10128,14000,-73.9511 40.78563,-73.9511,40.78563
New York,620877,Store,A,32ND STREET 99 & CORP,JACKS 99,110,W 32ND ST,,,NEW YORK,NY,10001,20000,-73.98942 40.74881,-73.98942,40.74881
New York,620836,Store,JAC,LIBERATO GROCERY INC,LIBERATO FOOD MARKET,359,AUDUBON AVE,,,NEW YORK,NY,10033,6000,-73.93152 40.84986,-73.93152,40.84986
New York,620681,Store,JAC,AMISH MANHATTAN FARMERS MKT INC,AMISH MARKET,731,9TH AVE,,,NEW YORK,NY,10019,20000,-73.98916 40.76319,-73.98916,40.76319
New York,620528,Store,JAC,ORANGE & WHITE MARKETS INC,MORTON WILLIAMS SUPRMKT,1565,1ST AVE,,,NEW YORK,NY,10028,8800,-73.96467 40.75594,-73.96467,40.75594
New York,620463,Store,JAC,TRIBECA VILLAGE FARM INC,MORGANS MARKET,13,HUDSON ST,,,NEW YORK,NY,10013,5000,-74.00918 40.71635,-74.00918,40.71635
New York,620450,Store,JAC,2330 MEAT&PRODUCE CORP,FINE FARE SUPERMARKET,2330,1ST AVE,,,NEW YORK,NY,10035,14500,-73.93378 40.79825,-73.93378,40.79825
New York,620432,Store,JAC,GRAY&WHITE MARKETS INC,MORTON WILLIAMS SUPERMA,908,2ND AVE,,,NEW YORK,NY,10017,12000,-73.96922 40.75394,-73.96922,40.75394
New York,620382,Store,JABC,ZABARS & CO INC,ZABARS,2245,BROADWAY,,,NEW YORK,NY,10024,15000,-73.97939 40.78478,-73.97939,40.78478
New York,620363,Store,A,ODD JOB TRADING INC,ODD JOB TRADING,140,W 32ND ST,,,NEW YORK,NY,10001,100000,-73.99018 40.74914,-73.99018,40.74914
New York,620204,Store,JACDK,PIEMONTE HOME MADE RAVIOLI CO INC,PIEMONTE HOMEMD RAVIOLI,190,GRAND ST,,,NEW YORK,NY,10013,8000,-73.99711 40.71926,-73.99711,40.71926
New York,620134,Store,JAC,545 GRAND FOOD CORP,FINE FARE SUPERMARKET,545,GRAND ST,,,NEW YORK,NY,10002,20000,-73.98068 40.71418,-73.98068,40.71418
Kings,619984,Store,JAC,786 FLATBUSH FOOD CORP,KEY FOOD,786,FLATBUSH AVENUE,,,BROOKLYN,NY,11226,7000,-73.95947 40.65365,-73.95947,40.65365
Kings,619960,Store,JAC,JD 840 EAST NEW YORK FOOD CORP,IDEAL FOOD BASKET,840,E NEW YORK AVE,,,BROOKLYN,NY,11203,16000,-73.93493 40.66253,-73.93493,40.66253
Kings,619700,Store,JAC,BETTER CLASS FOODS INC,PEOPLES CHOICE,41,BELMONT AVE,,,BROOKLYN,NY,11212,30000,-73.90891 40.66866,-73.90891,40.66866
Kings,619698,Store,JABC,BJS WHOLESALE CLUB INC,BJS WHOLESALE CLUB 204,8719,AVENUE D,,,BROOKLYN,NY,11236,100000,-73.9131 40.64501,-73.9131,40.64501
Kings,619696,Store,JABC,2720 CHURCH GROCERY CORP,SHOP FAIR SUPERMARKET,2720,CHURCH AVE,,,BROOKLYN,NY,11226,10000,-73.95173 40.65071,-73.95173,40.65071
Kings,619689,Store,JAC,PICK QUICK FOODS INC,KEY FOOD 16,4320,5TH AVE,,,BROOKLYN,NY,11232,20000,-74.00671 40.64856,-74.00671,40.64856
Kings,619516,Store,JAC,KAJ MEAT CORP,IDEAL FOOD BASKET,631,GATES AVE,,,BROOKLYN,NY,11221,6000,-73.94151 40.68723,-73.94151,40.68723
Kings,619500,Store,JAC,SNL MEAT&PRODUCE CORP,KEY FOOD 1588,599,AVENUE Z,,,BROOKLYN,NY,11223,20000,-73.97186 40.58669,-73.97186,40.58669
Kings,619479,Store,JABC,8772 MEAT CORP,KEY FOOD 1160,8772,18TH AVE,,,BROOKLYN,NY,11214,20000,-74.00634 40.6037,-74.00634,40.6037
Kings,619455,Store,JABC,EMPIRE SUPERMARKET INC,KEY FOOD 1368,2066,ROCKAWAY PKWY,,,BROOKLYN,NY,11236,200000,-73.88879 40.6326,-73.88879,40.6326
Kings,619451,Store,JAC,159-MP CORP,FOODTOWN,159,N 3RD ST,,,BROOKLYN,NY,11211,9000,-73.95963 40.71526,-73.95963,40.71526
Kings,619438,Store,JABC,AL-LID FOOD CORP,KEY FOOD 1290,2326,NOSTRAND AVE,,,BROOKLYN,NY,11210,18000,-73.94704 40.62778,-73.94704,40.62778
Kings,619358,Store,JAC,GALA APPLE INTERNATIONAL INC,GALA APPLE INTL,4112,18TH AVE,,,BROOKLYN,NY,11218,20000,-73.97485 40.63182,-73.97485,40.63182
Kings,619307,Store,JAC,GREEN ACRES FARMS INC,GREEN ACRES FARMS,1160,UTICA AVE,,,BROOKLYN,NY,11203,8000,-73.92957 40.64412,-73.92957,40.64412
Kings,619274,Store,JABCK,J&R WYCKOFF CORP,KEYFOOD,72,WYCKOFF AVE,,,BROOKLYN,NY,11237,12000,-73.92018 40.7049,-73.92018,40.7049
Kings,619272,Store,JAC,PEAS&PICKLES FARM CORP,PEAS&PICKLES FARM,45-55,WASHINGTON ST,,,BROOKLYN,NY,11201,5700,-73.98963 40.70292,-73.98963,40.70292
Kings,619209,Store,JABC,TAPPS SUPERMARKET INC,KEY FOOD 1154,2245,GERRITSEN AVE,,,BROOKLYN,NY,11229,10000,-73.9344 40.60113,-73.9344,40.60113
Kings,619083,Store,JAC,NOSTRAND MEAT CORP,MEAT PLACE THE,1889-95,NOSTRAND AVE,,,BROOKLYN,NY,11226,10000,-73.94834 40.6394,-73.94834,40.6394
Kings,619075,Store,JAC,261 FOOD CORP,FINE FARE SUPERMARKET,261,KINGSTON AVE,,,BROOKLYN,NY,11213,5000,-73.94205 40.67075,-73.94205,40.67075
Kings,619063,Store,JABC,TRANQUILO FOOD CORP,IDEAL FOOD BASKET,1410,ST JOHNS PLACE,,,BROOKLYN,NY,11213,10000,-73.93155 40.67061,-73.93155,40.67061
Kings,619061,Store,JAC,VECERRO FOOD CORP,IDEAL FOOD BASKET,4806,CHURCH AVE,,,BROOKLYN,NY,11203,16000,-73.93214 40.65165,-73.93214,40.65165
Kings,619045,Store,JABC,NET COST 18TH AVENUE LLC,NET COST MARKET,8671,18TH AVE,,,BROOKLYN,NY,11214,14000,-74.00416 40.60582,-74.00416,40.60582
Kings,619012,Store,JAC,CHEFS CHOICE CASH&CARRY FD DT INC,CHEFS CHOICE CASH&CARRY,1051,UTICA AVE,,,BROOKLYN,NY,11203,23500,-73.92989 40.64722,-73.92989,40.64722
Kings,618981,Store,JAC,EAST 93RD ST FOOD CORP,BRAVO SUPERMARKET,80,E 93RD ST,,,BROOKLYN,NY,11212,5000,-73.92717 40.66265,-73.92717,40.66265
Kings,618921,Store,JAC,ROYAL SEAFOOD MARKET INC,NET COST MARKET,2339,65TH ST,,,BROOKLYN,NY,11204,8000,-73.97819 40.61189,-73.97819,40.61189
Kings,618861,Store,JACDHK,BEDESSEE IMPORTS INC,BEDESSEE CARIBBEAN FOOD,601,WORTMAN AVE,,,BROOKLYN,NY,11208,45000,-73.87159 40.66267,-73.87159,40.66267
Kings,618756,Store,JAC,GALLINA MEAT CORP,IDEAL FOOD BASKET,2036,BEDFORD AVE,,,BROOKLYN,NY,11226,6000,-73.95626 40.65476,-73.95626,40.65476
Kings,618747,Store,JAC,CHERRY VALLEY MARKET PLACE,CHERRY VALLEY MARKET,925,CRESCENT ST,,,BROOKLYN,NY,11208,10500,-73.86738 40.66481,-73.86738,40.66481
Kings,618704,Store,JAC,639 GRAND ST MT&PRODUCE CORP,OZZIE'S FRESHMARKET,639,GRAND ST,,,BROOKLYN,NY,11211,6000,-73.94652 40.71139,-73.94652,40.71139
Kings,618695,Store,JACDK,KUN KEE TRADING INC,KUN KEE TRADING,157,MORGAN AVE,,,BROOKLYN,NY,11237,5000,-73.93311 40.70959,-73.93311,40.70959
Kings,618601,Store,JABC,LA RANA MEAT CORP,IDEAL FOOD BASKET,1871,ROCKAWAY PKWY,,,BROOKLYN,NY,11236,32000,-73.89237 40.63689,-73.89237,40.63689
Kings,618476,Store,JAC,2257 EAST 16 CORP,NET COST MARKET,2257,E 16TH ST,,,BROOKLYN,NY,11229,6000,-73.95482 40.59542,-73.95482,40.59542
Kings,618360,Store,JAC,AS FULTON FOOD CORP,BRAVO SUPERMARKET,1299,FULTON ST,,,BROOKLYN,NY,11216,5000,-73.94926 40.68037,-73.94926,40.68037
Kings,618319,Store,JAC,SWEET-NES ENTERPRISE INC,SWEET-NES ENTERPRISE,5414,NEW UTRECHT AVE,,,BROOKLYN,NY,11219,11000,-73.99535 40.63205,-73.99535,40.63205
Kings,618272,Store,JAC,PERALTA-BUENO CORP,ASSOCIATED,2578-80,PITKIN AVE,,,BROOKLYN,NY,11208,6000,-73.87693 40.67469,-73.87693,40.67469
Kings,618268,Store,JAC,ALMONTE MILL FOOD CORP,KEY FOOD,6620,AVENUE U,,,BROOKLYN,NY,11234,10000,-73.90982 40.61714,-73.90982,40.61714
Kings,618231,Store,JACK,PREPARATE CORP,ASSOCIATED SUPERMARKET,1888,FULTON ST,,,BROOKLYN,NY,11233,10000,-73.92378 40.67899,-73.92378,40.67899
Kings,618214,Store,JAC,PARK NATURAL & ORGANIC PRODUCE IN,PARK HEALTH FOODS,350,COURT ST,,,BROOKLYN,NY,11231,6000,-73.99595 40.68223,-73.99595,40.68223
Kings,618083,Store,JAC,MOUNTAIN FRUIT OF AVE M INC,MOUNTAIN FRUIT,1523,AVENUE M,,,BROOKLYN,NY,11230,10500,-73.95923 40.6181,-73.95923,40.6181
Kings,618070,Store,JAC,TARGET CORPORATION,TARGET 1401,519,GATEWAY DR,,,BROOKLYN,NY,11239,123000,-73.86944 40.6527,-73.86944,40.6527
Kings,617894,Store,JAC,CHERRY HILL GOURMET INC,CHERRY HILL GOURMET,1901,EMMONS AVE,,,BROOKLYN,NY,11235,12000,-73.94917 40.58413,-73.94917,40.58413
Kings,617866,Store,JAC,602 PRODUCE & MEAT CORP,FINE FARE,602,LIVONIA AVE,,,BROOKLYN,NY,11207,5800,-73.89489 40.66462,-73.89489,40.66462
Kings,617837,Store,JAC,SEA TOWN BROOKLYN LLC,SEA TOWN FISH&MEAT MKT,328,LINDEN ST,,,BROOKLYN,NY,11237,6000,-73.91386 40.69905,-73.91386,40.69905
Kings,617812,Store,JAC,IMMORTAL RISE INC,C TOWN 41484,4705,5TH AVE,,,BROOKLYN,NY,11220,5000,-74.00874 40.64662,-74.00874,40.64662
Kings,617749,Store,JAC,KARI MEAT CORP,AMERICAS FOOD BASKET,2220,ATLANTIC AVE,,,BROOKLYN,NY,11233,6000,-73.91211 40.67617,-73.91211,40.67617
Kings,617731,Store,JAC,LA CANA FOOD CORP,C TOWN,346,CENTRAL AVE,,,BROOKLYN,NY,11221,6500,-73.91965 40.69495,-73.91965,40.69495
Kings,617723,Store,JABCH,PASTA FRESCA AND RAVIOLI CORP,PASTA FRESCA,6406,11TH AVE,,,BROOKLYN,NY,11219,5000,-74.00545 40.62909,-74.00545,40.62909
Kings,617700,Store,JAC,RED APPLE TREE INC,KEY FOOD,169,ATLANTIC AVE,,,BROOKLYN,NY,11201,7500,-73.9941 40.69016,-73.9941,40.69016
Kings,617646,Store,JAC,VACA MEAT CORP,IDEAL FOOD BASKET,830,LAFAYETTE AVE,,,BROOKLYN,NY,11221,8000,-73.93953 40.69122,-73.93953,40.69122
Kings,617589,Store,JAC,NAMDOR INC,GRISTEDES 544,101,CLARK ST,,,BROOKLYN,NY,11201,8000,-73.9922 40.69725,-73.9922,40.69725
Kings,617548,Store,JAC,ALEXAS FOOD CORP,STEVES C TOWN 041010,329,9TH ST,,,BROOKLYN,NY,11215,13000,-73.9854 40.66875,-73.9854,40.66875
Kings,617435,Store,JABCH,NEW YORK BREAD INC,NEW YORK BREAD,2201,NEPTUNE AVE,,,BROOKLYN,NY,11224,5000,-73.98972 40.57845,-73.98972,40.57845
Kings,617416,Store,JAC,1966 K FOOD LLC,FOODTOWN #603,1958,RALPH AVE,,,BROOKLYN,NY,11234,10000,-73.91866 40.62973,-73.91866,40.62973
Kings,617379,Store,JAC,GOURMET BOUTIQUE OF NY LLC,GOURMET BOUTIQUE OF NY,3688,NOSTRAND AVE,,,BROOKLYN,NY,11229,6400,-73.94065 40.59407,-73.94065,40.59407
Kings,617192,Store,JAC,CHANG FA FOOD MARKET INC,CHANG FA FOOD MARKET,1418,AVENUE U,,,BROOKLYN,NY,11229,6000,-73.95672 40.59879,-73.95672,40.59879
Kings,617124,Store,JABC,MATLYN FOODS INC,KEY FOOD 1072,102,MONTAGUE ST,,,BROOKLYN,NY,11201,10000,-73.99536 40.69508,-73.99536,40.69508
Kings,617034,Store,JAC,ROSSMAN FRUIT&VEGT DIST INC,ROSSMAN FARMS,770,3RD AVE,,,BROOKLYN,NY,11232,15000,-74.00054 40.66137,-74.00054,40.66137
Kings,616973,Store,JAC,YIDEL'S FRESH FOOD STATION LLC,YIDELS SHOPPING CART,4921,12TH AVE,,,BROOKLYN,NY,11219,7200,-73.99478 40.63595,-73.99478,40.63595
Kings,616819,Store,JABC,FPL FOODS INC,C TOWN-LA BELLA MKTPLC,7907,13TH AVE,,,BROOKLYN,NY,11228,12000,-74.00997 40.61785,-74.00997,40.61785
Kings,616805,Store,JAC,CHARLES SCATURRO&SONS INC,SCATURRO,6301,11TH AVE,,,BROOKLYN,NY,11219,10000,-74.00501 40.62952,-74.00501,40.62952
Kings,616785,Store,JAC,331 EUSEBIO FOOD CORP,BRAVO SUPERMARKET,331,MYRTLE AVE,,,BROOKLYN,NY,11205,10000,-73.97371 40.69327,-73.97371,40.69327
Kings,616705,Store,JAC,953 MANHATTAN FOOD CORP,C TOWN SUPERMARKET,953,MANHATTAN AVE,,,BROOKLYN,NY,11222,12000,-73.95453 40.73182,-73.95453,40.73182
Kings,616669,Store,JAC,AVE D FINEST MEAT CORP,BROOKLYN #2 MEAT MARKET,4212,AVENUE D,,,BROOKLYN,NY,11203,6000,-73.93661 40.6417,-73.93661,40.6417
Kings,616666,Store,JABC,BJS WHOLESALE CLUB INC,BJS WHOLESALE CLUB 138,339,GATEWAY DR,,,BROOKLYN,NY,11239,127000,-73.87377 40.65055,-73.87377,40.65055
Kings,616640,Store,JAC,JB 366 FOOD CORP,BRAVO SUPERMARKET,366,NEW LOTS AVE,,,BROOKLYN,NY,11207,5000,-73.89351 40.66166,-73.89351,40.66166
Kings,616589,Store,JAC,DHY SONAMOO LLC,KEY FOOD,9530,CHURCH AVE,,,BROOKLYN,NY,11212,25000,-73.91559 40.65562,-73.91559,40.65562
Kings,616466,Store,JAC,AMIS FOOD LLC,KEY FOOD 1370,651,NOSTRAND AVE.,,,BROOKLYN,NY,11216,40000,-73.95003 40.6748,-73.95003,40.6748
Kings,616458,Store,JAC,486 HENRY STREET SUPERMARKET INC,KEY FOODS 180,486,HENRY ST,,,BROOKLYN,NY,11231,5000,-73.99921 40.68453,-73.99921,40.68453
Kings,616424,Store,JAC,82 FOOD CORP,82 FOOD,800,ROCKAWAY AVE,,,BROOKLYN,NY,11212,8000,-73.90825 40.65993,-73.90825,40.65993
Kings,616356,Store,JAC,KHIMS MILLENNIUM MARKET VI INC,KHIMS MILLENNIUM MARKET,460,DRIGGS AVE,,,BROOKLYN,NY,11211,7000,-73.95424 40.71908,-73.95424,40.71908
Kings,616354,Store,JAC,KOSHER GARDEN INC THE,POMEGRANATE,1507,CONEY ISLAND AVE,,,BROOKLYN,NY,11230,18000,-73.96439 40.6207,-73.96439,40.6207
Kings,616352,Store,JABC,ALMONTE HEIGHTS FOOD CORP,FOOD DYNASTY,1525,86TH ST,,,BROOKLYN,NY,11228,10000,-74.00877 40.61116,-74.00877,40.61116
Kings,616349,Store,JAC,TARGET CORP,TARGET 1849,139,FLATBUSH AVE,,,BROOKLYN,NY,11217,15000,-73.97769 40.68438,-73.97769,40.68438
Kings,616244,Store,JAC,BOGOPA ST JOHNS INC,FOOD BAZAAR,1682,ST JOHNS PL,,,BROOKLYN,NY,11233,18000,-73.92155 40.67008,-73.92155,40.67008
Kings,616175,Store,A,P&P (USA)INC,P&P (USA),2094,ROCKAWAY PARKWAY,,,BROOKLYN,NY,11236,6000,-73.88767 40.63189,-73.88767,40.63189
Kings,616150,Store,JAC,FR-ES PRODUCE INC,CHERRY VALLEY MARKET,381,MOTHER GASTON BLVD,,,BROOKLYN,NY,11212,20000,-73.90688 40.66963,-73.90688,40.66963
Kings,616111,Store,JAC,RUTLAND MEAT & PRODUCE CORP,FOOD UNIVERSE,1036,RUTLAND RD,,,BROOKLYN,NY,11212,5000,-73.92529 40.66338,-73.92529,40.66338
Kings,616021,Store,JAC,GOLDEN KEY 2 CORP,GOLDEN KEY,1067,BRIGHTON BEACH AVE,,,BROOKLYN,NY,11235,5000,-73.95764 40.57821,-73.95764,40.57821
Kings,615991,Store,JABCD,GARRIDO FOOD CORP,IDEAL SUPERMARKET,1086,BROOKLYN AVE,,,BROOKLYN,NY,11203,10000,-73.94337 40.6471,-73.94337,40.6471
Kings,615921,Store,JABCK,COSTCO WHOLESALE CORP,COSTCO WHOLESALE 318,976,3RD AVE,,,BROOKLYN,NY,11232,143000,-74.00731 40.65489,-74.00731,40.65489
Kings,615920,Store,JAC,BOGOPA JUNIUS INC,FOOD BAZAAR,417,JUNIUS ST,,,BROOKLYN,NY,11212,47000,-73.90159 40.6643,-73.90159,40.6643
Kings,615873,Store,JABC,PICK QUICK FOODS INC,KEY FOOD 15,7000,NEW UTRECHT AVE,,,BROOKLYN,NY,11228,20000,-73.99882 40.61973,-73.99882,40.61973
Kings,615851,Store,JAC,FRANKLIN AVENUE MEAT CORP,FOODTOWN OF CROWN HEIGH,905-13,FRANKLIN AVE,,,BROOKLYN,NY,11225,9000,-73.95905 40.66768,-73.95905,40.66768
Kings,615720,Store,JAC,MERMAID MEAT CORP,FINE FARE,2901,MERMAID AVE,,,BROOKLYN,NY,11224,20000,-73.99591 40.57542,-73.99591,40.57542
Kings,615640,Store,JAC,PARK SLOPE FOOD COOP INC,PARK SLOPE FOOD COOP,782,UNION ST,,,BROOKLYN,NY,11215,12000,-73.97669 40.67494,-73.97669,40.67494
Kings,615589,Store,JABC,382 MCDONALD LLC,FOODTOWN #589,382,MCDONALD AVE,,,BROOKLYN,NY,11218,12000,-73.9798 40.64471,-73.9798,40.64471
Kings,615567,Store,JAC,ALYAMANI GROCERY INC,MARINELLOS,114,WYCKOFF AVE,,,BROOKLYN,NY,11237,7000,-73.91839 40.70378,-73.91839,40.70378
Kings,615555,Store,JAC,RANIA FOOD CORP,C TOWN,7924,FLATLANDS AVE,,,BROOKLYN,NY,11236,10000,-73.91352 40.63536,-73.91352,40.63536
Kings,615496,Store,JACHK,AA PASTOSA LLC,PASTOSA RAVIOLI,7425,NEW UTRECHT AVE,,,BROOKLYN,NY,11204,6000,-73.99991 40.61591,-73.99991,40.61591
Kings,615471,Store,JACD,GITTO&SONS HEALTH FOOD INC,GITTO&SONS HEALTH FOOD,38-40,BROOKLYN TERMINAL MKT,,,BROOKLYN,NY,11236,6500,-73.91737 40.64149,-73.91737,40.64149
Kings,615412,Store,JAC,BC FOOD CORP,BROOKLYN FARE,200,SCHERMERHORN ST,,,BROOKLYN,NY,11201,8000,-73.98557 40.68879,-73.98557,40.68879
Kings,615251,Store,A,M&S BARGAIN HUNTER CORP,BARGAIN HUNTER #9,500,ROCKAWAY AVE,,,BROOKLYN,NY,11212,18000,-73.91024 40.66778,-73.91024,40.66778
Kings,615228,Store,JAC,CHIVO MEAT CORP,IDEAL FOOD BASKET,720,WASHINGTON AVE,,,BROOKLYN,NY,11238,7000,-73.96345 40.67617,-73.96345,40.67617
Kings,615053,Store,JAC,SEATIDE GOURMET INC,SEATIDE GOURMET,5914,AVENUE N,,,BROOKLYN,NY,11234,5000,-73.91768 40.61952,-73.91768,40.61952
Kings,615048,Store,JAC,RAINBOW PAPER SALES INC,PAPERIFIC,1465,38TH ST,,,BROOKLYN,NY,11218,15000,-73.98181 40.63882,-73.98181,40.63882
Kings,615012,Store,JACHK,QUEEN ANN MACARONI MFG CO INC,QUEEN ANN RAVIOLI,7205,18TH AVE,,,BROOKLYN,NY,11204,6000,-73.99439 40.61495,-73.99439,40.61495
Kings,614896,Store,JAC,GSA KING TOMATO FARM INC,KING TOMATO,1140,MCDONALD AVE,,,BROOKLYN,NY,11230,5000,-73.97611 40.62525,-73.97611,40.62525
Kings,614817,Store,JAC,OLD WILLIAMSBURG FOOD INC,FRANKELS KOSHER MARKET,192,CLYMER ST,,,BROOKLYN,NY,11211,5000,-73.96243 40.70733,-73.96243,40.70733
Kings,614807,Store,JACD,RAINBOW PAPER SALES INC,PAPERIFIC,1482,CONEY ISLAND AVE,,,BROOKLYN,NY,11230,15000,-73.96453 40.62139,-73.96453,40.62139
Kings,614757,Store,A,OJDT INC,CLOSE OUT CONNECTION,50,COURT ST,,,BROOKLYN,NY,11201,5000,-73.99109 40.69236,-73.99109,40.69236
Kings,614722,Store,JACDHK,D COLUCCIO & SONS INC,D COLUCCIO & SONS,1214,60TH ST,,,BROOKLYN,NY,11219,100000,-74.00018 40.62983,-74.00018,40.62983
Kings,614625,Store,JAC,208 CRESCENT MEAT&PRODUCE INC,KEY FOOD,208,CRESCENT ST,,,BROOKLYN,NY,11208,12000,-73.87235 40.6843,-73.87235,40.6843
Kings,614587,Store,JAC,16TH ST COOPERATIVE CORP,FLATBUSH FOOD COOP,1415,CORTELYOU RD,,,BROOKLYN,NY,11226,6000,-73.96463 40.64111,-73.96463,40.64111
Kings,614478,Store,JAC,JUNCALITO ABAJO MEAT CORP,CITY FRESH MARKET,1380,PENNSYLVANIA AVE,,,BROOKLYN,NY,11239,35000,-73.88181 40.64778,-73.88181,40.64778
Kings,614387,Store,JAC,200 MALCOLM X MEAT CORP,KEY FOOD 1206,200,MALCOLM X BLVD,,,BROOKLYN,NY,11221,8000,-73.92978 40.68655,-73.92978,40.68655
Kings,614386,Store,JACK,GIORGIO SHELLFISH CORP,JORDANS LOBSTER DOCK,3165,HARKNESS AVE,,,BROOKLYN,NY,11235,6000,-73.92907 40.58657,-73.92907,40.58657
Kings,614312,Store,JAC,NEPTUNE FOOD CORP,KEY FOOD 1280,505,NEPTUNE AVE,,,BROOKLYN,NY,11224,10700,-73.97235 40.57988,-73.97235,40.57988
Kings,614265,Store,JABC,STOP&SHOP SUPERMARKET CO LLC THE,STOP&SHOP 505,1710,AVENUE Y,,,BROOKLYN,NY,11235,56000,-73.95253 40.58992,-73.95253,40.58992
Kings,614264,Store,JAC,CONCORD MARKET CORP,CONCORD MARKET,91,TILLARY ST,,,BROOKLYN,NY,11201,6000,-73.98701 40.69621,-73.98701,40.69621
Kings,614234,Store,JAC,242 BAYRIDGE MEAT CORP,SUPER FRESH SUPERMARKET,242,BAY RIDGE AVE,,,BROOKLYN,NY,11220,25000,-74.0274 40.63614,-74.0274,40.63614
Kings,614216,Store,JABC,BILLY BOY FOOD CORP,C-TOWN,130,HAVEMEYER ST,,,BROOKLYN,NY,11211,10000,-73.95707 40.71233,-73.95707,40.71233
Kings,614135,Store,JACH,MR CHOCOLATE.COM LLC,JACQUES TORRES CHOCOLAT,66,WATER ST,,,BROOKLYN,NY,11201,5000,-73.99145 40.70329,-73.99145,40.70329
Kings,614064,Store,JAC,ASMAX FOOD INC,ASMAX FOOD,7721,FLATLANDS AVE,,,BROOKLYN,NY,11236,5000,-73.91494 40.63443,-73.91494,40.63443
Kings,614049,Store,JAC,L&S 5311 FOOD CORP,CTOWN,5311,CHURCH AVE,,,BROOKLYN,NY,11203,8000,-73.92701 40.65236,-73.92701,40.65236
Kings,614044,Store,JABC,MANDELL FOOD STORES INC,KEY FOOD 890,130,7TH AVE,,,BROOKLYN,NY,11215,12000,-73.97647 40.67299,-73.97647,40.67299
Kings,614000,Store,JAC,1420 FOOD LLC,FOODTOWN #602,1420,FULTON ST,,,BROOKLYN,NY,11216,30000,-73.94418 40.68009,-73.94418,40.68009
Kings,613991,Store,JAC,PAPA PASQUALE RAVIOLI&PSTA CO INC,PAPA PASQUALE RAVIOLI&P,7817,15TH AVE,,,BROOKLYN,NY,11228,6000,-74.00521 40.61554,-74.00521,40.61554
Kings,613927,Store,JAC,131 DRIGGS AVENUE SUPERMARKET INC,MET FOODS,131,DRIGGS AVE,,,BROOKLYN,NY,11222,7500,-73.94384 40.72311,-73.94384,40.72311
Kings,613775,Store,JAC,PAK O AVENUE CORP,FOOD UNIVERSE MARKET PL,97,AVENUE O,,,BROOKLYN,NY,11204,5000,-73.98138 40.61051,-73.98138,40.61051
Kings,613759,Store,JAC,E&W FOOD CORP,CENTRAL MARKET,50,DIVISION AVE,,,BROOKLYN,NY,11249,12000,-73.96675 40.7071,-73.96675,40.7071
Kings,613718,Store,JAM,METROP COUNCIL ON JEWISH POVERTY,METROP COUNCIL,5361,PRESTON CT,,,BROOKLYN,NY,11234,10000,-73.92358 40.63858,-73.92358,40.63858
Kings,613640,Store,JAC,M&M MEAT&PRODUCE II CORP,C TOWN,760,4TH AVE,,,BROOKLYN,NY,11232,5000,-73.99819 40.66039,-73.99819,40.66039
Kings,613613,Store,JAC,16TH AVE FOOD CORP,MITTELMAN FOOD CENTER,5024,16TH AVE,,,BROOKLYN,NY,11204,5000,-73.98658 40.63,-73.98658,40.63
Kings,613450,Store,JAC,POLMOST FOOD CORP,ASSOCIATED 831,802,MANHATTAN AVE,,,BROOKLYN,NY,11222,10500,-73.95317 40.72794,-73.95317,40.72794
Kings,613359,Store,A,JC USA INC,JENNY CRAIG WEIGHT LOSS,2139,RALPH AVE,,,BROOKLYN,NY,11234,5000,-73.91792 40.62566,-73.91792,40.62566
Kings,613323,Store,JAC,JD 710 FOOD CORP,IDEAL FOOD BASKET SUPER,710,CONEY ISLAND AVE,,,BROOKLYN,NY,11218,20000,-73.96912 40.64037,-73.96912,40.64037
Kings,613302,Store,JAC,NYC SHOPRITE ASSOCIATES INC,SHOPRITE OF AVENUE I,1080,MCDONALD AVE,,,BROOKLYN,NY,11230,70000,-73.97639 40.62672,-73.97639,40.62672
Kings,613269,Store,JAC,1967 FLATBUSH FOOD CORP,IDEAL FOOD BASKET,1967,FLATBUSH AVE,,,BROOKLYN,NY,11234,6000,-73.93595 40.62175,-73.93595,40.62175
Kings,613257,Store,JAC,DAF FOOD CORP,BRAVO SUPERMARKET,991,BEDFORD AVE,,,BROOKLYN,NY,11205,5000,-73.95524 40.69003,-73.95524,40.69003
Kings,613233,Store,JABC,SUNAC FOOD CORP,SUNAC FOOD,440-446,UNION AVE,,,BROOKLYN,NY,11211,5000,-73.95156 40.71362,-73.95156,40.71362
Kings,613180,Store,JAC,FRESH SUPERMARKET,C TOWN,1176,LIBERTY AVE,,,BROOKLYN,NY,11208,6000,-73.86575 40.67888,-73.86575,40.67888
Kings,613032,Store,JAC,D&L FOOD CORP,C TOWN 202,239,BOND ST,,,BROOKLYN,NY,11217,6000,-73.9881 40.68212,-73.9881,40.68212
Kings,613005,Store,JAC,B&F MARKET INC,MET FOOD,1205-1215,SUTTER AVE,,,BROOKLYN,NY,11208,10000,-73.87297 40.67261,-73.87297,40.67261
Kings,612805,Store,JAC,CHINESE CHECKERS INC,ONE STOP KOSHER,98,RUTLEDGE ST,,,BROOKLYN,NY,11249,10000,-73.95884 40.70089,-73.95884,40.70089
Kings,612775,Store,JACK,ALMONTE PLAZA FOOD CORP,FINE FARE,675,LINCOLN AVE,,,BROOKLYN,NY,11208,8000,-73.86641 40.6726,-73.86641,40.6726
Kings,612750,Store,JAD,LEMBERG ENTERPRISES INC,THE BEER CASTLE,854,RALPH AVE,,,BROOKLYN,NY,11236,8000,-73.92086 40.65329,-73.92086,40.65329
Kings,612673,Store,JAC,TARGET CORP,TARGET 2212,1598,FLATBUSH AVE,,,BROOKLYN,NY,11210,230000,-73.94637 40.63161,-73.94637,40.63161
Kings,612583,Store,JAC,WESTERN BEEF RETAIL INC,WESTERN BEEF,814,JAMAICA AVE,,,BROOKLYN,NY,11208,10000,-73.87477 40.68896,-73.87477,40.68896
Kings,612449,Store,JAC,BAYFRUIT CORP,SHEEPSHD BAY FR&VEG MKT,1717,AVENUE Z,,,BROOKLYN,NY,11235,13000,-73.95174 40.58826,-73.95174,40.58826
Kings,612435,Store,A,CATON FOOD MARKET INC,99 CENTURY,780,FLATBUSH AVE,,,BROOKLYN,NY,11226,6000,-73.9595 40.6538,-73.9595,40.6538
Kings,612364,Store,JABC,1115 PENNSYLVANIA MEAT CORP,CHERRYVALLEYMARKETPLACE,1115,PENNSYLVANIA AVE,,,BROOKLYN,NY,11207,18000,-73.88669 40.65369,-73.88669,40.65369
Kings,612307,Store,JACK,BOGOPA INC,FOOD BAZAAR,17-59,RIDGEWOOD PL,,,BROOKLYN,NY,11237,35000,-73.91152 40.69863,-73.91152,40.69863
Kings,612227,Store,JAC,EMPIRE SUPERMARKET INC,KEY FOOD 1314,1804,RALPH AVE,,,BROOKLYN,NY,11236,12500,-73.91872 40.63315,-73.91872,40.63315
Kings,612211,Store,JAC,FEI LONG MARKET INC,FEI LONG MARKET,6301,8TH AVE,,,BROOKLYN,NY,11220,22000,-74.01169 40.63344,-74.01169,40.63344
Kings,612165,Store,JAC,F&G SUPERMARKET CORP,C TOWN,2807,86TH ST,,,BROOKLYN,NY,11223,7000,-73.97874 40.59281,-73.97874,40.59281
Kings,612088,Store,JAC,ALMOND FRUIT CORP,IDEAL FOOD BASKET,1488,PITKIN AVE,,,BROOKLYN,NY,11212,10000,-73.91888 40.66848,-73.91888,40.66848
Kings,611943,Store,JAC,PARK SLOPE FOOD & MARKET CORP,ASSOCIATED,216,5TH AVE,,,BROOKLYN,NY,11215,9000,-73.98068 40.67603,-73.98068,40.67603
Kings,611929,Store,JAC,16TH AVENUE GROCERY INC,EINHORN'S,5222,16TH AVE,,,BROOKLYN,NY,11204,5000,-73.98777 40.62885,-73.98777,40.62885
Kings,611913,Store,JAC,QUICK CHECK FOOD INC,C TOWN,6614,18TH AVE,,,BROOKLYN,NY,11204,10000,-73.99113 40.6182,-73.99113,40.6182
Kings,611814,Store,JAC,JK&K SUPERMARKET INC,KEY FOODS,1610,CORTELYOU RD,,,BROOKLYN,NY,11226,8000,-73.96331 40.64171,-73.96331,40.64171
Kings,611801,Store,JABC,991 FULTON STREET MEAT CORP,KEY FOOD,991,FULTON ST,,,BROOKLYN,NY,11238,10000,-73.96326 40.68272,-73.96326,40.68272
Kings,611627,Store,JAC,1188 FLATBUSH MEAT&PRODUCE INC,FOOD UNIVERSE,1188,FLATBUSH AVE,,,BROOKLYN,NY,11226,10000,-73.95647 40.64135,-73.95647,40.64135
Kings,611589,Store,JAC,WESTERN BEEF RETAIL INC,WESTERN BEEF 39,44,EMPIRE BLVD,,,BROOKLYN,NY,11225,42000,-73.96051 40.66331,-73.96051,40.66331
Kings,611526,Store,JAC,HAJAR INC,KEY FOOD 1260,1905,NOSTRAND AVE,,,BROOKLYN,NY,11226,8000,-73.94831 40.63913,-73.94831,40.63913
Kings,611460,Store,JAC,CHERRY HILL MARKET MGT LLC,CHERRY HILL MARKET,2284,86TH ST,,,BROOKLYN,NY,11214,6000,-73.9918 40.60067,-73.9918,40.60067
Kings,611158,Store,A,BROOKLYN BOYS GROCERY INC,MUNDO SUPERMARKET,1815,CHURCH AVE,,,BROOKLYN,NY,11226,5000,-73.96251 40.64967,-73.96251,40.64967
Kings,611142,Store,JAC,597 FOOD CORP,C TOWN,597,E 16TH ST,,,BROOKLYN,NY,11226,5000,-73.96242 40.63563,-73.96242,40.63563
Kings,611124,Store,JAC,319 MEAT MARKET CORP,KEY FOOD,319,KINGS HWY,,,BROOKLYN,NY,11223,10000,-73.97844 40.60496,-73.97844,40.60496
Kings,611105,Store,A,TRADER JOES EAST INC,TRADER JOES 558,130,COURT ST,,,BROOKLYN,NY,11201,16000,-73.99249 40.68948,-73.99249,40.68948
Kings,611095,Store,JAC,BOGOPA MANHATTAN INC,FOOD BAZAAR,21,MANHATTAN AVE.,,,BROOKLYN,NY,11206,54000,-73.94422 40.70307,-73.94422,40.70307
Kings,610967,Store,JAC,T&T FOOD CORP,C TOWN 207,146,E 98TH ST,,,BROOKLYN,NY,11212,7000,-73.92115 40.66341,-73.92115,40.66341
Kings,610963,Store,A,JEMBRO STORES INC,JEMBRO STORES,1260-78,60TH ST,,,BROOKLYN,NY,11219,7000,-73.99921 40.62924,-73.99921,40.62924
Kings,610941,Store,JAC,GOURMET FRESH LLC,GOURMET FRESH,437-439,COURT ST,,,BROOKLYN,NY,11231,8400,-73.99788 40.67824,-73.99788,40.67824
Kings,610912,Store,JAC,4121 CHURCH MEAT CORP,ASSOCIATED,4121,CHURCH AVE,,,BROOKLYN,NY,11203,5800,-73.9383 40.65135,-73.9383,40.65135
Kings,610798,Store,JAC,HB & SON MEAT CORP,MARKETPLACE OF BUSHWICK,1781-1783,BROADWAY,,,BROOKLYN,NY,11207,15000,-73.9094 40.68229,-73.9094,40.68229
Kings,610696,Store,JABC,HESHE&DAVID SUPERMARKET INC,LANDAUS SUPERMARKET,4510,18TH AVE,,,BROOKLYN,NY,11204,12000,-73.97866 40.63004,-73.97866,40.63004
Kings,610640,Store,JAC,PICK QUICK FOODS INC,KEY FOOD 17,224,MCGUINNESS BLVD,,,BROOKLYN,NY,11222,30000,-73.95109 40.72988,-73.95109,40.72988
Kings,610637,Store,JAC,BROTHERS INTL FOOD INC,GOURMET PLAZA,1663-1669,E 13TH ST,,,BROOKLYN,NY,11229,7500,-73.96014 40.60855,-73.96014,40.60855
Kings,610632,Store,JAC,NEW EASTERN II FRUIT&VGTBLES INC,NEW EASTERN II FRT&VGTB,231,NEPTUNE AVE,,,BROOKLYN,NY,11235,5000,-73.9623 40.58145,-73.9623,40.58145
Kings,610629,Store,JABC,WAVERLY MEAT&GROCERY INC,WAVERLY URBAN MARKET,367,WAVERLY AVE,,,BROOKLYN,NY,11238,10000,-73.96663 40.68703,-73.96663,40.68703
Kings,610606,Store,JABC,9105 K FOOD LLC,FOODTOWN #587,9105,3RD AVE,,,BROOKLYN,NY,11209,10500,-74.03248 40.62001,-74.03248,40.62001
Kings,610600,Store,JAC,5009 6TH AVE SUPERMARKET INC,CITY FRESH,5009,6TH AVE,,,BROOKLYN,NY,11220,10000,-74.00837 40.64353,-74.00837,40.64353
Kings,610511,Store,JACDHK,BLUE STAR FOOD&PAPER INC,BLUE STAR FOOD&PAPER,1233,UTICA AVE,,,BROOKLYN,NY,11203,8000,-73.92942 40.64258,-73.92942,40.64258
Kings,610382,Store,JAC,ALMONTE LANDS FOOD CORP,KEY FOOD SUPERMARKET,5101,AVENUE N,,,BROOKLYN,NY,11234,10000,-73.92556 40.61903,-73.92556,40.61903
Kings,610378,Store,JACD,EMBE FOOD DIST INC,EMBE FOOD,1328,39TH ST,,,BROOKLYN,NY,11218,10000,-73.98555 40.64019,-73.98555,40.64019
Kings,610325,Store,JAC,LA ROTONDA MEAT CORP,CITY FRESH MARKET,655,STANLEY AVE,,,BROOKLYN,NY,11207,10000,-73.88422 40.65921,-73.88422,40.65921
Kings,610300,Store,JAC,KIDS AM INC,C TOWN 0255,330,GRAHAM AVE,,,BROOKLYN,NY,11211,5000,-73.94431 40.71409,-73.94431,40.71409
Kings,610289,Store,JAC,MAX BINIK Z L CORP,KRM SUPERMARKET,1325,39TH ST,,,BROOKLYN,NY,11218,10000,-73.98567 40.64026,-73.98567,40.64026
Kings,610124,Store,JAC,DAVID&SONS FOOD CORP,C TOWN,241,TAAFFE PL,,,BROOKLYN,NY,11205,8000,-73.95952 40.69087,-73.95952,40.69087
Kings,610113,Store,JAC,1533 SUPERMARKET INC,KEY FOOD,1533,BROADWAY,,,BROOKLYN,NY,11221,9000,-73.91659 40.68636,-73.91659,40.68636
Kings,610009,Store,JAC,MPM ENTERPRISES COURT STREET INC,UNION MARKET,288,COURT ST,,,BROOKLYN,NY,11231,10000,-73.99498 40.68427,-73.99498,40.68427
Bronx,609927,Store,JAC,R&E CORP,C TOWN,809,SOUTHERN BLVD,,,BRONX,NY,10459,7500,-73.89547 40.81703,-73.89547,40.81703
Bronx,609834,Store,JAC,JSMD FOOD CORP,C TOWN 054,100,HUGH J GRANT CIRCLE,,,BRONX,NY,10472,8000,-73.8609 40.83268,-73.8609,40.83268
Bronx,609624,Store,JAC,99 CENTS FACTORY INC,99 CENTS FACTORY,278,E 149TH ST,,,BRONX,NY,10451,5000,-73.92233 40.8173,-73.92233,40.8173
Bronx,609316,Store,JAC,3462 THIRD AVE FOOD CORP,ASSOCIATE SUPERMARKET,3470,3RD AVE,,,BRONX,NY,10456,14000,-73.90633 40.82998,-73.90633,40.82998
Bronx,609227,Store,JAC,BLUSHAN FOODS LLC,RIVERDALE KOSHER MARKET,5683,RIVERDALE AVE,,,BRONX,NY,10471,12000,-73.90482 40.90667,-73.90482,40.90667
Bronx,609181,Store,JABC,WESTERN BEEF RETAIL INC,WESTERN BEEF 29,2050,WEBSTER AVE,,,BRONX,NY,10457,34000,-73.89854 40.85163,-73.89854,40.85163
Bronx,609146,Store,JAC,FRUITS PROD & GROC CORP,ASSOCIATED,1334,LOUIS NINE BLVD,,,BRONX,NY,10459,17500,-73.89241 40.83169,-73.89241,40.83169
Bronx,608992,Store,JAC,CAGUEYES FOOD CORP,FINE FARE SUPERMARKET,3315,WHITE PLAINS RD,,,BRONX,NY,10467,6000,-73.86714 40.87373,-73.86714,40.87373
Bronx,608943,Store,JAC,PALMA NUEVA FOODS CORP,FOODTOWN SUPERMARKET,3471,BOSTON RD,,,BRONX,NY,10469,15000,-73.84765 40.87662,-73.84765,40.87662
Bronx,608876,Store,JAC,675 MORRIS AVE FOOD CORP,FINE FARE,675,MORRIS AVE,,,BRONX,NY,10451,5000,-73.92126 40.82076,-73.92126,40.82076
Bronx,608780,Store,JABC,LYDIG FOOD CORP,KEY FOOD SUPERMARKET,751,LYDIG AVE,,,BRONX,NY,10462,14000,-73.86547 40.85445,-73.86547,40.85445
Bronx,608755,Store,JAC,3035 WHITE PLAINS FOOD CORP,PIONEER SUPERMARKET,3035,WHITE PLAINS RD,,,BRONX,NY,10467,17000,-73.86718 40.87029,-73.86718,40.87029
Bronx,608637,Store,JABC,BELFIORE FOOD CORP,BONAVITA KEY FOOD 1329,4171,WHITE PLAINS RD,,,BRONX,NY,10466,24000,-73.85765 40.89298,-73.85765,40.89298
Bronx,608592,Store,JAC,LOS PINOS FOOD CORP,FOOD UNIVERSE MARKET PL,148,E BURNSIDE AVE,,,BRONX,NY,10453,8000,-73.90443 40.85267,-73.90443,40.85267
Bronx,608572,Store,JAC,TREMONT FOOD CORP,KEY FOOD 1327,2722,E TREMONT AVE,,,BRONX,NY,10461,15000,-73.84513 40.84244,-73.84513,40.84244
Bronx,608556,Store,A,S&S VENTURES INC,PRICE BUSTERS,340,E 204TH ST,,,BRONX,NY,10467,5000,-73.87785 40.87222,-73.87785,40.87222
Bronx,608434,Store,A,WEBSTER BARGAIN INC,WEBSTER BARGAIN,1971,WEBSTER AVE,,,BRONX,NY,10457,6500,-73.89997 40.8494,-73.89997,40.8494
Bronx,608373,Store,A,MY 99 CENTS #2 INC,MY 99 CENTS #2,111-113,FEATHERBED LN,,,BRONX,NY,10452,5000,-73.91872 40.84616,-73.91872,40.84616
Bronx,608215,Store,JAC,1757 TJM FOOD CORP,FOOD UNIVERSE MARKETPLA,1757,RANDALL AVE,,,BRONX,NY,10473,30000,-73.86521 40.81683,-73.86521,40.81683
Bronx,608155,Store,JAC,111 MEAT & PRODUCE INC,FOOD UNIVERSE,111,DREISER LOOP,,,BRONX,NY,10475,25000,-73.82817 40.87704,-73.82817,40.87704
Bronx,608154,Store,JAC,2061 MEAT&PRODUCE INC,FOOD UNIVERSE,2061,BARTOW AVE,,,BRONX,NY,10475,20000,-73.82816 40.86958,-73.82816,40.86958
Bronx,608153,Store,JAC,119 MEAT&PRODUCE INC,FOOD UNIVERSE,119,EINSTEIN LOOP,,,BRONX,NY,10475,10000,-73.82173 40.86463,-73.82173,40.86463
Bronx,607919,Store,JABC,GAVA FOOD CORP,BRAVO SUPERMARKET,127,W BURNSIDE AVE,,,BRONX,NY,10453,5000,-73.91418 40.85386,-73.91418,40.85386
Bronx,607910,Store,JABCK,NEW ERA FOODS ONE INC,C TOWN SUPERMARKET,668,CRESCENT AVE,,,BRONX,NY,10458,7000,-73.8858 40.8542,-73.8858,40.8542
Bronx,607841,Store,JAC,HJ FAMILY FOOD CORP,C TOWN,1580,UNION PORT RD,,,BRONX,NY,10462,12000,-73.86197 40.83983,-73.86197,40.83983
Bronx,607764,Store,JAC,WEST EAST FOOD CORP,ASSOCIATED,35,RICHMAN PLAZA,,,BRONX,NY,10453,20000,-73.92264 40.85183,-73.92264,40.85183
Bronx,607755,Store,JACDHK,WORLD WIDE DIRECT SEAFOOD LLC,WORLD WIDE DIRECT SEAFD,800,FOOD CENTER DR  UNIT 13,,,BRONX,NY,10474,5500,-73.87625 40.80434,-73.87625,40.80434
Bronx,607611,Store,A,705 FAMILY DISCOUNT CORP,705 FAMILY DISCOUNT,705,E GUN HILL  RD,,,BRONX,NY,10467,11000,-73.86579 40.87717,-73.86579,40.87717
Bronx,607339,Store,JAC,SIN & SIN MANAGEMENT INC,PALM TREE MARKET PLACE,3717,BOSTON POST RD,,,BRONX,NY,10466,17000,-73.84099 40.88042,-73.84099,40.88042
Bronx,607301,Store,JABC,DANS SUPREME SUPERMARKETS INC,KEY FOOD 1515,540,W 235TH ST,,,BRONX,NY,10463,25000,-73.90949 40.88557,-73.90949,40.88557
Bronx,607261,Store,JAC,EMPORIUM SUPERMARKET CORP,ASSOCIATED,148,E 170TH ST,,,BRONX,NY,10452,8000,-73.9146 40.83893,-73.9146,40.83893
Bronx,606911,Store,JAC,CAMSENA MEAT CORP,MET FOOD,277,E 198TH ST,,,BRONX,NY,10458,10000,-73.88849 40.86868,-73.88849,40.86868
Bronx,606778,Store,JAC,TEAMS MARKET INC,KEY FOOD,1791,WALTON AVE,,,BRONX,NY,10453,10000,-73.90991 40.848,-73.90991,40.848
Bronx,606703,Store,JAC,TEO FOOD CORP,ASSOCIATED SUPERMARKET,206,E 167TH ST,,,BRONX,NY,10456,15000,-73.91642 40.83395,-73.91642,40.83395
Bronx,606538,Store,JAC,BOGOPA BRUCKNER INC,FOOD BAZAAR,1630,BRUCKNER BLVD,,,BRONX,NY,10473,35000,-73.87437 40.82399,-73.87437,40.82399
Bronx,606363,Store,JAC,IGUA FOOD CORP,CHERRY VALLEY MARKETPLA,421,E 189TH ST,,,BRONX,NY,10458,6000,-73.89188 40.86024,-73.89188,40.86024
Bronx,606220,Store,JAC,CRUZ MEAT CORP,PIONEER SUPERMARKET,2262,JEROME AVE,,,BRONX,NY,10453,5000,-73.90391 40.85837,-73.90391,40.85837
Bronx,606156,Store,JAC,D&A 724 FOOD CORP,FOOD UNIVERSE,724,HUNTS PT AVE,,,BRONX,NY,10474,8000,-73.88669 40.81536,-73.88669,40.81536
Bronx,606071,Store,JABC,JLT 156 FOOD CORP,JLT 156 FOOD,156,W 170TH ST,,,BRONX,NY,10452,8000,-73.92455 40.84137,-73.92455,40.84137
Bronx,605928,Store,JABC,1040 SHERMAN AVENUE SUPERMKT INC,C TOWN,1040,SHERMAN AVE,,,BRONX,NY,10456,16000,-73.918 40.83019,-73.918,40.83019
Bronx,605866,Store,JABC,KINGSBRIDGE MARKETPLACE CORP,FOODTOWN,5555,BROADWAY,,,BRONX,NY,10463,20000,-73.90509 40.87855,-73.90509,40.87855
Bronx,605860,Store,JACDK,GIORDANOS BIG G INC,GIORDANOS BIG G,1554,PAULDING AVE,,,BRONX,NY,10462,5000,-73.8522 40.84424,-73.8522,40.84424
Bronx,605815,Store,JAC,1221 FTELEY FOOD CORP,FINE FARE SUPERMARKET,1221,FTELEY AVE,,,BRONX,NY,10472,12000,-73.87174 40.83007,-73.87174,40.83007
Bronx,605648,Store,JAC,WESTERN BEEF RETAIL INC,WESTERN BEEF 36,1564,SOUTHERN BLVD,,,BRONX,NY,10460,15000,-73.88898 40.83534,-73.88898,40.83534
Bronx,605622,Store,JAC,2556 BOSTON FOOD CORP,FINE FARE SUPERMARKET,2556,BOSTON RD,,,BRONX,NY,10467,20000,-73.86386 40.86443,-73.86386,40.86443
Bronx,605589,Store,JAC,TARGET CORP,TARGET STORE T 1798,40,W 225TH ST 50,,,BRONX,NY,10463,10000,-73.90771 40.87358,-73.90771,40.87358
Bronx,605580,Store,JABC,WESTERN BEEF RETAIL INC,WESTERN BEEF 35,831,ROSEDALE AVE,,,BRONX,NY,10473,25000,-73.86684 40.82143,-73.86684,40.82143
Bronx,605400,Store,JAC,FAMA FOOD CORP,C TOWN,2276,CRESTON AVE,,,BRONX,NY,10453,5000,-73.90105 40.85757,-73.90105,40.85757
Bronx,605377,Store,JABC,AC&L FOOD CORP,FINE FARE SUPERMARKET,3680,E TREMONT AVE,,,BRONX,NY,10465,10000,-73.82285 40.82724,-73.82285,40.82724
Bronx,605305,Store,JABC,2945 MEAT&PRODUCE INC,SUPER FOODTOWN,2945,BRUCKNER BLVD,,,BRONX,NY,10461,20000,-73.82652 40.83417,-73.82652,40.83417
Bronx,605286,Store,JAC,CHANG LI SUPERMARKET INC,CHANG LI SUPERMARKET,2079,BENEDICT AVE,,,BRONX,NY,10462,15000,-73.85507 40.8348,-73.85507,40.8348
Bronx,605074,Store,JAC,MD 1511 MEAT & PRODUCE CORP,KEY FOOD SUPERMARKET,1511,METROPOLITAN AVE,,,BRONX,NY,10462,10000,-73.85888 40.83929,-73.85888,40.83929
Bronx,605037,Store,JAC,JD 248 FOOD CORP,BRAVO SUPERMARKET,248,E 174TH ST,,,BRONX,NY,10457,8000,-73.90687 40.8447,-73.90687,40.8447
Bronx,605014,Store,JABCK,MR SUPER FOOD CORP,C TOWN,30,E 198TH ST,,,BRONX,NY,10468,10000,-73.89222 40.87089,-73.89222,40.87089
Bronx,604942,Store,JAC,MORRIS PARK SUPERMARKET FOOD CORP,BIG DEAL SUPERMARKET,1018,MORRIS PARK AVE,,,BRONX,NY,10462,8500,-73.8558 40.84831,-73.8558,40.84831
Bronx,604092,Store,JAC,C MARKET FOOD CORP,FOODTOWN  #647,3734-36,WHITE PLAINS RD,,,BRONX,NY,10467,8000,-73.86346 40.88238,-73.86346,40.88238
Bronx,604072,Store,JACK,BEDFORD BOULEVARD FOOD CORP,CHERRY VALLEY MARKETPLA,2870,WEBSTER AVE,,,BRONX,NY,10458,18000,-73.88369 40.86692,-73.88369,40.86692
Bronx,603933,Store,JABC,GREEN FOREST FOOD CORP,FINE FARE SUPERMARKET,1136,OGDEN AVE,,,BRONX,NY,10452,20000,-73.92775 40.83583,-73.92775,40.83583
Bronx,603904,Store,JAC,RIVERDALE MEAT&PRODUCE CORP,C TOWN,5249,BROADWAY,,,BRONX,NY,10463,8000,-73.9084 40.87559,-73.9084,40.87559
Bronx,603899,Store,JABC,WESTERN BEEF RETAIL INC,WESTERN BEEF 48,1041,PROSPECT AVE,,,BRONX,NY,10459,60000,-73.89951 40.82478,-73.89951,40.82478
Bronx,603841,Store,JAC,BRONX 656 FOOD CORP,KEY FOOD SUPERMARKET,656,CASTLE HILL AVE,,,BRONX,NY,10473,35000,-73.84806 40.82013,-73.84806,40.82013
Bronx,603800,Store,JAC,FRUITS VEGS & MEAT CORP,PIONEER SUPERMARKET,256,ST ANNS AVE,,,BRONX,NY,10454,10000,-73.91717 40.80728,-73.91717,40.80728
Bronx,603794,Store,JAC,VILLAS MARKET PLACE INC,GARDEN GOURMET,5665,BROADWAY,,,BRONX,NY,10463,5000,-73.9033 40.88106,-73.9033,40.88106
Bronx,603659,Store,JAC,BOGOPA 170TH INC,FOOD BAZAAR,535,E 170TH ST,,,BRONX,NY,10456,10000,-73.90281 40.83485,-73.90281,40.83485
Bronx,603652,Store,JAC,FT MEAT CORP,FOOD FAIR FRESH MARKET,1065,E 163RD ST,,,BRONX,NY,10459,13000,-73.89071 40.821,-73.89071,40.821
Bronx,603400,Store,JAC,VARGAS&RODRIGUEZ SUPERMARKET INC,FINE FARE SUPERMARKET,3131,GRAND CONCOURSE,,,BRONX,NY,10468,5000,-73.88648 40.8751,-73.88648,40.8751
Bronx,603276,Store,JAC,BOSTON POST FOOD CORP,C TOWN,4008-4010,BOSTON POST RD,,,BRONX,NY,10475,15000,-73.83219 40.88457,-73.83219,40.88457
Bronx,603267,Store,JABC,JVD FOOD CORP,PRICE CHOICE,820,E 180TH ST,,,BRONX,NY,10460,9000,-73.88499 40.84625,-73.88499,40.84625
Bronx,603223,Store,JAC,CHARISSE&CHRISTINE ENT LTD,C TOWN,1750,UNIVERSITY AVE,,,BRONX,NY,10453,10000,-73.91707 40.84923,-73.91707,40.84923
Bronx,603070,Store,JAC,1654 METROPOLITAN FOOD CORP,FINE FARE SUPERMARKET,1654,METROPOLITAN AVE,,,BRONX,NY,10462,16000,-73.85563 40.84039,-73.85563,40.84039
Bronx,603025,Store,JAC,161 EAST MEAT CORP,ASSOCIATED SUPERMARKET,724,E 161ST ST,,,BRONX,NY,10456,14000,-73.90502 40.8214,-73.90502,40.8214
Bronx,602934,Store,JACHK,SBK PRESERVES INC,SARABETHS KITCHEN,1161,E 156TH ST,,,BRONX,NY,10474,15000,-73.89343 40.81278,-73.89343,40.81278
Bronx,602817,Store,JAC,BOGOPA-CONCOURSE INC,FOOD BAZAAR,238,E 161ST ST,,,BRONX,NY,10451,54000,-73.91992 40.82542,-73.91992,40.82542
Bronx,602697,Store,JABC,STOP&SHOP SUPERMARKET CO LLC THE,STOP&SHOP 504,691,CO-OP CITY BLVD,,,BRONX,NY,10475,58000,-73.82493 40.88049,-73.82493,40.88049
Bronx,602545,Store,JAC,BATFER FOOD CORP,KEY FOOD,256,E 167TH ST,,,BRONX,NY,10456,12000,-73.91461 40.83347,-73.91461,40.83347
Bronx,602513,Store,JAC,FRANCO FOOD CORP,ASSOCIATED 867,1585,WESTCHESTER AVE,,,BRONX,NY,10472,8000,-73.876 40.8291,-73.876,40.8291
Bronx,602258,Store,JAC,PRINCE FOOD CORP,KEY FOOD,2044,BOSTON RD,,,BRONX,NY,10460,14000,-73.87932 40.84102,-73.87932,40.84102
Bronx,602229,Store,JAC,C&R FOOD CORP,FINE FARE SUPERMARKET,708,E TREMONT AVE,,,BRONX,NY,10457,14000,-73.89064 40.84517,-73.89064,40.84517
Bronx,602096,Store,JAC,JRL FOOD CORP,KEY FOOD,3515,JEROME AVE,,,BRONX,NY,10467,8500,-73.8817 40.88231,-73.8817,40.88231
Bronx,601621,Store,JAC,MK FOOD CORP,KEY FOODS,1535,UNIONPORT RD,,,BRONX,NY,10462,9000,-73.85762 40.83697,-73.85762,40.83697
Bronx,601536,Store,JAC,EAST 233 FOOD CORP,FINE FARE SUPERMARKET,1197-99,E 233RD ST,,,BRONX,NY,10466,14000,-73.84327 40.88935,-73.84327,40.88935
Bronx,601535,Store,JAC,48 BURNSIDE FOOD CORP,FOOD DYNASTY SUPERMARKE,40-48,W BURNSIDE AVE,,,BRONX,NY,10453,15000,-73.90913 40.85385,-73.90913,40.85385
Bronx,601477,Store,JABC,STOP&SHOP SUPERMARKET CO LLC THE,STOP&SHOP 503,5716,BROADWAY,,,BRONX,NY,10463,27000,-73.90201 40.88187,-73.90201,40.88187
Bronx,601435,Store,JAC,B&ME FOOD CORP,KEY FOOD,1050,WESTCHESTER AVE,,,BRONX,NY,10459,15000,-73.8914 40.82494,-73.8914,40.82494
Bronx,601292,Store,JAC,PWP EQUITIES CORP,ASSOCIATED,1188,WEBSTER AVE,,,BRONX,NY,10456,15000,-73.91006 40.83151,-73.91006,40.83151
Bronx,600998,Store,JAC,PALERO FOOD CORP,FINE FARE SUPERMARKET,3550,WHITE PLAINS RD,,,BRONX,NY,10467,5500,-73.86566 40.87827,-73.86566,40.87827
Bronx,600992,Store,JABC,283 FOOD LLC,FOODTOWN 582,283,E 204TH ST,,,BRONX,NY,10467,20000,-73.8789 40.87332,-73.8789,40.87332
Bronx,600951,Store,JAC,1489 FOOD CORP,FOODTOWN,1477-1489,WEST AVE,,,BRONX,NY,10462,5000,-73.86158 40.83655,-73.86158,40.83655
Bronx,600770,Store,JABC,C & CBROTHERS OF NY,FINE FARE,59,E 167TH ST,,,BRONX,NY,10452,20000,-73.92058 40.83552,-73.92058,40.83552
Bronx,600709,Store,JAC,AJC FOOD MARKET CORP,FOOD TOWN,4332,WHITE PLAINS RD,,,BRONX,NY,10466,24000,-73.85572 40.89638,-73.85572,40.89638
Bronx,600437,Store,JABC,RED&WHITE MARKETS INC,MORTON WILLIAMS SPRMRKT,15,E KINGSBRIDGE RD,,,BRONX,NY,10468,25000,-73.89675 40.86721,-73.89675,40.86721
Bronx,600246,Store,JABC,564 GROCERY INC,C TOWN,564,SOUTHERN BLVD,,,BRONX,NY,10455,8000,-73.90281 40.81251,-73.90281,40.81251
Bronx,600049,Store,JAC,NANIN FOOD CORP,C TOWN,2733,3RD AVE,,,BRONX,NY,10451,10000,-73.9211 40.81425,-73.9211,40.81425
